{
"type": "FeatureCollection",
"name": "level_11",
"crs": { "type": "name", "properties": { "name": "urn:ogc:def:crs:OGC:1.3:CRS84" } },
"features": [
{ "type": "Feature", "properties": { "cell_id": "3539072568235393024", "token": "311d4fc", "level": 11, "type": "s2" }, "geometry": { "type": "Polygon", "coordinates": [ [ [ 100.800005107015735, 13.449109081199566 ], [ 100.800005107015735, 13.494708978660544 ], [ 100.845146733373554, 13.492750927920875 ], [ 100.845146733373554, 13.447157152708233 ], [ 100.800005107015735, 13.449109081199566 ] ] ] } },
{ "type": "Feature", "properties": { "cell_id": "3539073117991206912", "token": "311d504", "level": 11, "type": "s2" }, "geometry": { "type": "Polygon", "coordinates": [ [ [ 100.75488506669916, 13.451052005335209 ], [ 100.75488506669916, 13.496657996591019 ], [ 100.800005107015735, 13.494708978660544 ], [ 100.800005107015735, 13.449109081199566 ], [ 100.75488506669916, 13.451052005335209 ] ] ] } },
{ "type": "Feature", "properties": { "cell_id": "3539073667747020800", "token": "311d50c", "level": 11, "type": "s2" }, "geometry": { "type": "Polygon", "coordinates": [ [ [ 100.70978669392025, 13.452985932391803 ], [ 100.709786693920236, 13.49859798901468 ], [ 100.75488506669916, 13.496657996591019 ], [ 100.75488506669916, 13.451052005335209 ], [ 100.70978669392025, 13.452985932391803 ] ] ] } },
{ "type": "Feature", "properties": { "cell_id": "3539061023363301376", "token": "311d454", "level": 11, "type": "s2" }, "geometry": { "type": "Polygon", "coordinates": [ [ [ 100.800005107015735, 13.494708978660544 ], [ 100.800005107015735, 13.540325285191496 ], [ 100.845146733373554, 13.53836111496306 ], [ 100.845146733373554, 13.492750927920875 ], [ 100.800005107015735, 13.494708978660544 ] ] ] } },
{ "type": "Feature", "properties": { "cell_id": "3539084662863298560", "token": "311d5ac", "level": 11, "type": "s2" }, "geometry": { "type": "Polygon", "coordinates": [ [ [ 100.75488506669916, 13.496657996591019 ], [ 100.75488506669916, 13.542280394167914 ], [ 100.800005107015735, 13.540325285191496 ], [ 100.800005107015735, 13.494708978660544 ], [ 100.75488506669916, 13.496657996591019 ] ] ] } },
{ "type": "Feature", "properties": { "cell_id": "3539083563351670784", "token": "311d59c", "level": 11, "type": "s2" }, "geometry": { "type": "Polygon", "coordinates": [ [ [ 100.664710070014337, 13.500528963299544 ], [ 100.664710070014337, 13.546163457743003 ], [ 100.709786693920236, 13.544226449220433 ], [ 100.709786693920236, 13.49859798901468 ], [ 100.664710070014337, 13.500528963299544 ] ] ] } },
{ "type": "Feature", "properties": { "cell_id": "3539081914084229120", "token": "311d584", "level": 11, "type": "s2" }, "geometry": { "type": "Polygon", "coordinates": [ [ [ 100.619655276155143, 13.502450926879073 ], [ 100.619655276155143, 13.548091427195203 ], [ 100.664710070014337, 13.546163457743003 ], [ 100.664710070014337, 13.500528963299544 ], [ 100.619655276155143, 13.502450926879073 ] ] ] } },
{ "type": "Feature", "properties": { "cell_id": "3522562301632708608", "token": "30e2a7c", "level": 11, "type": "s2" }, "geometry": { "type": "Polygon", "coordinates": [ [ [ 100.574622393354161, 13.504363887251976 ], [ 100.574622393354176, 13.550010365102048 ], [ 100.619655276155143, 13.548091427195203 ], [ 100.619655276155143, 13.502450926879073 ], [ 100.574622393354161, 13.504363887251976 ] ] ] } },
{ "type": "Feature", "properties": { "cell_id": "3539083013595856896", "token": "311d594", "level": 11, "type": "s2" }, "geometry": { "type": "Polygon", "coordinates": [ [ [ 100.664710070014337, 13.546163457743003 ], [ 100.664710070014337, 13.591814266295859 ], [ 100.70978669392025, 13.589871226295141 ], [ 100.709786693920236, 13.544226449220433 ], [ 100.664710070014337, 13.546163457743003 ] ] ] } },
{ "type": "Feature", "properties": { "cell_id": "3539072018479579136", "token": "311d4f4", "level": 11, "type": "s2" }, "geometry": { "type": "Polygon", "coordinates": [ [ [ 100.845146733373554, 13.447157152708233 ], [ 100.845146733373554, 13.492750927920875 ], [ 100.890309864115707, 13.49078383713548 ], [ 100.890309864115707, 13.445196212650197 ], [ 100.845146733373554, 13.447157152708233 ] ] ] } },
{ "type": "Feature", "properties": { "cell_id": "3539061573119115264", "token": "311d45c", "level": 11, "type": "s2" }, "geometry": { "type": "Polygon", "coordinates": [ [ [ 100.845146733373554, 13.492750927920875 ], [ 100.845146733373554, 13.53836111496306 ], [ 100.890309864115707, 13.536387876220518 ], [ 100.890309864115707, 13.49078383713548 ], [ 100.845146733373554, 13.492750927920875 ] ] ] } },
{ "type": "Feature", "properties": { "cell_id": "3539084113107484672", "token": "311d5a4", "level": 11, "type": "s2" }, "geometry": { "type": "Polygon", "coordinates": [ [ [ 100.709786693920236, 13.49859798901468 ], [ 100.709786693920236, 13.544226449220433 ], [ 100.75488506669916, 13.542280394167914 ], [ 100.75488506669916, 13.496657996591019 ], [ 100.709786693920236, 13.49859798901468 ] ] ] } },
{ "type": "Feature", "properties": { "cell_id": "3539060473607487488", "token": "311d44c", "level": 11, "type": "s2" }, "geometry": { "type": "Polygon", "coordinates": [ [ [ 100.800005107015735, 13.540325285191496 ], [ 100.800005107015735, 13.585957914143046 ], [ 100.845146733373554, 13.583987627217892 ], [ 100.845146733373554, 13.53836111496306 ], [ 100.800005107015735, 13.540325285191496 ] ] ] } },
{ "type": "Feature", "properties": { "cell_id": "3539085212619112448", "token": "311d5b4", "level": 11, "type": "s2" }, "geometry": { "type": "Polygon", "coordinates": [ [ [ 100.75488506669916, 13.542280394167914 ], [ 100.75488506669916, 13.587919111384169 ], [ 100.800005107015735, 13.585957914143046 ], [ 100.800005107015735, 13.540325285191496 ], [ 100.75488506669916, 13.542280394167914 ] ] ] } },
{ "type": "Feature", "properties": { "cell_id": "3539085762374926336", "token": "311d5bc", "level": 11, "type": "s2" }, "geometry": { "type": "Polygon", "coordinates": [ [ [ 100.709786693920236, 13.544226449220433 ], [ 100.70978669392025, 13.589871226295141 ], [ 100.75488506669916, 13.587919111384169 ], [ 100.75488506669916, 13.542280394167914 ], [ 100.709786693920236, 13.544226449220433 ] ] ] } },
{ "type": "Feature", "properties": { "cell_id": "3539058824340045824", "token": "311d434", "level": 11, "type": "s2" }, "geometry": { "type": "Polygon", "coordinates": [ [ [ 100.800005107015735, 13.585957914143046 ], [ 100.800005107015735, 13.631606778749822 ], [ 100.845146733373554, 13.629630377952493 ], [ 100.845146733373554, 13.583987627217892 ], [ 100.800005107015735, 13.585957914143046 ] ] ] } },
{ "type": "Feature", "properties": { "cell_id": "3539086861886554112", "token": "311d5cc", "level": 11, "type": "s2" }, "geometry": { "type": "Polygon", "coordinates": [ [ [ 100.75488506669916, 13.587919111384169 ], [ 100.75488506669916, 13.633574061442072 ], [ 100.800005107015735, 13.631606778749822 ], [ 100.800005107015735, 13.585957914143046 ], [ 100.75488506669916, 13.587919111384169 ] ] ] } },
{ "type": "Feature", "properties": { "cell_id": "3539086312130740224", "token": "311d5c4", "level": 11, "type": "s2" }, "geometry": { "type": "Polygon", "coordinates": [ [ [ 100.70978669392025, 13.589871226295141 ], [ 100.70978669392025, 13.635532233408892 ], [ 100.75488506669916, 13.633574061442072 ], [ 100.75488506669916, 13.587919111384169 ], [ 100.70978669392025, 13.589871226295141 ] ] ] } },
{ "type": "Feature", "properties": { "cell_id": "3539058274584231936", "token": "311d42c", "level": 11, "type": "s2" }, "geometry": { "type": "Polygon", "coordinates": [ [ [ 100.800005107015735, 13.631606778749822 ], [ 100.800005107015735, 13.677271792131194 ], [ 100.845146733373554, 13.675289280318715 ], [ 100.845146733373554, 13.629630377952493 ], [ 100.800005107015735, 13.631606778749822 ] ] ] } },
{ "type": "Feature", "properties": { "cell_id": "3539087411642368000", "token": "311d5d4", "level": 11, "type": "s2" }, "geometry": { "type": "Polygon", "coordinates": [ [ [ 100.75488506669916, 13.633574061442072 ], [ 100.75488506669916, 13.679245157428641 ], [ 100.800005107015735, 13.677271792131194 ], [ 100.800005107015735, 13.631606778749822 ], [ 100.75488506669916, 13.633574061442072 ] ] ] } },
{ "type": "Feature", "properties": { "cell_id": "3539087961398181888", "token": "311d5dc", "level": 11, "type": "s2" }, "geometry": { "type": "Polygon", "coordinates": [ [ [ 100.70978669392025, 13.635532233408892 ], [ 100.709786693920236, 13.681209383616503 ], [ 100.75488506669916, 13.679245157428641 ], [ 100.75488506669916, 13.633574061442072 ], [ 100.70978669392025, 13.635532233408892 ] ] ] } },
{ "type": "Feature", "properties": { "cell_id": "3539062672630743040", "token": "311d46c", "level": 11, "type": "s2" }, "geometry": { "type": "Polygon", "coordinates": [ [ [ 100.890309864115707, 13.536387876220518 ], [ 100.890309864115707, 13.582008243321051 ], [ 100.935494417425332, 13.580019755231277 ], [ 100.935494417425332, 13.534405561768004 ], [ 100.890309864115707, 13.536387876220518 ] ] ] } },
{ "type": "Feature", "properties": { "cell_id": "3539059923851673600", "token": "311d444", "level": 11, "type": "s2" }, "geometry": { "type": "Polygon", "coordinates": [ [ [ 100.845146733373554, 13.53836111496306 ], [ 100.845146733373554, 13.583987627217892 ], [ 100.890309864115707, 13.582008243321051 ], [ 100.890309864115707, 13.536387876220518 ], [ 100.845146733373554, 13.53836111496306 ] ] ] } },
{ "type": "Feature", "properties": { "cell_id": "3539056075560976384", "token": "311d40c", "level": 11, "type": "s2" }, "geometry": { "type": "Polygon", "coordinates": [ [ [ 100.935494417425332, 13.580019755231277 ], [ 100.935494417425332, 13.625650192856201 ], [ 100.98070031132626, 13.62364639413075 ], [ 100.98070031132626, 13.578022155793931 ], [ 100.935494417425332, 13.580019755231277 ] ] ] } },
{ "type": "Feature", "properties": { "cell_id": "3539056625316790272", "token": "311d414", "level": 11, "type": "s2" }, "geometry": { "type": "Polygon", "coordinates": [ [ [ 100.890309864115707, 13.582008243321051 ], [ 100.890309864115707, 13.627644851736834 ], [ 100.935494417425332, 13.625650192856201 ], [ 100.935494417425332, 13.580019755231277 ], [ 100.890309864115707, 13.582008243321051 ] ] ] } },
{ "type": "Feature", "properties": { "cell_id": "3539059374095859712", "token": "311d43c", "level": 11, "type": "s2" }, "geometry": { "type": "Polygon", "coordinates": [ [ [ 100.845146733373554, 13.583987627217892 ], [ 100.845146733373554, 13.629630377952493 ], [ 100.890309864115707, 13.627644851736834 ], [ 100.890309864115707, 13.582008243321051 ], [ 100.845146733373554, 13.583987627217892 ] ] ] } },
{ "type": "Feature", "properties": { "cell_id": "3539055525805162496", "token": "311d404", "level": 11, "type": "s2" }, "geometry": { "type": "Polygon", "coordinates": [ [ [ 100.935494417425332, 13.625650192856201 ], [ 100.935494417425332, 13.671296787860035 ], [ 100.98070031132626, 13.669286792736703 ], [ 100.98070031132626, 13.62364639413075 ], [ 100.935494417425332, 13.625650192856201 ] ] ] } },
{ "type": "Feature", "properties": { "cell_id": "3539057175072604160", "token": "311d41c", "level": 11, "type": "s2" }, "geometry": { "type": "Polygon", "coordinates": [ [ [ 100.890309864115707, 13.627644851736834 ], [ 100.890309864115707, 13.673297614652348 ], [ 100.935494417425332, 13.671296787860035 ], [ 100.935494417425332, 13.625650192856201 ], [ 100.890309864115707, 13.627644851736834 ] ] ] } },
{ "type": "Feature", "properties": { "cell_id": "3539057724828418048", "token": "311d424", "level": 11, "type": "s2" }, "geometry": { "type": "Polygon", "coordinates": [ [ [ 100.845146733373554, 13.629630377952493 ], [ 100.845146733373554, 13.675289280318715 ], [ 100.890309864115707, 13.673297614652348 ], [ 100.890309864115707, 13.627644851736834 ], [ 100.845146733373554, 13.629630377952493 ] ] ] } },
{ "type": "Feature", "properties": { "cell_id": "3539101705293529088", "token": "311d6a4", "level": 11, "type": "s2" }, "geometry": { "type": "Polygon", "coordinates": [ [ [ 100.890309864115707, 13.673297614652348 ], [ 100.890309864115707, 13.718966445137557 ], [ 100.935494417425332, 13.716959453345513 ], [ 100.935494417425332, 13.671296787860035 ], [ 100.890309864115707, 13.673297614652348 ] ] ] } },
{ "type": "Feature", "properties": { "cell_id": "3539082463840043008", "token": "311d58c", "level": 11, "type": "s2" }, "geometry": { "type": "Polygon", "coordinates": [ [ [ 100.619655276155143, 13.548091427195203 ], [ 100.619655276155129, 13.59374823887204 ], [ 100.664710070014337, 13.591814266295859 ], [ 100.664710070014337, 13.546163457743003 ], [ 100.619655276155143, 13.548091427195203 ] ] ] } },
{ "type": "Feature", "properties": { "cell_id": "3522561751876894720", "token": "30e2a74", "level": 11, "type": "s2" }, "geometry": { "type": "Polygon", "coordinates": [ [ [ 100.574622393354176, 13.550010365102048 ], [ 100.574622393354176, 13.595673151575024 ], [ 100.619655276155129, 13.59374823887204 ], [ 100.619655276155143, 13.548091427195203 ], [ 100.574622393354176, 13.550010365102048 ] ] ] } },
{ "type": "Feature", "properties": { "cell_id": "3539089060909809664", "token": "311d5ec", "level": 11, "type": "s2" }, "geometry": { "type": "Polygon", "coordinates": [ [ [ 100.664710070014337, 13.591814266295859 ], [ 100.664710070014337, 13.637481302096147 ], [ 100.70978669392025, 13.635532233408892 ], [ 100.70978669392025, 13.589871226295141 ], [ 100.664710070014337, 13.591814266295859 ] ] ] } },
{ "type": "Feature", "properties": { "cell_id": "3539089610665623552", "token": "311d5f4", "level": 11, "type": "s2" }, "geometry": { "type": "Polygon", "coordinates": [ [ [ 100.619655276155129, 13.59374823887204 ], [ 100.619655276155143, 13.639421275015707 ], [ 100.664710070014337, 13.637481302096147 ], [ 100.664710070014337, 13.591814266295859 ], [ 100.619655276155129, 13.59374823887204 ] ] ] } },
{ "type": "Feature", "properties": { "cell_id": "3522554605051314176", "token": "30e2a0c", "level": 11, "type": "s2" }, "geometry": { "type": "Polygon", "coordinates": [ [ [ 100.574622393354176, 13.595673151575024 ], [ 100.574622393354176, 13.64135215974526 ], [ 100.619655276155143, 13.639421275015707 ], [ 100.619655276155129, 13.59374823887204 ], [ 100.574622393354176, 13.595673151575024 ] ] ] } },
{ "type": "Feature", "properties": { "cell_id": "3539088511153995776", "token": "311d5e4", "level": 11, "type": "s2" }, "geometry": { "type": "Polygon", "coordinates": [ [ [ 100.664710070014337, 13.637481302096147 ], [ 100.664710070014337, 13.68316447816663 ], [ 100.709786693920236, 13.681209383616503 ], [ 100.70978669392025, 13.635532233408892 ], [ 100.664710070014337, 13.637481302096147 ] ] ] } },
{ "type": "Feature", "properties": { "cell_id": "3539090160421437440", "token": "311d5fc", "level": 11, "type": "s2" }, "geometry": { "type": "Polygon", "coordinates": [ [ [ 100.619655276155143, 13.639421275015707 ], [ 100.619655276155129, 13.68511044861706 ], [ 100.664710070014337, 13.68316447816663 ], [ 100.664710070014337, 13.637481302096147 ], [ 100.619655276155143, 13.639421275015707 ] ] ] } },
{ "type": "Feature", "properties": { "cell_id": "3522554055295500288", "token": "30e2a04", "level": 11, "type": "s2" }, "geometry": { "type": "Polygon", "coordinates": [ [ [ 100.574622393354176, 13.64135215974526 ], [ 100.574622393354176, 13.687047302571838 ], [ 100.619655276155129, 13.68511044861706 ], [ 100.619655276155143, 13.639421275015707 ], [ 100.574622393354176, 13.64135215974526 ] ] ] } },
{ "type": "Feature", "properties": { "cell_id": "3539091259933065216", "token": "311d60c", "level": 11, "type": "s2" }, "geometry": { "type": "Polygon", "coordinates": [ [ [ 100.664710070014337, 13.68316447816663 ], [ 100.664710070014337, 13.728863707415545 ], [ 100.70978669392025, 13.726902589858273 ], [ 100.709786693920236, 13.681209383616503 ], [ 100.664710070014337, 13.68316447816663 ] ] ] } },
{ "type": "Feature", "properties": { "cell_id": "3539090710177251328", "token": "311d604", "level": 11, "type": "s2" }, "geometry": { "type": "Polygon", "coordinates": [ [ [ 100.619655276155129, 13.68511044861706 ], [ 100.619655276155143, 13.730815672552424 ], [ 100.664710070014337, 13.728863707415545 ], [ 100.664710070014337, 13.68316447816663 ], [ 100.619655276155129, 13.68511044861706 ] ] ] } },
{ "type": "Feature", "properties": { "cell_id": "3539099506270273536", "token": "311d684", "level": 11, "type": "s2" }, "geometry": { "type": "Polygon", "coordinates": [ [ [ 100.800005107015735, 13.677271792131194 ], [ 100.800005107015735, 13.722952867291999 ], [ 100.845146733373554, 13.720964247353885 ], [ 100.845146733373554, 13.675289280318715 ], [ 100.800005107015735, 13.677271792131194 ] ] ] } },
{ "type": "Feature", "properties": { "cell_id": "3539098956514459648", "token": "311d67c", "level": 11, "type": "s2" }, "geometry": { "type": "Polygon", "coordinates": [ [ [ 100.75488506669916, 13.679245157428641 ], [ 100.75488506669916, 13.724932312316374 ], [ 100.800005107015735, 13.722952867291999 ], [ 100.800005107015735, 13.677271792131194 ], [ 100.75488506669916, 13.679245157428641 ] ] ] } },
{ "type": "Feature", "properties": { "cell_id": "3539098406758645760", "token": "311d674", "level": 11, "type": "s2" }, "geometry": { "type": "Polygon", "coordinates": [ [ [ 100.709786693920236, 13.681209383616503 ], [ 100.70978669392025, 13.726902589858273 ], [ 100.75488506669916, 13.724932312316374 ], [ 100.75488506669916, 13.679245157428641 ], [ 100.709786693920236, 13.681209383616503 ] ] ] } },
{ "type": "Feature", "properties": { "cell_id": "3539100605781901312", "token": "311d694", "level": 11, "type": "s2" }, "geometry": { "type": "Polygon", "coordinates": [ [ [ 100.845146733373554, 13.720964247353885 ], [ 100.845146733373554, 13.766655191981531 ], [ 100.890309864115707, 13.764651256148612 ], [ 100.890309864115707, 13.718966445137557 ], [ 100.845146733373554, 13.720964247353885 ] ] ] } },
{ "type": "Feature", "properties": { "cell_id": "3539100056026087424", "token": "311d68c", "level": 11, "type": "s2" }, "geometry": { "type": "Polygon", "coordinates": [ [ [ 100.800005107015735, 13.722952867291999 ], [ 100.800005107015735, 13.768649917123277 ], [ 100.845146733373554, 13.766655191981531 ], [ 100.845146733373554, 13.720964247353885 ], [ 100.800005107015735, 13.722952867291999 ] ] ] } },
{ "type": "Feature", "properties": { "cell_id": "3539097307247017984", "token": "311d664", "level": 11, "type": "s2" }, "geometry": { "type": "Polygon", "coordinates": [ [ [ 100.75488506669916, 13.724932312316374 ], [ 100.75488506669916, 13.77063543896397 ], [ 100.800005107015735, 13.768649917123277 ], [ 100.800005107015735, 13.722952867291999 ], [ 100.75488506669916, 13.724932312316374 ] ] ] } },
{ "type": "Feature", "properties": { "cell_id": "3539097857002831872", "token": "311d66c", "level": 11, "type": "s2" }, "geometry": { "type": "Polygon", "coordinates": [ [ [ 100.70978669392025, 13.726902589858273 ], [ 100.70978669392025, 13.772611764960704 ], [ 100.75488506669916, 13.77063543896397 ], [ 100.75488506669916, 13.724932312316374 ], [ 100.70978669392025, 13.726902589858273 ] ] ] } },
{ "type": "Feature", "properties": { "cell_id": "3539107202851667968", "token": "311d6f4", "level": 11, "type": "s2" }, "geometry": { "type": "Polygon", "coordinates": [ [ [ 100.800005107015735, 13.768649917123277 ], [ 100.800005107015735, 13.814362854403015 ], [ 100.845146733373554, 13.812362027012123 ], [ 100.845146733373554, 13.766655191981531 ], [ 100.800005107015735, 13.768649917123277 ] ] ] } },
{ "type": "Feature", "properties": { "cell_id": "3539096757491204096", "token": "311d65c", "level": 11, "type": "s2" }, "geometry": { "type": "Polygon", "coordinates": [ [ [ 100.75488506669916, 13.77063543896397 ], [ 100.75488506669916, 13.816354450117075 ], [ 100.800005107015735, 13.814362854403015 ], [ 100.800005107015735, 13.768649917123277 ], [ 100.75488506669916, 13.77063543896397 ] ] ] } },
{ "type": "Feature", "properties": { "cell_id": "3539095108223762432", "token": "311d644", "level": 11, "type": "s2" }, "geometry": { "type": "Polygon", "coordinates": [ [ [ 100.70978669392025, 13.772611764960704 ], [ 100.709786693920236, 13.818336821637248 ], [ 100.75488506669916, 13.816354450117075 ], [ 100.75488506669916, 13.77063543896397 ], [ 100.70978669392025, 13.772611764960704 ] ] ] } },
{ "type": "Feature", "properties": { "cell_id": "3539101155537715200", "token": "311d69c", "level": 11, "type": "s2" }, "geometry": { "type": "Polygon", "coordinates": [ [ [ 100.845146733373554, 13.675289280318715 ], [ 100.845146733373554, 13.720964247353885 ], [ 100.890309864115707, 13.718966445137557 ], [ 100.890309864115707, 13.673297614652348 ], [ 100.845146733373554, 13.675289280318715 ] ] ] } },
{ "type": "Feature", "properties": { "cell_id": "3539103354560970752", "token": "311d6bc", "level": 11, "type": "s2" }, "geometry": { "type": "Polygon", "coordinates": [ [ [ 100.890309864115707, 13.718966445137557 ], [ 100.890309864115707, 13.764651256148612 ], [ 100.935494417425332, 13.762638102301572 ], [ 100.935494417425332, 13.716959453345513 ], [ 100.890309864115707, 13.718966445137557 ] ] ] } },
{ "type": "Feature", "properties": { "cell_id": "3539103904316784640", "token": "311d6c4", "level": 11, "type": "s2" }, "geometry": { "type": "Polygon", "coordinates": [ [ [ 100.890309864115707, 13.764651256148612 ], [ 100.890309864115707, 13.810351960528617 ], [ 100.935494417425332, 13.808332647604077 ], [ 100.935494417425332, 13.762638102301572 ], [ 100.890309864115707, 13.764651256148612 ] ] ] } },
{ "type": "Feature", "properties": { "cell_id": "3539106653095854080", "token": "311d6ec", "level": 11, "type": "s2" }, "geometry": { "type": "Polygon", "coordinates": [ [ [ 100.845146733373554, 13.766655191981531 ], [ 100.845146733373554, 13.812362027012123 ], [ 100.890309864115707, 13.810351960528617 ], [ 100.890309864115707, 13.764651256148612 ], [ 100.845146733373554, 13.766655191981531 ] ] ] } },
{ "type": "Feature", "properties": { "cell_id": "3539105003828412416", "token": "311d6d4", "level": 11, "type": "s2" }, "geometry": { "type": "Polygon", "coordinates": [ [ [ 100.935494417425332, 13.808332647604077 ], [ 100.935494417425332, 13.854043002016578 ], [ 100.98070031132626, 13.852008250862342 ], [ 100.98070031132626, 13.806304080957638 ], [ 100.935494417425332, 13.808332647604077 ] ] ] } },
{ "type": "Feature", "properties": { "cell_id": "3539105553584226304", "token": "311d6dc", "level": 11, "type": "s2" }, "geometry": { "type": "Polygon", "coordinates": [ [ [ 100.890309864115707, 13.810351960528617 ], [ 100.890309864115707, 13.856068471008346 ], [ 100.935494417425332, 13.854043002016578 ], [ 100.935494417425332, 13.808332647604077 ], [ 100.890309864115707, 13.810351960528617 ] ] ] } },
{ "type": "Feature", "properties": { "cell_id": "3539106103340040192", "token": "311d6e4", "level": 11, "type": "s2" }, "geometry": { "type": "Polygon", "coordinates": [ [ [ 100.845146733373554, 13.812362027012123 ], [ 100.845146733373554, 13.85808466514381 ], [ 100.890309864115707, 13.856068471008346 ], [ 100.890309864115707, 13.810351960528617 ], [ 100.845146733373554, 13.812362027012123 ] ] ] } },
{ "type": "Feature", "properties": { "cell_id": "3539107752607481856", "token": "311d6fc", "level": 11, "type": "s2" }, "geometry": { "type": "Polygon", "coordinates": [ [ [ 100.800005107015735, 13.814362854403015 ], [ 100.800005107015735, 13.860091591796879 ], [ 100.845146733373554, 13.85808466514381 ], [ 100.845146733373554, 13.812362027012123 ], [ 100.800005107015735, 13.814362854403015 ] ] ] } },
{ "type": "Feature", "properties": { "cell_id": "3539096207735390208", "token": "311d654", "level": 11, "type": "s2" }, "geometry": { "type": "Polygon", "coordinates": [ [ [ 100.75488506669916, 13.816354450117075 ], [ 100.75488506669916, 13.862089258409023 ], [ 100.800005107015735, 13.860091591796879 ], [ 100.800005107015735, 13.814362854403015 ], [ 100.75488506669916, 13.816354450117075 ] ] ] } },
{ "type": "Feature", "properties": { "cell_id": "3539095657979576320", "token": "311d64c", "level": 11, "type": "s2" }, "geometry": { "type": "Polygon", "coordinates": [ [ [ 100.709786693920236, 13.818336821637248 ], [ 100.70978669392025, 13.86407767248904 ], [ 100.75488506669916, 13.862089258409023 ], [ 100.75488506669916, 13.816354450117075 ], [ 100.709786693920236, 13.818336821637248 ] ] ] } },
{ "type": "Feature", "properties": { "cell_id": "3539094008712134656", "token": "311d634", "level": 11, "type": "s2" }, "geometry": { "type": "Polygon", "coordinates": [ [ [ 100.664710070014337, 13.820309976513435 ], [ 100.664710070014337, 13.866056841612897 ], [ 100.70978669392025, 13.86407767248904 ], [ 100.709786693920236, 13.818336821637248 ], [ 100.664710070014337, 13.820309976513435 ] ] ] } },
{ "type": "Feature", "properties": { "cell_id": "3539108302363295744", "token": "311d704", "level": 11, "type": "s2" }, "geometry": { "type": "Polygon", "coordinates": [ [ [ 100.800005107015735, 13.860091591796879 ], [ 100.800005107015735, 13.905836041858981 ], [ 100.845146733373554, 13.903823018963173 ], [ 100.845146733373554, 13.85808466514381 ], [ 100.800005107015735, 13.860091591796879 ] ] ] } },
{ "type": "Feature", "properties": { "cell_id": "3539119847235387392", "token": "311d7ac", "level": 11, "type": "s2" }, "geometry": { "type": "Polygon", "coordinates": [ [ [ 100.75488506669916, 13.862089258409023 ], [ 100.75488506669916, 13.907839776361579 ], [ 100.800005107015735, 13.905836041858981 ], [ 100.800005107015735, 13.860091591796879 ], [ 100.75488506669916, 13.862089258409023 ] ] ] } },
{ "type": "Feature", "properties": { "cell_id": "3539120396991201280", "token": "311d7b4", "level": 11, "type": "s2" }, "geometry": { "type": "Polygon", "coordinates": [ [ [ 100.70978669392025, 13.86407767248904 ], [ 100.70978669392025, 13.909834230005666 ], [ 100.75488506669916, 13.907839776361579 ], [ 100.75488506669916, 13.862089258409023 ], [ 100.70978669392025, 13.86407767248904 ] ] ] } },
{ "type": "Feature", "properties": { "cell_id": "3539108852119109632", "token": "311d70c", "level": 11, "type": "s2" }, "geometry": { "type": "Polygon", "coordinates": [ [ [ 100.800005107015735, 13.905836041858981 ], [ 100.800005107015735, 13.951596117032585 ], [ 100.845146733373554, 13.949577000945967 ], [ 100.845146733373554, 13.903823018963173 ], [ 100.800005107015735, 13.905836041858981 ] ] ] } },
{ "type": "Feature", "properties": { "cell_id": "3539119297479573504", "token": "311d7a4", "level": 11, "type": "s2" }, "geometry": { "type": "Polygon", "coordinates": [ [ [ 100.75488506669916, 13.907839776361579 ], [ 100.75488506669916, 13.953605916385687 ], [ 100.800005107015735, 13.951596117032585 ], [ 100.800005107015735, 13.905836041858981 ], [ 100.75488506669916, 13.907839776361579 ] ] ] } },
{ "type": "Feature", "properties": { "cell_id": "3539120946747015168", "token": "311d7bc", "level": 11, "type": "s2" }, "geometry": { "type": "Polygon", "coordinates": [ [ [ 100.70978669392025, 13.909834230005666 ], [ 100.709786693920236, 13.95560640656587 ], [ 100.75488506669916, 13.953605916385687 ], [ 100.75488506669916, 13.907839776361579 ], [ 100.70978669392025, 13.909834230005666 ] ] ] } },
{ "type": "Feature", "properties": { "cell_id": "3539110501386551296", "token": "311d724", "level": 11, "type": "s2" }, "geometry": { "type": "Polygon", "coordinates": [ [ [ 100.890309864115707, 13.856068471008346 ], [ 100.890309864115707, 13.901800700207005 ], [ 100.935494417425332, 13.899769078191047 ], [ 100.935494417425332, 13.854043002016578 ], [ 100.890309864115707, 13.856068471008346 ] ] ] } },
{ "type": "Feature", "properties": { "cell_id": "3539109951630737408", "token": "311d71c", "level": 11, "type": "s2" }, "geometry": { "type": "Polygon", "coordinates": [ [ [ 100.845146733373554, 13.85808466514381 ], [ 100.845146733373554, 13.903823018963173 ], [ 100.890309864115707, 13.901800700207005 ], [ 100.890309864115707, 13.856068471008346 ], [ 100.845146733373554, 13.85808466514381 ] ] ] } },
{ "type": "Feature", "properties": { "cell_id": "3539112150653992960", "token": "311d73c", "level": 11, "type": "s2" }, "geometry": { "type": "Polygon", "coordinates": [ [ [ 100.890309864115707, 13.901800700207005 ], [ 100.890309864115707, 13.947548560632958 ], [ 100.935494417425332, 13.945510788668612 ], [ 100.935494417425332, 13.899769078191047 ], [ 100.890309864115707, 13.901800700207005 ] ] ] } },
{ "type": "Feature", "properties": { "cell_id": "3539109401874923520", "token": "311d714", "level": 11, "type": "s2" }, "geometry": { "type": "Polygon", "coordinates": [ [ [ 100.845146733373554, 13.903823018963173 ], [ 100.845146733373554, 13.949577000945967 ], [ 100.890309864115707, 13.947548560632958 ], [ 100.890309864115707, 13.901800700207005 ], [ 100.845146733373554, 13.903823018963173 ] ] ] } },
{ "type": "Feature", "properties": { "cell_id": "3539112700409806848", "token": "311d744", "level": 11, "type": "s2" }, "geometry": { "type": "Polygon", "coordinates": [ [ [ 100.890309864115707, 13.947548560632958 ], [ 100.890309864115707, 13.993311964684491 ], [ 100.935494417425332, 13.991268045880318 ], [ 100.935494417425332, 13.945510788668612 ], [ 100.890309864115707, 13.947548560632958 ] ] ] } },
{ "type": "Feature", "properties": { "cell_id": "3539114349677248512", "token": "311d75c", "level": 11, "type": "s2" }, "geometry": { "type": "Polygon", "coordinates": [ [ [ 100.890309864115707, 13.993311964684491 ], [ 100.890309864115707, 14.039090824650559 ], [ 100.935494417425332, 14.03704076214788 ], [ 100.935494417425332, 13.991268045880318 ], [ 100.890309864115707, 13.993311964684491 ] ] ] } },
{ "type": "Feature", "properties": { "cell_id": "3539114899433062400", "token": "311d764", "level": 11, "type": "s2" }, "geometry": { "type": "Polygon", "coordinates": [ [ [ 100.845146733373554, 13.995346523457849 ], [ 100.845146733373554, 14.041131498755176 ], [ 100.890309864115707, 14.039090824650559 ], [ 100.890309864115707, 13.993311964684491 ], [ 100.845146733373554, 13.995346523457849 ] ] ] } },
{ "type": "Feature", "properties": { "cell_id": "3522563401144336384", "token": "30e2a8c", "level": 11, "type": "s2" }, "geometry": { "type": "Polygon", "coordinates": [ [ [ 100.52961150246017, 13.460631817647524 ], [ 100.52961150246017, 13.506267851982013 ], [ 100.574622393354161, 13.504363887251976 ], [ 100.574622393354176, 13.458733804834475 ], [ 100.52961150246017, 13.460631817647524 ] ] ] } },
{ "type": "Feature", "properties": { "cell_id": "3522570547969916928", "token": "30e2af4", "level": 11, "type": "s2" }, "geometry": { "type": "Polygon", "coordinates": [ [ [ 100.48462268415858, 13.462520870742638 ], [ 100.48462268415858, 13.508162828697783 ], [ 100.52961150246017, 13.506267851982013 ], [ 100.52961150246017, 13.460631817647524 ], [ 100.48462268415858, 13.462520870742638 ] ] ] } },
{ "type": "Feature", "properties": { "cell_id": "3522571097725730816", "token": "30e2afc", "level": 11, "type": "s2" }, "geometry": { "type": "Polygon", "coordinates": [ [ [ 100.439656018971021, 13.464400971786217 ], [ 100.439656018971021, 13.510048825092538 ], [ 100.48462268415858, 13.508162828697783 ], [ 100.48462268415858, 13.462520870742638 ], [ 100.439656018971021, 13.464400971786217 ] ] ] } },
{ "type": "Feature", "properties": { "cell_id": "3522571647481544704", "token": "30e2b04", "level": 11, "type": "s2" }, "geometry": { "type": "Polygon", "coordinates": [ [ [ 100.394711587254605, 13.466272128508921 ], [ 100.394711587254605, 13.511925848923978 ], [ 100.439656018971021, 13.510048825092538 ], [ 100.439656018971021, 13.464400971786217 ], [ 100.394711587254605, 13.466272128508921 ] ] ] } },
{ "type": "Feature", "properties": { "cell_id": "3522560652365266944", "token": "30e2a64", "level": 11, "type": "s2" }, "geometry": { "type": "Polygon", "coordinates": [ [ [ 100.52961150246017, 13.506267851982013 ], [ 100.52961150246017, 13.551920279053791 ], [ 100.574622393354176, 13.550010365102048 ], [ 100.574622393354161, 13.504363887251976 ], [ 100.52961150246017, 13.506267851982013 ] ] ] } },
{ "type": "Feature", "properties": { "cell_id": "3522560102609453056", "token": "30e2a5c", "level": 11, "type": "s2" }, "geometry": { "type": "Polygon", "coordinates": [ [ [ 100.48462268415858, 13.508162828697783 ], [ 100.48462268415858, 13.553821176705714 ], [ 100.52961150246017, 13.551920279053791 ], [ 100.52961150246017, 13.506267851982013 ], [ 100.48462268415858, 13.508162828697783 ] ] ] } },
{ "type": "Feature", "properties": { "cell_id": "3522559552853639168", "token": "30e2a54", "level": 11, "type": "s2" }, "geometry": { "type": "Polygon", "coordinates": [ [ [ 100.439656018971021, 13.510048825092538 ], [ 100.439656018971021, 13.555713065777937 ], [ 100.48462268415858, 13.553821176705714 ], [ 100.48462268415858, 13.508162828697783 ], [ 100.439656018971021, 13.510048825092538 ] ] ] } },
{ "type": "Feature", "properties": { "cell_id": "3522583192353636352", "token": "30e2bac", "level": 11, "type": "s2" }, "geometry": { "type": "Polygon", "coordinates": [ [ [ 100.394711587254605, 13.511925848923978 ], [ 100.394711587254605, 13.557595954055202 ], [ 100.439656018971021, 13.555713065777937 ], [ 100.439656018971021, 13.510048825092538 ], [ 100.394711587254605, 13.511925848923978 ] ] ] } },
{ "type": "Feature", "properties": { "cell_id": "3522561202121080832", "token": "30e2a6c", "level": 11, "type": "s2" }, "geometry": { "type": "Polygon", "coordinates": [ [ [ 100.52961150246017, 13.551920279053791 ], [ 100.52961150246017, 13.597589012021572 ], [ 100.574622393354176, 13.595673151575024 ], [ 100.574622393354176, 13.550010365102048 ], [ 100.52961150246017, 13.551920279053791 ] ] ] } },
{ "type": "Feature", "properties": { "cell_id": "3522558453342011392", "token": "30e2a44", "level": 11, "type": "s2" }, "geometry": { "type": "Polygon", "coordinates": [ [ [ 100.48462268415858, 13.553821176705714 ], [ 100.48462268415858, 13.599495827893666 ], [ 100.52961150246017, 13.597589012021572 ], [ 100.52961150246017, 13.551920279053791 ], [ 100.48462268415858, 13.553821176705714 ] ] ] } },
{ "type": "Feature", "properties": { "cell_id": "3522559003097825280", "token": "30e2a4c", "level": 11, "type": "s2" }, "geometry": { "type": "Polygon", "coordinates": [ [ [ 100.439656018971021, 13.555713065777937 ], [ 100.439656018971021, 13.601393606938306 ], [ 100.48462268415858, 13.599495827893666 ], [ 100.48462268415858, 13.553821176705714 ], [ 100.439656018971021, 13.555713065777937 ] ] ] } },
{ "type": "Feature", "properties": { "cell_id": "3522583742109450240", "token": "30e2bb4", "level": 11, "type": "s2" }, "geometry": { "type": "Polygon", "coordinates": [ [ [ 100.394711587254605, 13.557595954055202 ], [ 100.394711587254605, 13.603282356967307 ], [ 100.439656018971021, 13.601393606938306 ], [ 100.439656018971021, 13.555713065777937 ], [ 100.394711587254605, 13.557595954055202 ] ] ] } },
{ "type": "Feature", "properties": { "cell_id": "3522555154807128064", "token": "30e2a14", "level": 11, "type": "s2" }, "geometry": { "type": "Polygon", "coordinates": [ [ [ 100.52961150246017, 13.597589012021572 ], [ 100.52961150246017, 13.643273963928085 ], [ 100.574622393354176, 13.64135215974526 ], [ 100.574622393354176, 13.595673151575024 ], [ 100.52961150246017, 13.597589012021572 ] ] ] } },
{ "type": "Feature", "properties": { "cell_id": "3522557903586197504", "token": "30e2a3c", "level": 11, "type": "s2" }, "geometry": { "type": "Polygon", "coordinates": [ [ [ 100.48462268415858, 13.599495827893666 ], [ 100.48462268415858, 13.645186695272885 ], [ 100.52961150246017, 13.643273963928085 ], [ 100.52961150246017, 13.597589012021572 ], [ 100.48462268415858, 13.599495827893666 ] ] ] } },
{ "type": "Feature", "properties": { "cell_id": "3522557353830383616", "token": "30e2a34", "level": 11, "type": "s2" }, "geometry": { "type": "Polygon", "coordinates": [ [ [ 100.439656018971021, 13.601393606938306 ], [ 100.439656018971021, 13.647090361553559 ], [ 100.48462268415858, 13.645186695272885 ], [ 100.48462268415858, 13.599495827893666 ], [ 100.439656018971021, 13.601393606938306 ] ] ] } },
{ "type": "Feature", "properties": { "cell_id": "3522585391376891904", "token": "30e2bcc", "level": 11, "type": "s2" }, "geometry": { "type": "Polygon", "coordinates": [ [ [ 100.394711587254605, 13.603282356967307 ], [ 100.394711587254605, 13.648984970609005 ], [ 100.439656018971021, 13.647090361553559 ], [ 100.439656018971021, 13.601393606938306 ], [ 100.394711587254605, 13.603282356967307 ] ] ] } },
{ "type": "Feature", "properties": { "cell_id": "3522555704562941952", "token": "30e2a1c", "level": 11, "type": "s2" }, "geometry": { "type": "Polygon", "coordinates": [ [ [ 100.52961150246017, 13.643273963928085 ], [ 100.52961150246017, 13.688975047700792 ], [ 100.574622393354176, 13.687047302571838 ], [ 100.574622393354176, 13.64135215974526 ], [ 100.52961150246017, 13.643273963928085 ] ] ] } },
{ "type": "Feature", "properties": { "cell_id": "3522556254318755840", "token": "30e2a24", "level": 11, "type": "s2" }, "geometry": { "type": "Polygon", "coordinates": [ [ [ 100.48462268415858, 13.645186695272885 ], [ 100.48462268415858, 13.690893691739356 ], [ 100.52961150246017, 13.688975047700792 ], [ 100.52961150246017, 13.643273963928085 ], [ 100.48462268415858, 13.645186695272885 ] ] ] } },
{ "type": "Feature", "properties": { "cell_id": "3522556804074569728", "token": "30e2a2c", "level": 11, "type": "s2" }, "geometry": { "type": "Polygon", "coordinates": [ [ [ 100.439656018971021, 13.647090361553559 ], [ 100.439656018971021, 13.692803242488342 ], [ 100.48462268415858, 13.690893691739356 ], [ 100.48462268415858, 13.645186695272885 ], [ 100.439656018971021, 13.647090361553559 ] ] ] } },
{ "type": "Feature", "properties": { "cell_id": "3522585941132705792", "token": "30e2bd4", "level": 11, "type": "s2" }, "geometry": { "type": "Polygon", "coordinates": [ [ [ 100.394711587254605, 13.648984970609005 ], [ 100.394711587254605, 13.694703707813751 ], [ 100.439656018971021, 13.692803242488342 ], [ 100.439656018971021, 13.647090361553559 ], [ 100.394711587254605, 13.648984970609005 ] ] ] } },
{ "type": "Feature", "properties": { "cell_id": "3522552955783872512", "token": "30e29f4", "level": 11, "type": "s2" }, "geometry": { "type": "Polygon", "coordinates": [ [ [ 100.52961150246017, 13.688975047700792 ], [ 100.52961150246017, 13.734692176152633 ], [ 100.574622393354176, 13.73275849289932 ], [ 100.574622393354176, 13.687047302571838 ], [ 100.52961150246017, 13.688975047700792 ] ] ] } },
{ "type": "Feature", "properties": { "cell_id": "3522545808958291968", "token": "30e298c", "level": 11, "type": "s2" }, "geometry": { "type": "Polygon", "coordinates": [ [ [ 100.48462268415858, 13.690893691739356 ], [ 100.48462268415858, 13.736616730074537 ], [ 100.52961150246017, 13.734692176152633 ], [ 100.52961150246017, 13.688975047700792 ], [ 100.48462268415858, 13.690893691739356 ] ] ] } },
{ "type": "Feature", "properties": { "cell_id": "3522545259202478080", "token": "30e2984", "level": 11, "type": "s2" }, "geometry": { "type": "Polygon", "coordinates": [ [ [ 100.439656018971021, 13.692803242488342 ], [ 100.439656018971021, 13.738532162492781 ], [ 100.48462268415858, 13.736616730074537 ], [ 100.48462268415858, 13.690893691739356 ], [ 100.439656018971021, 13.692803242488342 ] ] ] } },
{ "type": "Feature", "properties": { "cell_id": "3522546358714105856", "token": "30e2994", "level": 11, "type": "s2" }, "geometry": { "type": "Polygon", "coordinates": [ [ [ 100.48462268415858, 13.736616730074537 ], [ 100.48462268415858, 13.782355722946106 ], [ 100.52961150246017, 13.780425261982762 ], [ 100.52961150246017, 13.734692176152633 ], [ 100.48462268415858, 13.736616730074537 ] ] ] } },
{ "type": "Feature", "properties": { "cell_id": "3522544709446664192", "token": "30e297c", "level": 11, "type": "s2" }, "geometry": { "type": "Polygon", "coordinates": [ [ [ 100.394711587254605, 13.694703707813751 ], [ 100.394711587254605, 13.74043848130048 ], [ 100.439656018971021, 13.738532162492781 ], [ 100.439656018971021, 13.692803242488342 ], [ 100.394711587254605, 13.694703707813751 ] ] ] } },
{ "type": "Feature", "properties": { "cell_id": "3522543060179222528", "token": "30e2964", "level": 11, "type": "s2" }, "geometry": { "type": "Polygon", "coordinates": [ [ [ 100.349789469201582, 13.696595095646563 ], [ 100.349789469201582, 13.74233569445591 ], [ 100.394711587254605, 13.74043848130048 ], [ 100.394711587254605, 13.694703707813751 ], [ 100.349789469201582, 13.696595095646563 ] ] ] } },
{ "type": "Feature", "properties": { "cell_id": "3522542510423408640", "token": "30e295c", "level": 11, "type": "s2" }, "geometry": { "type": "Polygon", "coordinates": [ [ [ 100.304889744838675, 13.698477413982525 ], [ 100.304889744838675, 13.744223809982314 ], [ 100.349789469201582, 13.74233569445591 ], [ 100.349789469201582, 13.696595095646563 ], [ 100.304889744838675, 13.698477413982525 ] ] ] } },
{ "type": "Feature", "properties": { "cell_id": "3522543609935036416", "token": "30e296c", "level": 11, "type": "s2" }, "geometry": { "type": "Polygon", "coordinates": [ [ [ 100.349789469201582, 13.74233569445591 ], [ 100.349789469201582, 13.788092239345076 ], [ 100.394711587254605, 13.786189203674343 ], [ 100.394711587254605, 13.74043848130048 ], [ 100.349789469201582, 13.74233569445591 ] ] ] } },
{ "type": "Feature", "properties": { "cell_id": "3522540861155966976", "token": "30e2944", "level": 11, "type": "s2" }, "geometry": { "type": "Polygon", "coordinates": [ [ [ 100.304889744838675, 13.744223809982314 ], [ 100.304889744838675, 13.789986149266154 ], [ 100.349789469201582, 13.788092239345076 ], [ 100.349789469201582, 13.74233569445591 ], [ 100.304889744838675, 13.744223809982314 ] ] ] } },
{ "type": "Feature", "properties": { "cell_id": "3522537562621083648", "token": "30e2914", "level": 11, "type": "s2" }, "geometry": { "type": "Polygon", "coordinates": [ [ [ 100.349789469201582, 13.788092239345076 ], [ 100.349789469201582, 13.833864642775126 ], [ 100.394711587254605, 13.831955787427454 ], [ 100.394711587254605, 13.786189203674343 ], [ 100.349789469201582, 13.788092239345076 ] ] ] } },
{ "type": "Feature", "properties": { "cell_id": "3522540311400153088", "token": "30e293c", "level": 11, "type": "s2" }, "geometry": { "type": "Polygon", "coordinates": [ [ [ 100.304889744838675, 13.789986149266154 ], [ 100.304889744838675, 13.835764344264216 ], [ 100.349789469201582, 13.833864642775126 ], [ 100.349789469201582, 13.788092239345076 ], [ 100.304889744838675, 13.789986149266154 ] ] ] } },
{ "type": "Feature", "properties": { "cell_id": "3522553505539686400", "token": "30e29fc", "level": 11, "type": "s2" }, "geometry": { "type": "Polygon", "coordinates": [ [ [ 100.574622393354176, 13.687047302571838 ], [ 100.574622393354176, 13.73275849289932 ], [ 100.619655276155143, 13.730815672552424 ], [ 100.619655276155129, 13.68511044861706 ], [ 100.574622393354176, 13.687047302571838 ] ] ] } },
{ "type": "Feature", "properties": { "cell_id": "3539091809688879104", "token": "311d614", "level": 11, "type": "s2" }, "geometry": { "type": "Polygon", "coordinates": [ [ [ 100.664710070014337, 13.728863707415545 ], [ 100.664710070014337, 13.77457890263735 ], [ 100.70978669392025, 13.772611764960704 ], [ 100.70978669392025, 13.726902589858273 ], [ 100.664710070014337, 13.728863707415545 ] ] ] } },
{ "type": "Feature", "properties": { "cell_id": "3539092359444692992", "token": "311d61c", "level": 11, "type": "s2" }, "geometry": { "type": "Polygon", "coordinates": [ [ [ 100.619655276155143, 13.730815672552424 ], [ 100.619655276155143, 13.77653685958434 ], [ 100.664710070014337, 13.77457890263735 ], [ 100.664710070014337, 13.728863707415545 ], [ 100.619655276155143, 13.730815672552424 ] ] ] } },
{ "type": "Feature", "properties": { "cell_id": "3522551856272244736", "token": "30e29e4", "level": 11, "type": "s2" }, "geometry": { "type": "Polygon", "coordinates": [ [ [ 100.574622393354176, 13.73275849289932 ], [ 100.574622393354176, 13.778485643458485 ], [ 100.619655276155143, 13.77653685958434 ], [ 100.619655276155143, 13.730815672552424 ], [ 100.574622393354176, 13.73275849289932 ] ] ] } },
{ "type": "Feature", "properties": { "cell_id": "3522552406028058624", "token": "30e29ec", "level": 11, "type": "s2" }, "geometry": { "type": "Polygon", "coordinates": [ [ [ 100.52961150246017, 13.734692176152633 ], [ 100.52961150246017, 13.780425261982762 ], [ 100.574622393354176, 13.778485643458485 ], [ 100.574622393354176, 13.73275849289932 ], [ 100.52961150246017, 13.734692176152633 ] ] ] } },
{ "type": "Feature", "properties": { "cell_id": "3539094558467948544", "token": "311d63c", "level": 11, "type": "s2" }, "geometry": { "type": "Polygon", "coordinates": [ [ [ 100.664710070014337, 13.77457890263735 ], [ 100.664710070014337, 13.820309976513435 ], [ 100.709786693920236, 13.818336821637248 ], [ 100.70978669392025, 13.772611764960704 ], [ 100.664710070014337, 13.77457890263735 ] ] ] } },
{ "type": "Feature", "properties": { "cell_id": "3539092909200506880", "token": "311d624", "level": 11, "type": "s2" }, "geometry": { "type": "Polygon", "coordinates": [ [ [ 100.619655276155143, 13.77653685958434 ], [ 100.619655276155143, 13.822273922362299 ], [ 100.664710070014337, 13.820309976513435 ], [ 100.664710070014337, 13.77457890263735 ], [ 100.619655276155143, 13.77653685958434 ] ] ] } },
{ "type": "Feature", "properties": { "cell_id": "3522551306516430848", "token": "30e29dc", "level": 11, "type": "s2" }, "geometry": { "type": "Polygon", "coordinates": [ [ [ 100.574622393354176, 13.778485643458485 ], [ 100.574622393354176, 13.824228666867061 ], [ 100.619655276155143, 13.822273922362299 ], [ 100.619655276155143, 13.77653685958434 ], [ 100.574622393354176, 13.778485643458485 ] ] ] } },
{ "type": "Feature", "properties": { "cell_id": "3522549657248989184", "token": "30e29c4", "level": 11, "type": "s2" }, "geometry": { "type": "Polygon", "coordinates": [ [ [ 100.52961150246017, 13.780425261982762 ], [ 100.52961150246017, 13.826174217777286 ], [ 100.574622393354176, 13.824228666867061 ], [ 100.574622393354176, 13.778485643458485 ], [ 100.52961150246017, 13.780425261982762 ] ] ] } },
{ "type": "Feature", "properties": { "cell_id": "3539093458956320768", "token": "311d62c", "level": 11, "type": "s2" }, "geometry": { "type": "Polygon", "coordinates": [ [ [ 100.619655276155143, 13.822273922362299 ], [ 100.619655276155143, 13.868026773423491 ], [ 100.664710070014337, 13.866056841612897 ], [ 100.664710070014337, 13.820309976513435 ], [ 100.619655276155143, 13.822273922362299 ] ] ] } },
{ "type": "Feature", "properties": { "cell_id": "3522546908469919744", "token": "30e299c", "level": 11, "type": "s2" }, "geometry": { "type": "Polygon", "coordinates": [ [ [ 100.439656018971021, 13.738532162492781 ], [ 100.439656018971021, 13.784277034203216 ], [ 100.48462268415858, 13.782355722946106 ], [ 100.48462268415858, 13.736616730074537 ], [ 100.439656018971021, 13.738532162492781 ] ] ] } },
{ "type": "Feature", "properties": { "cell_id": "3522544159690850304", "token": "30e2974", "level": 11, "type": "s2" }, "geometry": { "type": "Polygon", "coordinates": [ [ [ 100.394711587254605, 13.74043848130048 ], [ 100.394711587254605, 13.786189203674343 ], [ 100.439656018971021, 13.784277034203216 ], [ 100.439656018971021, 13.738532162492781 ], [ 100.394711587254605, 13.74043848130048 ] ] ] } },
{ "type": "Feature", "properties": { "cell_id": "3522549107493175296", "token": "30e29bc", "level": 11, "type": "s2" }, "geometry": { "type": "Polygon", "coordinates": [ [ [ 100.48462268415858, 13.782355722946106 ], [ 100.48462268415858, 13.828110582908696 ], [ 100.52961150246017, 13.826174217777286 ], [ 100.52961150246017, 13.780425261982762 ], [ 100.48462268415858, 13.782355722946106 ] ] ] } },
{ "type": "Feature", "properties": { "cell_id": "3522547458225733632", "token": "30e29a4", "level": 11, "type": "s2" }, "geometry": { "type": "Polygon", "coordinates": [ [ [ 100.439656018971021, 13.784277034203216 ], [ 100.439656018971021, 13.830037770142953 ], [ 100.48462268415858, 13.828110582908696 ], [ 100.48462268415858, 13.782355722946106 ], [ 100.439656018971021, 13.784277034203216 ] ] ] } },
{ "type": "Feature", "properties": { "cell_id": "3522537012865269760", "token": "30e290c", "level": 11, "type": "s2" }, "geometry": { "type": "Polygon", "coordinates": [ [ [ 100.394711587254605, 13.786189203674343 ], [ 100.394711587254605, 13.831955787427454 ], [ 100.439656018971021, 13.830037770142953 ], [ 100.439656018971021, 13.784277034203216 ], [ 100.394711587254605, 13.786189203674343 ] ] ] } },
{ "type": "Feature", "properties": { "cell_id": "3522548557737361408", "token": "30e29b4", "level": 11, "type": "s2" }, "geometry": { "type": "Polygon", "coordinates": [ [ [ 100.48462268415858, 13.828110582908696 ], [ 100.48462268415858, 13.873881222404641 ], [ 100.52961150246017, 13.871938956010014 ], [ 100.52961150246017, 13.826174217777286 ], [ 100.48462268415858, 13.828110582908696 ] ] ] } },
{ "type": "Feature", "properties": { "cell_id": "3522548007981547520", "token": "30e29ac", "level": 11, "type": "s2" }, "geometry": { "type": "Polygon", "coordinates": [ [ [ 100.439656018971021, 13.830037770142953 ], [ 100.439656018971021, 13.875814282722995 ], [ 100.48462268415858, 13.873881222404641 ], [ 100.48462268415858, 13.828110582908696 ], [ 100.439656018971021, 13.830037770142953 ] ] ] } },
{ "type": "Feature", "properties": { "cell_id": "3522536463109455872", "token": "30e2904", "level": 11, "type": "s2" }, "geometry": { "type": "Polygon", "coordinates": [ [ [ 100.394711587254605, 13.831955787427454 ], [ 100.394711587254605, 13.877738144939636 ], [ 100.439656018971021, 13.875814282722995 ], [ 100.439656018971021, 13.830037770142953 ], [ 100.394711587254605, 13.831955787427454 ] ] ] } },
{ "type": "Feature", "properties": { "cell_id": "3522522169458294784", "token": "30e2834", "level": 11, "type": "s2" }, "geometry": { "type": "Polygon", "coordinates": [ [ [ 100.52961150246017, 13.871938956010014 ], [ 100.52961150246017, 13.917719389043208 ], [ 100.574622393354176, 13.915761982142588 ], [ 100.574622393354161, 13.869987475630472 ], [ 100.52961150246017, 13.871938956010014 ] ] ] } },
{ "type": "Feature", "properties": { "cell_id": "3522523818725736448", "token": "30e284c", "level": 11, "type": "s2" }, "geometry": { "type": "Polygon", "coordinates": [ [ [ 100.48462268415858, 13.873881222404641 ], [ 100.48462268415858, 13.919667553764736 ], [ 100.52961150246017, 13.917719389043208 ], [ 100.52961150246017, 13.871938956010014 ], [ 100.48462268415858, 13.873881222404641 ] ] ] } },
{ "type": "Feature", "properties": { "cell_id": "3522550756760616960", "token": "30e29d4", "level": 11, "type": "s2" }, "geometry": { "type": "Polygon", "coordinates": [ [ [ 100.574622393354176, 13.824228666867061 ], [ 100.574622393354161, 13.869987475630472 ], [ 100.619655276155143, 13.868026773423491 ], [ 100.619655276155143, 13.822273922362299 ], [ 100.574622393354176, 13.824228666867061 ] ] ] } },
{ "type": "Feature", "properties": { "cell_id": "3522550207004803072", "token": "30e29cc", "level": 11, "type": "s2" }, "geometry": { "type": "Polygon", "coordinates": [ [ [ 100.52961150246017, 13.826174217777286 ], [ 100.52961150246017, 13.871938956010014 ], [ 100.574622393354161, 13.869987475630472 ], [ 100.574622393354176, 13.824228666867061 ], [ 100.52961150246017, 13.826174217777286 ] ] ] } },
{ "type": "Feature", "properties": { "cell_id": "3539122046258642944", "token": "311d7cc", "level": 11, "type": "s2" }, "geometry": { "type": "Polygon", "coordinates": [ [ [ 100.664710070014337, 13.866056841612897 ], [ 100.664710070014337, 13.911819410393266 ], [ 100.70978669392025, 13.909834230005666 ], [ 100.70978669392025, 13.86407767248904 ], [ 100.664710070014337, 13.866056841612897 ] ] ] } },
{ "type": "Feature", "properties": { "cell_id": "3539122596014456832", "token": "311d7d4", "level": 11, "type": "s2" }, "geometry": { "type": "Polygon", "coordinates": [ [ [ 100.619655276155143, 13.868026773423491 ], [ 100.619655276155143, 13.913795325193545 ], [ 100.664710070014337, 13.911819410393266 ], [ 100.664710070014337, 13.866056841612897 ], [ 100.619655276155143, 13.868026773423491 ] ] ] } },
{ "type": "Feature", "properties": { "cell_id": "3522521619702480896", "token": "30e282c", "level": 11, "type": "s2" }, "geometry": { "type": "Polygon", "coordinates": [ [ [ 100.574622393354161, 13.869987475630472 ], [ 100.574622393354176, 13.915761982142588 ], [ 100.619655276155143, 13.913795325193545 ], [ 100.619655276155143, 13.868026773423491 ], [ 100.574622393354161, 13.869987475630472 ] ] ] } },
{ "type": "Feature", "properties": { "cell_id": "3539121496502829056", "token": "311d7c4", "level": 11, "type": "s2" }, "geometry": { "type": "Polygon", "coordinates": [ [ [ 100.664710070014337, 13.911819410393266 ], [ 100.664710070014337, 13.957597595201255 ], [ 100.709786693920236, 13.95560640656587 ], [ 100.70978669392025, 13.909834230005666 ], [ 100.664710070014337, 13.911819410393266 ] ] ] } },
{ "type": "Feature", "properties": { "cell_id": "3539123145770270720", "token": "311d7dc", "level": 11, "type": "s2" }, "geometry": { "type": "Polygon", "coordinates": [ [ [ 100.619655276155143, 13.913795325193545 ], [ 100.619655276155143, 13.959579489987272 ], [ 100.664710070014337, 13.957597595201255 ], [ 100.664710070014337, 13.911819410393266 ], [ 100.619655276155143, 13.913795325193545 ] ] ] } },
{ "type": "Feature", "properties": { "cell_id": "3522521069946667008", "token": "30e2824", "level": 11, "type": "s2" }, "geometry": { "type": "Polygon", "coordinates": [ [ [ 100.574622393354176, 13.915761982142588 ], [ 100.574622393354176, 13.961552098686472 ], [ 100.619655276155143, 13.959579489987272 ], [ 100.619655276155143, 13.913795325193545 ], [ 100.574622393354176, 13.915761982142588 ] ] ] } },
{ "type": "Feature", "properties": { "cell_id": "3539124245281898496", "token": "311d7ec", "level": 11, "type": "s2" }, "geometry": { "type": "Polygon", "coordinates": [ [ [ 100.664710070014337, 13.957597595201255 ], [ 100.664710070014337, 14.00339130827351 ], [ 100.70978669392025, 14.00139411443835 ], [ 100.709786693920236, 13.95560640656587 ], [ 100.664710070014337, 13.957597595201255 ] ] ] } },
{ "type": "Feature", "properties": { "cell_id": "3539123695526084608", "token": "311d7e4", "level": 11, "type": "s2" }, "geometry": { "type": "Polygon", "coordinates": [ [ [ 100.619655276155143, 13.959579489987272 ], [ 100.619655276155129, 14.005379180009429 ], [ 100.664710070014337, 14.00339130827351 ], [ 100.664710070014337, 13.957597595201255 ], [ 100.619655276155143, 13.959579489987272 ] ] ] } },
{ "type": "Feature", "properties": { "cell_id": "3522538112376897536", "token": "30e291c", "level": 11, "type": "s2" }, "geometry": { "type": "Polygon", "coordinates": [ [ [ 100.349789469201582, 13.833864642775126 ], [ 100.349789469201582, 13.879652817094842 ], [ 100.394711587254605, 13.877738144939636 ], [ 100.394711587254605, 13.831955787427454 ], [ 100.349789469201582, 13.833864642775126 ] ] ] } },
{ "type": "Feature", "properties": { "cell_id": "3522538662132711424", "token": "30e2924", "level": 11, "type": "s2" }, "geometry": { "type": "Polygon", "coordinates": [ [ [ 100.304889744838675, 13.835764344264216 ], [ 100.304889744838675, 13.881558307294384 ], [ 100.349789469201582, 13.879652817094842 ], [ 100.349789469201582, 13.833864642775126 ], [ 100.304889744838675, 13.835764344264216 ] ] ] } },
{ "type": "Feature", "properties": { "cell_id": "3522539211888525312", "token": "30e292c", "level": 11, "type": "s2" }, "geometry": { "type": "Polygon", "coordinates": [ [ [ 100.260012494026569, 13.837654900038086 ], [ 100.260012494026569, 13.883454623709341 ], [ 100.304889744838675, 13.881558307294384 ], [ 100.304889744838675, 13.835764344264216 ], [ 100.260012494026569, 13.837654900038086 ] ] ] } },
{ "type": "Feature", "properties": { "cell_id": "3522534264086200320", "token": "30e28e4", "level": 11, "type": "s2" }, "geometry": { "type": "Polygon", "coordinates": [ [ [ 100.349789469201582, 13.879652817094842 ], [ 100.349789469201582, 13.925456674541467 ], [ 100.394711587254605, 13.923536188479174 ], [ 100.394711587254605, 13.877738144939636 ], [ 100.349789469201582, 13.879652817094842 ] ] ] } },
{ "type": "Feature", "properties": { "cell_id": "3522533714330386432", "token": "30e28dc", "level": 11, "type": "s2" }, "geometry": { "type": "Polygon", "coordinates": [ [ [ 100.304889744838675, 13.881558307294384 ], [ 100.304889744838675, 13.927367950563008 ], [ 100.349789469201582, 13.925456674541467 ], [ 100.349789469201582, 13.879652817094842 ], [ 100.304889744838675, 13.881558307294384 ] ] ] } },
{ "type": "Feature", "properties": { "cell_id": "3522535363597828096", "token": "30e28f4", "level": 11, "type": "s2" }, "geometry": { "type": "Polygon", "coordinates": [ [ [ 100.394711587254605, 13.923536188479174 ], [ 100.394711587254605, 13.969349830203546 ], [ 100.439656018971021, 13.967414286891056 ], [ 100.439656018971021, 13.921606484242808 ], [ 100.394711587254605, 13.923536188479174 ] ] ] } },
{ "type": "Feature", "properties": { "cell_id": "3522534813842014208", "token": "30e28ec", "level": 11, "type": "s2" }, "geometry": { "type": "Polygon", "coordinates": [ [ [ 100.349789469201582, 13.925456674541467 ], [ 100.349789469201582, 13.971276127241451 ], [ 100.394711587254605, 13.969349830203546 ], [ 100.394711587254605, 13.923536188479174 ], [ 100.349789469201582, 13.925456674541467 ] ] ] } },
{ "type": "Feature", "properties": { "cell_id": "3522532065062944768", "token": "30e28c4", "level": 11, "type": "s2" }, "geometry": { "type": "Polygon", "coordinates": [ [ [ 100.304889744838675, 13.927367950563008 ], [ 100.304889744838675, 13.973193186165648 ], [ 100.349789469201582, 13.971276127241451 ], [ 100.349789469201582, 13.925456674541467 ], [ 100.304889744838675, 13.927367950563008 ] ] ] } },
{ "type": "Feature", "properties": { "cell_id": "3522532614818758656", "token": "30e28cc", "level": 11, "type": "s2" }, "geometry": { "type": "Polygon", "coordinates": [ [ [ 100.260012494026569, 13.929270024742602 ], [ 100.260012494026569, 13.975101015202679 ], [ 100.304889744838675, 13.973193186165648 ], [ 100.304889744838675, 13.927367950563008 ], [ 100.260012494026569, 13.929270024742602 ] ] ] } },
{ "type": "Feature", "properties": { "cell_id": "3522528766528061440", "token": "30e2894", "level": 11, "type": "s2" }, "geometry": { "type": "Polygon", "coordinates": [ [ [ 100.349789469201582, 13.971276127241451 ], [ 100.349789469201582, 14.017111087211207 ], [ 100.394711587254605, 14.015178982160203 ], [ 100.394711587254605, 13.969349830203546 ], [ 100.349789469201582, 13.971276127241451 ] ] ] } },
{ "type": "Feature", "properties": { "cell_id": "3522524368481550336", "token": "30e2854", "level": 11, "type": "s2" }, "geometry": { "type": "Polygon", "coordinates": [ [ [ 100.439656018971021, 13.875814282722995 ], [ 100.439656018971021, 13.921606484242808 ], [ 100.48462268415858, 13.919667553764736 ], [ 100.48462268415858, 13.873881222404641 ], [ 100.439656018971021, 13.875814282722995 ] ] ] } },
{ "type": "Feature", "properties": { "cell_id": "3522535913353641984", "token": "30e28fc", "level": 11, "type": "s2" }, "geometry": { "type": "Polygon", "coordinates": [ [ [ 100.394711587254605, 13.877738144939636 ], [ 100.394711587254605, 13.923536188479174 ], [ 100.439656018971021, 13.921606484242808 ], [ 100.439656018971021, 13.875814282722995 ], [ 100.394711587254605, 13.877738144939636 ] ] ] } },
{ "type": "Feature", "properties": { "cell_id": "3522522719214108672", "token": "30e283c", "level": 11, "type": "s2" }, "geometry": { "type": "Polygon", "coordinates": [ [ [ 100.52961150246017, 13.917719389043208 ], [ 100.52961150246017, 13.963515429128314 ], [ 100.574622393354176, 13.961552098686472 ], [ 100.574622393354176, 13.915761982142588 ], [ 100.52961150246017, 13.917719389043208 ] ] ] } },
{ "type": "Feature", "properties": { "cell_id": "3522523268969922560", "token": "30e2844", "level": 11, "type": "s2" }, "geometry": { "type": "Polygon", "coordinates": [ [ [ 100.48462268415858, 13.919667553764736 ], [ 100.48462268415858, 13.965469489208957 ], [ 100.52961150246017, 13.963515429128314 ], [ 100.52961150246017, 13.917719389043208 ], [ 100.48462268415858, 13.919667553764736 ] ] ] } },
{ "type": "Feature", "properties": { "cell_id": "3522524918237364224", "token": "30e285c", "level": 11, "type": "s2" }, "geometry": { "type": "Polygon", "coordinates": [ [ [ 100.439656018971021, 13.921606484242808 ], [ 100.439656018971021, 13.967414286891056 ], [ 100.48462268415858, 13.965469489208957 ], [ 100.48462268415858, 13.919667553764736 ], [ 100.439656018971021, 13.921606484242808 ] ] ] } },
{ "type": "Feature", "properties": { "cell_id": "3522519970435039232", "token": "30e2814", "level": 11, "type": "s2" }, "geometry": { "type": "Polygon", "coordinates": [ [ [ 100.52961150246017, 13.963515429128314 ], [ 100.52961150246017, 14.009326988406732 ], [ 100.574622393354176, 14.007357737435131 ], [ 100.574622393354176, 13.961552098686472 ], [ 100.52961150246017, 13.963515429128314 ] ] ] } },
{ "type": "Feature", "properties": { "cell_id": "3522526017748992000", "token": "30e286c", "level": 11, "type": "s2" }, "geometry": { "type": "Polygon", "coordinates": [ [ [ 100.48462268415858, 13.965469489208957 ], [ 100.48462268415858, 14.011286940847247 ], [ 100.52961150246017, 14.009326988406732 ], [ 100.52961150246017, 13.963515429128314 ], [ 100.48462268415858, 13.965469489208957 ] ] ] } },
{ "type": "Feature", "properties": { "cell_id": "3522525467993178112", "token": "30e2864", "level": 11, "type": "s2" }, "geometry": { "type": "Polygon", "coordinates": [ [ [ 100.439656018971021, 13.967414286891056 ], [ 100.439656018971021, 14.013237602746354 ], [ 100.48462268415858, 14.011286940847247 ], [ 100.48462268415858, 13.965469489208957 ], [ 100.439656018971021, 13.967414286891056 ] ] ] } },
{ "type": "Feature", "properties": { "cell_id": "3522528216772247552", "token": "30e288c", "level": 11, "type": "s2" }, "geometry": { "type": "Polygon", "coordinates": [ [ [ 100.394711587254605, 13.969349830203546 ], [ 100.394711587254605, 14.015178982160203 ], [ 100.439656018971021, 14.013237602746354 ], [ 100.439656018971021, 13.967414286891056 ], [ 100.394711587254605, 13.969349830203546 ] ] ] } },
{ "type": "Feature", "properties": { "cell_id": "3522526567504805888", "token": "30e2874", "level": 11, "type": "s2" }, "geometry": { "type": "Polygon", "coordinates": [ [ [ 100.48462268415858, 14.011286940847247 ], [ 100.48462268415858, 14.057119820680262 ], [ 100.52961150246017, 14.055153978910582 ], [ 100.52961150246017, 14.009326988406732 ], [ 100.48462268415858, 14.011286940847247 ] ] ] } },
{ "type": "Feature", "properties": { "cell_id": "3522582642597822464", "token": "30e2ba4", "level": 11, "type": "s2" }, "geometry": { "type": "Polygon", "coordinates": [ [ [ 100.349789469201582, 13.513793908014033 ], [ 100.349789469201582, 13.559469849386691 ], [ 100.394711587254605, 13.557595954055202 ], [ 100.394711587254605, 13.511925848923978 ], [ 100.349789469201582, 13.513793908014033 ] ] ] } },
{ "type": "Feature", "properties": { "cell_id": "3522584291865264128", "token": "30e2bbc", "level": 11, "type": "s2" }, "geometry": { "type": "Polygon", "coordinates": [ [ [ 100.349789469201582, 13.559469849386691 ], [ 100.349789469201582, 13.605162085857097 ], [ 100.394711587254605, 13.603282356967307 ], [ 100.394711587254605, 13.557595954055202 ], [ 100.349789469201582, 13.559469849386691 ] ] ] } },
{ "type": "Feature", "properties": { "cell_id": "3522584841621078016", "token": "30e2bc4", "level": 11, "type": "s2" }, "geometry": { "type": "Polygon", "coordinates": [ [ [ 100.349789469201582, 13.605162085857097 ], [ 100.349789469201582, 13.650870530342921 ], [ 100.394711587254605, 13.648984970609005 ], [ 100.394711587254605, 13.603282356967307 ], [ 100.349789469201582, 13.605162085857097 ] ] ] } },
{ "type": "Feature", "properties": { "cell_id": "3522587590400147456", "token": "30e2bec", "level": 11, "type": "s2" }, "geometry": { "type": "Polygon", "coordinates": [ [ [ 100.304889744838675, 13.60703280154851 ], [ 100.304889744838675, 13.652747048723585 ], [ 100.349789469201582, 13.650870530342921 ], [ 100.349789469201582, 13.605162085857097 ], [ 100.304889744838675, 13.60703280154851 ] ] ] } },
{ "type": "Feature", "properties": { "cell_id": "3522586490888519680", "token": "30e2bdc", "level": 11, "type": "s2" }, "geometry": { "type": "Polygon", "coordinates": [ [ [ 100.349789469201582, 13.650870530342921 ], [ 100.349789469201582, 13.696595095646563 ], [ 100.394711587254605, 13.694703707813751 ], [ 100.394711587254605, 13.648984970609005 ], [ 100.349789469201582, 13.650870530342921 ] ] ] } },
{ "type": "Feature", "properties": { "cell_id": "3522587040644333568", "token": "30e2be4", "level": 11, "type": "s2" }, "geometry": { "type": "Polygon", "coordinates": [ [ [ 100.304889744838675, 13.652747048723585 ], [ 100.304889744838675, 13.698477413982525 ], [ 100.349789469201582, 13.696595095646563 ], [ 100.349789469201582, 13.650870530342921 ], [ 100.304889744838675, 13.652747048723585 ] ] ] } },
{ "type": "Feature", "properties": { "cell_id": "3522533164574572544", "token": "30e28d4", "level": 11, "type": "s2" }, "geometry": { "type": "Polygon", "coordinates": [ [ [ 100.260012494026569, 13.883454623709341 ], [ 100.260012494026569, 13.929270024742602 ], [ 100.304889744838675, 13.927367950563008 ], [ 100.304889744838675, 13.881558307294384 ], [ 100.260012494026569, 13.883454623709341 ] ] ] } },
{ "type": "Feature", "properties": { "cell_id": "3522483686551322624", "token": "30e2604", "level": 11, "type": "s2" }, "geometry": { "type": "Polygon", "coordinates": [ [ [ 100.260012494026569, 14.066809412113178 ], [ 100.260012494026569, 14.112686642146141 ], [ 100.304889744838675, 14.110761566287374 ], [ 100.304889744838675, 14.064890082205823 ], [ 100.260012494026569, 14.066809412113178 ] ] ] } },
{ "type": "Feature", "properties": { "cell_id": "3522484236307136512", "token": "30e260c", "level": 11, "type": "s2" }, "geometry": { "type": "Polygon", "coordinates": [ [ [ 100.260012494026569, 14.112686642146141 ], [ 100.260012494026569, 14.158579108772528 ], [ 100.304889744838675, 14.156648289992484 ], [ 100.304889744838675, 14.110761566287374 ], [ 100.260012494026569, 14.112686642146141 ] ] ] } },
{ "type": "Feature", "properties": { "cell_id": "3522520520190853120", "token": "30e281c", "level": 11, "type": "s2" }, "geometry": { "type": "Polygon", "coordinates": [ [ [ 100.574622393354176, 13.961552098686472 ], [ 100.574622393354176, 14.007357737435131 ], [ 100.619655276155129, 14.005379180009429 ], [ 100.619655276155143, 13.959579489987272 ], [ 100.574622393354176, 13.961552098686472 ] ] ] } },
{ "type": "Feature", "properties": { "cell_id": "3539124795037712384", "token": "311d7f4", "level": 11, "type": "s2" }, "geometry": { "type": "Polygon", "coordinates": [ [ [ 100.664710070014337, 14.00339130827351 ], [ 100.664710070014337, 14.049200461737387 ], [ 100.70978669392025, 14.047197265782485 ], [ 100.70978669392025, 14.00139411443835 ], [ 100.664710070014337, 14.00339130827351 ] ] ] } },
{ "type": "Feature", "properties": { "cell_id": "3539125344793526272", "token": "311d7fc", "level": 11, "type": "s2" }, "geometry": { "type": "Polygon", "coordinates": [ [ [ 100.619655276155129, 14.005379180009429 ], [ 100.619655276155143, 14.051194307355479 ], [ 100.664710070014337, 14.049200461737387 ], [ 100.664710070014337, 14.00339130827351 ], [ 100.619655276155129, 14.005379180009429 ] ] ] } },
{ "type": "Feature", "properties": { "cell_id": "3522518870923411456", "token": "30e2804", "level": 11, "type": "s2" }, "geometry": { "type": "Polygon", "coordinates": [ [ [ 100.574622393354176, 14.007357737435131 ], [ 100.574622393354176, 14.053178810452275 ], [ 100.619655276155143, 14.051194307355479 ], [ 100.619655276155129, 14.005379180009429 ], [ 100.574622393354176, 14.007357737435131 ] ] ] } },
{ "type": "Feature", "properties": { "cell_id": "3522519420679225344", "token": "30e280c", "level": 11, "type": "s2" }, "geometry": { "type": "Polygon", "coordinates": [ [ [ 100.52961150246017, 14.009326988406732 ], [ 100.52961150246017, 14.055153978910582 ], [ 100.574622393354176, 14.053178810452275 ], [ 100.574622393354176, 14.007357737435131 ], [ 100.52961150246017, 14.009326988406732 ] ] ] } },
{ "type": "Feature", "properties": { "cell_id": "3539127543816781824", "token": "311d81c", "level": 11, "type": "s2" }, "geometry": { "type": "Polygon", "coordinates": [ [ [ 100.664710070014337, 14.049200461737387 ], [ 100.664710070014337, 14.095024967611666 ], [ 100.70978669392025, 14.093015772649085 ], [ 100.70978669392025, 14.047197265782485 ], [ 100.664710070014337, 14.049200461737387 ] ] ] } },
{ "type": "Feature", "properties": { "cell_id": "3539125894549340160", "token": "311d804", "level": 11, "type": "s2" }, "geometry": { "type": "Polygon", "coordinates": [ [ [ 100.619655276155143, 14.051194307355479 ], [ 100.619655276155143, 14.097024784012316 ], [ 100.664710070014337, 14.095024967611666 ], [ 100.664710070014337, 14.049200461737387 ], [ 100.619655276155143, 14.051194307355479 ] ] ] } },
{ "type": "Feature", "properties": { "cell_id": "3522518321167597568", "token": "30e27fc", "level": 11, "type": "s2" }, "geometry": { "type": "Polygon", "coordinates": [ [ [ 100.574622393354176, 14.053178810452275 ], [ 100.574622393354161, 14.09901522969307 ], [ 100.619655276155143, 14.097024784012316 ], [ 100.619655276155143, 14.051194307355479 ], [ 100.574622393354176, 14.053178810452275 ] ] ] } },
{ "type": "Feature", "properties": { "cell_id": "3522516671900155904", "token": "30e27e4", "level": 11, "type": "s2" }, "geometry": { "type": "Polygon", "coordinates": [ [ [ 100.52961150246017, 14.055153978910582 ], [ 100.52961150246017, 14.100996312563419 ], [ 100.574622393354161, 14.09901522969307 ], [ 100.574622393354176, 14.053178810452275 ], [ 100.52961150246017, 14.055153978910582 ] ] ] } },
{ "type": "Feature", "properties": { "cell_id": "3539126994060967936", "token": "311d814", "level": 11, "type": "s2" }, "geometry": { "type": "Polygon", "coordinates": [ [ [ 100.664710070014337, 14.095024967611666 ], [ 100.664710070014337, 14.140864737807343 ], [ 100.709786693920236, 14.138849546981174 ], [ 100.70978669392025, 14.093015772649085 ], [ 100.664710070014337, 14.095024967611666 ] ] ] } },
{ "type": "Feature", "properties": { "cell_id": "3522531515307130880", "token": "30e28bc", "level": 11, "type": "s2" }, "geometry": { "type": "Polygon", "coordinates": [ [ [ 100.304889744838675, 13.973193186165648 ], [ 100.304889744838675, 14.019033926087829 ], [ 100.349789469201582, 14.017111087211207 ], [ 100.349789469201582, 13.971276127241451 ], [ 100.304889744838675, 13.973193186165648 ] ] ] } },
{ "type": "Feature", "properties": { "cell_id": "3522530965551316992", "token": "30e28b4", "level": 11, "type": "s2" }, "geometry": { "type": "Polygon", "coordinates": [ [ [ 100.260012494026569, 13.975101015202679 ], [ 100.260012494026569, 14.020947507044358 ], [ 100.304889744838675, 14.019033926087829 ], [ 100.304889744838675, 13.973193186165648 ], [ 100.260012494026569, 13.975101015202679 ] ] ] } },
{ "type": "Feature", "properties": { "cell_id": "3522529316283875328", "token": "30e289c", "level": 11, "type": "s2" }, "geometry": { "type": "Polygon", "coordinates": [ [ [ 100.349789469201582, 14.017111087211207 ], [ 100.349789469201582, 14.062961466357892 ], [ 100.394711587254605, 14.061023556287317 ], [ 100.394711587254605, 14.015178982160203 ], [ 100.349789469201582, 14.017111087211207 ] ] ] } },
{ "type": "Feature", "properties": { "cell_id": "3522529866039689216", "token": "30e28a4", "level": 11, "type": "s2" }, "geometry": { "type": "Polygon", "coordinates": [ [ [ 100.304889744838675, 14.019033926087829 ], [ 100.304889744838675, 14.064890082205823 ], [ 100.349789469201582, 14.062961466357892 ], [ 100.349789469201582, 14.017111087211207 ], [ 100.304889744838675, 14.019033926087829 ] ] ] } },
{ "type": "Feature", "properties": { "cell_id": "3522530415795503104", "token": "30e28ac", "level": 11, "type": "s2" }, "geometry": { "type": "Polygon", "coordinates": [ [ [ 100.260012494026569, 14.020947507044358 ], [ 100.260012494026569, 14.066809412113178 ], [ 100.304889744838675, 14.064890082205823 ], [ 100.304889744838675, 14.019033926087829 ], [ 100.260012494026569, 14.020947507044358 ] ] ] } },
{ "type": "Feature", "properties": { "cell_id": "3522486435330392064", "token": "30e262c", "level": 11, "type": "s2" }, "geometry": { "type": "Polygon", "coordinates": [ [ [ 100.394711587254605, 14.061023556287317 ], [ 100.394711587254605, 14.106883464414532 ], [ 100.439656018971021, 14.104930421846944 ], [ 100.439656018971021, 14.059076343778049 ], [ 100.394711587254605, 14.061023556287317 ] ] ] } },
{ "type": "Feature", "properties": { "cell_id": "3522485885574578176", "token": "30e2624", "level": 11, "type": "s2" }, "geometry": { "type": "Polygon", "coordinates": [ [ [ 100.349789469201582, 14.062961466357892 ], [ 100.349789469201582, 14.108827176480121 ], [ 100.394711587254605, 14.106883464414532 ], [ 100.394711587254605, 14.061023556287317 ], [ 100.349789469201582, 14.062961466357892 ] ] ] } },
{ "type": "Feature", "properties": { "cell_id": "3522485335818764288", "token": "30e261c", "level": 11, "type": "s2" }, "geometry": { "type": "Polygon", "coordinates": [ [ [ 100.304889744838675, 14.064890082205823 ], [ 100.304889744838675, 14.110761566287374 ], [ 100.349789469201582, 14.108827176480121 ], [ 100.349789469201582, 14.062961466357892 ], [ 100.304889744838675, 14.064890082205823 ] ] ] } },
{ "type": "Feature", "properties": { "cell_id": "3522486985086205952", "token": "30e2634", "level": 11, "type": "s2" }, "geometry": { "type": "Polygon", "coordinates": [ [ [ 100.394711587254605, 14.106883464414532 ], [ 100.394711587254605, 14.152758618263729 ], [ 100.439656018971021, 14.150799748706087 ], [ 100.439656018971021, 14.104930421846944 ], [ 100.394711587254605, 14.106883464414532 ] ] ] } },
{ "type": "Feature", "properties": { "cell_id": "3522487534842019840", "token": "30e263c", "level": 11, "type": "s2" }, "geometry": { "type": "Polygon", "coordinates": [ [ [ 100.349789469201582, 14.108827176480121 ], [ 100.349789469201582, 14.154708129268768 ], [ 100.394711587254605, 14.152758618263729 ], [ 100.394711587254605, 14.106883464414532 ], [ 100.349789469201582, 14.108827176480121 ] ] ] } },
{ "type": "Feature", "properties": { "cell_id": "3522527117260619776", "token": "30e287c", "level": 11, "type": "s2" }, "geometry": { "type": "Polygon", "coordinates": [ [ [ 100.439656018971021, 14.013237602746354 ], [ 100.439656018971021, 14.059076343778049 ], [ 100.48462268415858, 14.057119820680262 ], [ 100.48462268415858, 14.011286940847247 ], [ 100.439656018971021, 14.013237602746354 ] ] ] } },
{ "type": "Feature", "properties": { "cell_id": "3522527667016433664", "token": "30e2884", "level": 11, "type": "s2" }, "geometry": { "type": "Polygon", "coordinates": [ [ [ 100.394711587254605, 14.015178982160203 ], [ 100.394711587254605, 14.061023556287317 ], [ 100.439656018971021, 14.059076343778049 ], [ 100.439656018971021, 14.013237602746354 ], [ 100.394711587254605, 14.015178982160203 ] ] ] } },
{ "type": "Feature", "properties": { "cell_id": "3522516122144342016", "token": "30e27dc", "level": 11, "type": "s2" }, "geometry": { "type": "Polygon", "coordinates": [ [ [ 100.48462268415858, 14.057119820680262 ], [ 100.48462268415858, 14.102968040600116 ], [ 100.52961150246017, 14.100996312563419 ], [ 100.52961150246017, 14.055153978910582 ], [ 100.48462268415858, 14.057119820680262 ] ] ] } },
{ "type": "Feature", "properties": { "cell_id": "3522515572388528128", "token": "30e27d4", "level": 11, "type": "s2" }, "geometry": { "type": "Polygon", "coordinates": [ [ [ 100.439656018971021, 14.059076343778049 ], [ 100.439656018971021, 14.104930421846944 ], [ 100.48462268415858, 14.102968040600116 ], [ 100.48462268415858, 14.057119820680262 ], [ 100.439656018971021, 14.059076343778049 ] ] ] } },
{ "type": "Feature", "properties": { "cell_id": "3522514472876900352", "token": "30e27c4", "level": 11, "type": "s2" }, "geometry": { "type": "Polygon", "coordinates": [ [ [ 100.48462268415858, 14.102968040600116 ], [ 100.48462268415858, 14.148831512391153 ], [ 100.52961150246017, 14.146853901181046 ], [ 100.52961150246017, 14.100996312563419 ], [ 100.48462268415858, 14.102968040600116 ] ] ] } },
{ "type": "Feature", "properties": { "cell_id": "3522515022632714240", "token": "30e27cc", "level": 11, "type": "s2" }, "geometry": { "type": "Polygon", "coordinates": [ [ [ 100.439656018971021, 14.104930421846944 ], [ 100.439656018971021, 14.150799748706087 ], [ 100.48462268415858, 14.148831512391153 ], [ 100.48462268415858, 14.102968040600116 ], [ 100.439656018971021, 14.104930421846944 ] ] ] } },
{ "type": "Feature", "properties": { "cell_id": "3522484786062950400", "token": "30e2614", "level": 11, "type": "s2" }, "geometry": { "type": "Polygon", "coordinates": [ [ [ 100.304889744838675, 14.110761566287374 ], [ 100.304889744838675, 14.156648289992484 ], [ 100.349789469201582, 14.154708129268768 ], [ 100.349789469201582, 14.108827176480121 ], [ 100.304889744838675, 14.110761566287374 ] ] ] } },
{ "type": "Feature", "properties": { "cell_id": "3539115449188876288", "token": "311d76c", "level": 11, "type": "s2" }, "geometry": { "type": "Polygon", "coordinates": [ [ [ 100.845146733373554, 13.949577000945967 ], [ 100.845146733373554, 13.995346523457849 ], [ 100.890309864115707, 13.993311964684491 ], [ 100.890309864115707, 13.947548560632958 ], [ 100.845146733373554, 13.949577000945967 ] ] ] } },
{ "type": "Feature", "properties": { "cell_id": "3539115998944690176", "token": "311d774", "level": 11, "type": "s2" }, "geometry": { "type": "Polygon", "coordinates": [ [ [ 100.800005107015735, 13.951596117032585 ], [ 100.800005107015735, 13.99737172965089 ], [ 100.845146733373554, 13.995346523457849 ], [ 100.845146733373554, 13.949577000945967 ], [ 100.800005107015735, 13.951596117032585 ] ] ] } },
{ "type": "Feature", "properties": { "cell_id": "3539118747723759616", "token": "311d79c", "level": 11, "type": "s2" }, "geometry": { "type": "Polygon", "coordinates": [ [ [ 100.75488506669916, 13.953605916385687 ], [ 100.75488506669916, 13.99938759078222 ], [ 100.800005107015735, 13.99737172965089 ], [ 100.800005107015735, 13.951596117032585 ], [ 100.75488506669916, 13.953605916385687 ] ] ] } },
{ "type": "Feature", "properties": { "cell_id": "3539118197967945728", "token": "311d794", "level": 11, "type": "s2" }, "geometry": { "type": "Polygon", "coordinates": [ [ [ 100.709786693920236, 13.95560640656587 ], [ 100.70978669392025, 14.00139411443835 ], [ 100.75488506669916, 13.99938759078222 ], [ 100.75488506669916, 13.953605916385687 ], [ 100.709786693920236, 13.95560640656587 ] ] ] } },
{ "type": "Feature", "properties": { "cell_id": "3539116548700504064", "token": "311d77c", "level": 11, "type": "s2" }, "geometry": { "type": "Polygon", "coordinates": [ [ [ 100.800005107015735, 13.99737172965089 ], [ 100.800005107015735, 14.043162791937778 ], [ 100.845146733373554, 14.041131498755176 ], [ 100.845146733373554, 13.995346523457849 ], [ 100.800005107015735, 13.99737172965089 ] ] ] } },
{ "type": "Feature", "properties": { "cell_id": "3539117098456317952", "token": "311d784", "level": 11, "type": "s2" }, "geometry": { "type": "Polygon", "coordinates": [ [ [ 100.75488506669916, 13.99938759078222 ], [ 100.75488506669916, 14.04518471174273 ], [ 100.800005107015735, 14.043162791937778 ], [ 100.800005107015735, 13.99737172965089 ], [ 100.75488506669916, 13.99938759078222 ] ] ] } },
{ "type": "Feature", "properties": { "cell_id": "3539117648212131840", "token": "311d78c", "level": 11, "type": "s2" }, "geometry": { "type": "Polygon", "coordinates": [ [ [ 100.70978669392025, 14.00139411443835 ], [ 100.70978669392025, 14.047197265782485 ], [ 100.75488506669916, 14.04518471174273 ], [ 100.75488506669916, 13.99938759078222 ], [ 100.70978669392025, 14.00139411443835 ] ] ] } },
{ "type": "Feature", "properties": { "cell_id": "3539157780386545664", "token": "311d9d4", "level": 11, "type": "s2" }, "geometry": { "type": "Polygon", "coordinates": [ [ [ 100.800005107015735, 14.043162791937778 ], [ 100.800005107015735, 14.088969216008554 ], [ 100.845146733373554, 14.086931838985706 ], [ 100.845146733373554, 14.041131498755176 ], [ 100.800005107015735, 14.043162791937778 ] ] ] } },
{ "type": "Feature", "properties": { "cell_id": "3539128643328409600", "token": "311d82c", "level": 11, "type": "s2" }, "geometry": { "type": "Polygon", "coordinates": [ [ [ 100.75488506669916, 14.04518471174273 ], [ 100.75488506669916, 14.090997191350212 ], [ 100.800005107015735, 14.088969216008554 ], [ 100.800005107015735, 14.043162791937778 ], [ 100.75488506669916, 14.04518471174273 ] ] ] } },
{ "type": "Feature", "properties": { "cell_id": "3539128093572595712", "token": "311d824", "level": 11, "type": "s2" }, "geometry": { "type": "Polygon", "coordinates": [ [ [ 100.70978669392025, 14.047197265782485 ], [ 100.70978669392025, 14.093015772649085 ], [ 100.75488506669916, 14.090997191350212 ], [ 100.75488506669916, 14.04518471174273 ], [ 100.70978669392025, 14.047197265782485 ] ] ] } },
{ "type": "Feature", "properties": { "cell_id": "3539158879898173440", "token": "311d9e4", "level": 11, "type": "s2" }, "geometry": { "type": "Polygon", "coordinates": [ [ [ 100.890309864115707, 14.039090824650559 ], [ 100.890309864115707, 14.084885052711538 ], [ 100.935494417425332, 14.082828849684415 ], [ 100.935494417425332, 14.03704076214788 ], [ 100.890309864115707, 14.039090824650559 ] ] ] } },
{ "type": "Feature", "properties": { "cell_id": "3539158330142359552", "token": "311d9dc", "level": 11, "type": "s2" }, "geometry": { "type": "Polygon", "coordinates": [ [ [ 100.845146733373554, 14.041131498755176 ], [ 100.845146733373554, 14.086931838985706 ], [ 100.890309864115707, 14.084885052711538 ], [ 100.890309864115707, 14.039090824650559 ], [ 100.845146733373554, 14.041131498755176 ] ] ] } },
{ "type": "Feature", "properties": { "cell_id": "3539159429653987328", "token": "311d9ec", "level": 11, "type": "s2" }, "geometry": { "type": "Polygon", "coordinates": [ [ [ 100.890309864115707, 14.084885052711538 ], [ 100.890309864115707, 14.130694560939975 ], [ 100.935494417425332, 14.128632220595222 ], [ 100.935494417425332, 14.082828849684415 ], [ 100.890309864115707, 14.084885052711538 ] ] ] } },
{ "type": "Feature", "properties": { "cell_id": "3539156680874917888", "token": "311d9c4", "level": 11, "type": "s2" }, "geometry": { "type": "Polygon", "coordinates": [ [ [ 100.845146733373554, 14.086931838985706 ], [ 100.845146733373554, 14.132747456189394 ], [ 100.890309864115707, 14.130694560939975 ], [ 100.890309864115707, 14.084885052711538 ], [ 100.845146733373554, 14.086931838985706 ] ] ] } },
{ "type": "Feature", "properties": { "cell_id": "3539153382340034560", "token": "311d994", "level": 11, "type": "s2" }, "geometry": { "type": "Polygon", "coordinates": [ [ [ 100.890309864115707, 14.130694560939975 ], [ 100.890309864115707, 14.176519261301369 ], [ 100.935494417425332, 14.174450786878531 ], [ 100.935494417425332, 14.128632220595222 ], [ 100.890309864115707, 14.130694560939975 ] ] ] } },
{ "type": "Feature", "properties": { "cell_id": "3539156131119104000", "token": "311d9bc", "level": 11, "type": "s2" }, "geometry": { "type": "Polygon", "coordinates": [ [ [ 100.845146733373554, 14.132747456189394 ], [ 100.845146733373554, 14.178578262299144 ], [ 100.890309864115707, 14.176519261301369 ], [ 100.890309864115707, 14.130694560939975 ], [ 100.845146733373554, 14.132747456189394 ] ] ] } },
{ "type": "Feature", "properties": { "cell_id": "3539126444305154048", "token": "311d80c", "level": 11, "type": "s2" }, "geometry": { "type": "Polygon", "coordinates": [ [ [ 100.619655276155143, 14.097024784012316 ], [ 100.619655276155143, 14.142870521859065 ], [ 100.664710070014337, 14.140864737807343 ], [ 100.664710070014337, 14.095024967611666 ], [ 100.619655276155143, 14.097024784012316 ] ] ] } },
{ "type": "Feature", "properties": { "cell_id": "3522517771411783680", "token": "30e27f4", "level": 11, "type": "s2" }, "geometry": { "type": "Polygon", "coordinates": [ [ [ 100.574622393354161, 14.09901522969307 ], [ 100.574622393354176, 14.144866907004896 ], [ 100.619655276155143, 14.142870521859065 ], [ 100.619655276155143, 14.097024784012316 ], [ 100.574622393354161, 14.09901522969307 ] ] ] } },
{ "type": "Feature", "properties": { "cell_id": "3522517221655969792", "token": "30e27ec", "level": 11, "type": "s2" }, "geometry": { "type": "Polygon", "coordinates": [ [ [ 100.52961150246017, 14.100996312563419 ], [ 100.52961150246017, 14.146853901181046 ], [ 100.574622393354176, 14.144866907004896 ], [ 100.574622393354161, 14.09901522969307 ], [ 100.52961150246017, 14.100996312563419 ] ] ] } },
{ "type": "Feature", "properties": { "cell_id": "3539133041374920704", "token": "311d86c", "level": 11, "type": "s2" }, "geometry": { "type": "Polygon", "coordinates": [ [ [ 100.664710070014337, 14.140864737807343 ], [ 100.664710070014337, 14.186719684128397 ], [ 100.709786693920236, 14.18469850061474 ], [ 100.709786693920236, 14.138849546981174 ], [ 100.664710070014337, 14.140864737807343 ] ] ] } },
{ "type": "Feature", "properties": { "cell_id": "3539133591130734592", "token": "311d874", "level": 11, "type": "s2" }, "geometry": { "type": "Polygon", "coordinates": [ [ [ 100.619655276155143, 14.142870521859065 ], [ 100.619655276155143, 14.188731432667826 ], [ 100.664710070014337, 14.186719684128397 ], [ 100.664710070014337, 14.140864737807343 ], [ 100.619655276155143, 14.142870521859065 ] ] ] } },
{ "type": "Feature", "properties": { "cell_id": "3539132491619106816", "token": "311d864", "level": 11, "type": "s2" }, "geometry": { "type": "Polygon", "coordinates": [ [ [ 100.664710070014337, 14.186719684128397 ], [ 100.664710070014337, 14.232589718272516 ], [ 100.70978669392025, 14.230562545279481 ], [ 100.709786693920236, 14.18469850061474 ], [ 100.664710070014337, 14.186719684128397 ] ] ] } },
{ "type": "Feature", "properties": { "cell_id": "3539157230630731776", "token": "311d9cc", "level": 11, "type": "s2" }, "geometry": { "type": "Polygon", "coordinates": [ [ [ 100.800005107015735, 14.088969216008554 ], [ 100.800005107015735, 14.134790913870713 ], [ 100.845146733373554, 14.132747456189394 ], [ 100.845146733373554, 14.086931838985706 ], [ 100.800005107015735, 14.088969216008554 ] ] ] } },
{ "type": "Feature", "properties": { "cell_id": "3539129193084223488", "token": "311d834", "level": 11, "type": "s2" }, "geometry": { "type": "Polygon", "coordinates": [ [ [ 100.75488506669916, 14.090997191350212 ], [ 100.75488506669916, 14.136824941579844 ], [ 100.800005107015735, 14.134790913870713 ], [ 100.800005107015735, 14.088969216008554 ], [ 100.75488506669916, 14.090997191350212 ] ] ] } },
{ "type": "Feature", "properties": { "cell_id": "3539129742840037376", "token": "311d83c", "level": 11, "type": "s2" }, "geometry": { "type": "Polygon", "coordinates": [ [ [ 100.70978669392025, 14.093015772649085 ], [ 100.709786693920236, 14.138849546981174 ], [ 100.75488506669916, 14.136824941579844 ], [ 100.75488506669916, 14.090997191350212 ], [ 100.70978669392025, 14.093015772649085 ] ] ] } },
{ "type": "Feature", "properties": { "cell_id": "3539155581363290112", "token": "311d9b4", "level": 11, "type": "s2" }, "geometry": { "type": "Polygon", "coordinates": [ [ [ 100.800005107015735, 14.134790913870713 ], [ 100.800005107015735, 14.180627797424711 ], [ 100.845146733373554, 14.178578262299144 ], [ 100.845146733373554, 14.132747456189394 ], [ 100.800005107015735, 14.134790913870713 ] ] ] } },
{ "type": "Feature", "properties": { "cell_id": "3539130842351665152", "token": "311d84c", "level": 11, "type": "s2" }, "geometry": { "type": "Polygon", "coordinates": [ [ [ 100.75488506669916, 14.136824941579844 ], [ 100.75488506669916, 14.182667874299785 ], [ 100.800005107015735, 14.180627797424711 ], [ 100.800005107015735, 14.134790913870713 ], [ 100.75488506669916, 14.136824941579844 ] ] ] } },
{ "type": "Feature", "properties": { "cell_id": "3539130292595851264", "token": "311d844", "level": 11, "type": "s2" }, "geometry": { "type": "Polygon", "coordinates": [ [ [ 100.709786693920236, 14.138849546981174 ], [ 100.709786693920236, 14.18469850061474 ], [ 100.75488506669916, 14.182667874299785 ], [ 100.75488506669916, 14.136824941579844 ], [ 100.709786693920236, 14.138849546981174 ] ] ] } },
{ "type": "Feature", "properties": { "cell_id": "3539155031607476224", "token": "311d9ac", "level": 11, "type": "s2" }, "geometry": { "type": "Polygon", "coordinates": [ [ [ 100.800005107015735, 14.180627797424711 ], [ 100.800005107015735, 14.226479778464698 ], [ 100.845146733373554, 14.224424169141551 ], [ 100.845146733373554, 14.178578262299144 ], [ 100.800005107015735, 14.180627797424711 ] ] ] } },
{ "type": "Feature", "properties": { "cell_id": "3539131392107479040", "token": "311d854", "level": 11, "type": "s2" }, "geometry": { "type": "Polygon", "coordinates": [ [ [ 100.75488506669916, 14.182667874299785 ], [ 100.75488506669916, 14.228525901271883 ], [ 100.800005107015735, 14.226479778464698 ], [ 100.800005107015735, 14.180627797424711 ], [ 100.75488506669916, 14.182667874299785 ] ] ] } },
{ "type": "Feature", "properties": { "cell_id": "3539131941863292928", "token": "311d85c", "level": 11, "type": "s2" }, "geometry": { "type": "Polygon", "coordinates": [ [ [ 100.709786693920236, 14.18469850061474 ], [ 100.70978669392025, 14.230562545279481 ], [ 100.75488506669916, 14.228525901271883 ], [ 100.75488506669916, 14.182667874299785 ], [ 100.709786693920236, 14.18469850061474 ] ] ] } },
{ "type": "Feature", "properties": { "cell_id": "3539143486735384576", "token": "311d904", "level": 11, "type": "s2" }, "geometry": { "type": "Polygon", "coordinates": [ [ [ 100.800005107015735, 14.226479778464698 ], [ 100.800005107015735, 14.27234676867932 ], [ 100.845146733373554, 14.270285088437694 ], [ 100.845146733373554, 14.224424169141551 ], [ 100.800005107015735, 14.226479778464698 ] ] ] } },
{ "type": "Feature", "properties": { "cell_id": "3539153932095848448", "token": "311d99c", "level": 11, "type": "s2" }, "geometry": { "type": "Polygon", "coordinates": [ [ [ 100.890309864115707, 14.176519261301369 ], [ 100.890309864115707, 14.222359065654906 ], [ 100.935494417425332, 14.220284460426264 ], [ 100.935494417425332, 14.174450786878531 ], [ 100.890309864115707, 14.176519261301369 ] ] ] } },
{ "type": "Feature", "properties": { "cell_id": "3539154481851662336", "token": "311d9a4", "level": 11, "type": "s2" }, "geometry": { "type": "Polygon", "coordinates": [ [ [ 100.845146733373554, 14.178578262299144 ], [ 100.845146733373554, 14.224424169141551 ], [ 100.890309864115707, 14.222359065654906 ], [ 100.890309864115707, 14.176519261301369 ], [ 100.845146733373554, 14.178578262299144 ] ] ] } },
{ "type": "Feature", "properties": { "cell_id": "3539151733072592896", "token": "311d97c", "level": 11, "type": "s2" }, "geometry": { "type": "Polygon", "coordinates": [ [ [ 100.935494417425332, 14.220284460426264 ], [ 100.935494417425332, 14.266133153024793 ], [ 100.98070031132626, 14.264042882714667 ], [ 100.98070031132626, 14.218200345946393 ], [ 100.935494417425332, 14.220284460426264 ] ] ] } },
{ "type": "Feature", "properties": { "cell_id": "3539151183316779008", "token": "311d974", "level": 11, "type": "s2" }, "geometry": { "type": "Polygon", "coordinates": [ [ [ 100.890309864115707, 14.222359065654906 ], [ 100.890309864115707, 14.268213885754234 ], [ 100.935494417425332, 14.266133153024793 ], [ 100.935494417425332, 14.220284460426264 ], [ 100.890309864115707, 14.222359065654906 ] ] ] } },
{ "type": "Feature", "properties": { "cell_id": "3539144036491198464", "token": "311d90c", "level": 11, "type": "s2" }, "geometry": { "type": "Polygon", "coordinates": [ [ [ 100.845146733373554, 14.224424169141551 ], [ 100.845146733373554, 14.270285088437694 ], [ 100.890309864115707, 14.268213885754234 ], [ 100.890309864115707, 14.222359065654906 ], [ 100.845146733373554, 14.224424169141551 ] ] ] } },
{ "type": "Feature", "properties": { "cell_id": "3539150083805151232", "token": "311d964", "level": 11, "type": "s2" }, "geometry": { "type": "Polygon", "coordinates": [ [ [ 100.935494417425332, 14.266133153024793 ], [ 100.935494417425332, 14.311996776355731 ], [ 100.98070031132626, 14.309900353566139 ], [ 100.98070031132626, 14.264042882714667 ], [ 100.935494417425332, 14.266133153024793 ] ] ] } },
{ "type": "Feature", "properties": { "cell_id": "3539150633560965120", "token": "311d96c", "level": 11, "type": "s2" }, "geometry": { "type": "Polygon", "coordinates": [ [ [ 100.890309864115707, 14.268213885754234 ], [ 100.890309864115707, 14.31408363324825 ], [ 100.935494417425332, 14.311996776355731 ], [ 100.935494417425332, 14.266133153024793 ], [ 100.890309864115707, 14.268213885754234 ] ] ] } },
{ "type": "Feature", "properties": { "cell_id": "3539144586247012352", "token": "311d914", "level": 11, "type": "s2" }, "geometry": { "type": "Polygon", "coordinates": [ [ [ 100.845146733373554, 14.270285088437694 ], [ 100.845146733373554, 14.316160931803891 ], [ 100.890309864115707, 14.31408363324825 ], [ 100.890309864115707, 14.268213885754234 ], [ 100.845146733373554, 14.270285088437694 ] ] ] } },
{ "type": "Feature", "properties": { "cell_id": "3539142936979570688", "token": "311d8fc", "level": 11, "type": "s2" }, "geometry": { "type": "Polygon", "coordinates": [ [ [ 100.75488506669916, 14.228525901271883 ], [ 100.75488506669916, 14.274398934152492 ], [ 100.800005107015735, 14.27234676867932 ], [ 100.800005107015735, 14.226479778464698 ], [ 100.75488506669916, 14.228525901271883 ] ] ] } }
]
}
