{
"type": "FeatureCollection",
"name": "kmeans_k100",
"crs": { "type": "name", "properties": { "name": "urn:ogc:def:crs:OGC:1.3:CRS84" } },
"features": [
{ "type": "Feature", "properties": { "cell_id": "vor_100_0", "algorithm": "kmeans", "param": 100, "seed_lon": 100.5712194642709, "seed_lat": 13.771892745833728, "type": "voronoi" }, "geometry": { "type": "Polygon", "coordinates": [ [ [ 100.564022315865117, 13.750446227364332 ], [ 100.571191458661687, 13.750004793274831 ], [ 100.594754809090219, 13.765201572185145 ], [ 100.594488025720992, 13.776881828490385 ], [ 100.582139258962627, 13.794766209291506 ], [ 100.548204439471377, 13.773943392972209 ], [ 100.564022315865117, 13.750446227364332 ] ] ] } },
{ "type": "Feature", "properties": { "cell_id": "vor_100_1", "algorithm": "kmeans", "param": 100, "seed_lon": 100.4752059225836, "seed_lat": 13.717955456127005, "type": "voronoi" }, "geometry": { "type": "Polygon", "coordinates": [ [ [ 100.492540429283551, 13.73015943744587 ], [ 100.495525778462962, 13.707809090508054 ], [ 100.460306032077241, 13.693850063865339 ], [ 100.450273773980683, 13.731255053140371 ], [ 100.489827463908938, 13.733286420233535 ], [ 100.492540429283551, 13.73015943744587 ] ] ] } },
{ "type": "Feature", "properties": { "cell_id": "vor_100_2", "algorithm": "kmeans", "param": 100, "seed_lon": 100.64591489722244, "seed_lat": 13.687292119444477, "type": "voronoi" }, "geometry": { "type": "Polygon", "coordinates": [ [ [ 100.62321803254784, 13.684133187022743 ], [ 100.657443070028663, 13.667076133269452 ], [ 100.668000057366143, 13.676638575151875 ], [ 100.667173905335105, 13.702450926011398 ], [ 100.627019286460012, 13.699229152275279 ], [ 100.62321803254784, 13.684133187022743 ] ] ] } },
{ "type": "Feature", "properties": { "cell_id": "vor_100_3", "algorithm": "kmeans", "param": 100, "seed_lon": 100.59865088109852, "seed_lat": 13.92037167689589, "type": "voronoi" }, "geometry": { "type": "Polygon", "coordinates": [ [ [ 100.571641913177146, 13.954781117774173 ], [ 100.577689009748752, 13.958564958803032 ], [ 100.615282402681459, 13.949516915057831 ], [ 100.624950713741129, 13.920924520619561 ], [ 100.6056452794748, 13.896748612685391 ], [ 100.575463046017788, 13.90550345424063 ], [ 100.571641913177146, 13.954781117774173 ] ] ] } },
{ "type": "Feature", "properties": { "cell_id": "vor_100_4", "algorithm": "kmeans", "param": 100, "seed_lon": 100.49879576441036, "seed_lat": 13.866402339599041, "type": "voronoi" }, "geometry": { "type": "Polygon", "coordinates": [ [ [ 100.515538880142458, 13.843305729722591 ], [ 100.520235158636623, 13.884017283598558 ], [ 100.480643746843441, 13.89585981181812 ], [ 100.47023998683018, 13.857723834056607 ], [ 100.515538880142458, 13.843305729722591 ] ] ] } },
{ "type": "Feature", "properties": { "cell_id": "vor_100_5", "algorithm": "kmeans", "param": 100, "seed_lon": 100.34060483847807, "seed_lat": 13.747433312993524, "type": "voronoi" }, "geometry": { "type": "Polygon", "coordinates": [ [ [ 100.377480220543006, 13.743295504324019 ], [ 100.380840460978618, 13.753979357677323 ], [ 100.374014891277781, 13.767606752728486 ], [ 100.320227541960136, 13.775856210967852 ], [ 100.286228602378969, 13.74818125361921 ], [ 100.317081281543167, 13.72100409919214 ], [ 100.357075023273651, 13.722595542470975 ], [ 100.377480220543006, 13.743295504324019 ] ] ] } },
{ "type": "Feature", "properties": { "cell_id": "vor_100_6", "algorithm": "kmeans", "param": 100, "seed_lon": 100.66316637059391, "seed_lat": 13.782876412890179, "type": "voronoi" }, "geometry": { "type": "Polygon", "coordinates": [ [ [ 100.692793437975126, 13.763962170268828 ], [ 100.673951279513929, 13.805125315455022 ], [ 100.637368401999382, 13.798187320464635 ], [ 100.637025335153339, 13.796820406550266 ], [ 100.666719551065867, 13.757678552577749 ], [ 100.674576231924377, 13.754189960773523 ], [ 100.692793437975126, 13.763962170268828 ] ] ] } },
{ "type": "Feature", "properties": { "cell_id": "vor_100_7", "algorithm": "kmeans", "param": 100, "seed_lon": 100.61690222858934, "seed_lat": 14.06129299267748, "type": "voronoi" }, "geometry": { "type": "Polygon", "coordinates": [ [ [ 100.589387710694027, 14.023215397972249 ], [ 100.635374853300476, 14.021353265898739 ], [ 100.649431726125314, 14.030920750199446 ], [ 100.671435382055776, 14.11257612588529 ], [ 100.565598558315173, 14.116150689268142 ], [ 100.561321876781108, 14.050119797540896 ], [ 100.589387710694027, 14.023215397972249 ] ] ] } },
{ "type": "Feature", "properties": { "cell_id": "vor_100_8", "algorithm": "kmeans", "param": 100, "seed_lon": 100.60759804845202, "seed_lat": 13.581516470390309, "type": "voronoi" }, "geometry": { "type": "Polygon", "coordinates": [ [ [ 100.63780415373283, 13.593931863358108 ], [ 100.642809424975084, 13.580992490142538 ], [ 100.637100979574015, 13.561901267591891 ], [ 100.546601160994271, 13.48692281948945 ], [ 100.547006393923695, 13.515152357151768 ], [ 100.581874267274401, 13.61193756643911 ], [ 100.591998605689554, 13.613697274394744 ], [ 100.63780415373283, 13.593931863358108 ] ] ] } },
{ "type": "Feature", "properties": { "cell_id": "vor_100_9", "algorithm": "kmeans", "param": 100, "seed_lon": 100.76887389560487, "seed_lat": 13.709870765687995, "type": "voronoi" }, "geometry": { "type": "Polygon", "coordinates": [ [ [ 100.760221411767532, 13.74304509622125 ], [ 100.770845193626371, 13.7498086253793 ], [ 100.839165890365507, 13.665126361875911 ], [ 100.814518765610416, 13.650542973829793 ], [ 100.749329503986161, 13.711935830034907 ], [ 100.760221411767532, 13.74304509622125 ] ] ] } },
{ "type": "Feature", "properties": { "cell_id": "vor_100_10", "algorithm": "kmeans", "param": 100, "seed_lon": 100.36287370399062, "seed_lat": 13.610193208058872, "type": "voronoi" }, "geometry": { "type": "Polygon", "coordinates": [ [ [ 100.378686197848722, 13.657102062299746 ], [ 100.416590784357993, 13.554747133613949 ], [ 100.398718836282029, 13.471586703470781 ], [ 100.38051645739985, 13.469281454270513 ], [ 100.307072962276038, 13.634802464241462 ], [ 100.320462412253377, 13.64578929960393 ], [ 100.373304053863663, 13.658179314361673 ], [ 100.378686197848722, 13.657102062299746 ] ] ] } },
{ "type": "Feature", "properties": { "cell_id": "vor_100_11", "algorithm": "kmeans", "param": 100, "seed_lon": 100.47580381584307, "seed_lat": 13.784407164010057, "type": "voronoi" }, "geometry": { "type": "Polygon", "coordinates": [ [ [ 100.496928815822756, 13.781809995552939 ], [ 100.470435717949854, 13.765964922189617 ], [ 100.464965289645235, 13.766271106265075 ], [ 100.444812016484107, 13.791662406390545 ], [ 100.464733267041012, 13.813731135752176 ], [ 100.492573254976548, 13.80660892316132 ], [ 100.499710288151505, 13.796454091514617 ], [ 100.496928815822756, 13.781809995552939 ] ] ] } },
{ "type": "Feature", "properties": { "cell_id": "vor_100_12", "algorithm": "kmeans", "param": 100, "seed_lon": 100.43417318001927, "seed_lat": 13.932144740356071, "type": "voronoi" }, "geometry": { "type": "Polygon", "coordinates": [ [ [ 100.439361926030486, 14.006473855419921 ], [ 100.429235593836268, 14.002288148385366 ], [ 100.404667378006039, 13.912572659135154 ], [ 100.405842545742161, 13.910106424655174 ], [ 100.426210699526763, 13.901110335410486 ], [ 100.471250891685216, 13.914743598025272 ], [ 100.475768611421941, 13.930994217908273 ], [ 100.439361926030486, 14.006473855419921 ] ] ] } },
{ "type": "Feature", "properties": { "cell_id": "vor_100_13", "algorithm": "kmeans", "param": 100, "seed_lon": 100.51247028474674, "seed_lat": 13.722932879220904, "type": "voronoi" }, "geometry": { "type": "Polygon", "coordinates": [ [ [ 100.492540429283551, 13.73015943744587 ], [ 100.495525778462962, 13.707809090508054 ], [ 100.505613552022851, 13.700943893239062 ], [ 100.52548863796298, 13.714584506331329 ], [ 100.523989417577482, 13.737655257449788 ], [ 100.492540429283551, 13.73015943744587 ] ] ] } },
{ "type": "Feature", "properties": { "cell_id": "vor_100_14", "algorithm": "kmeans", "param": 100, "seed_lon": 100.72202498176513, "seed_lat": 13.921234011670284, "type": "voronoi" }, "geometry": { "type": "Polygon", "coordinates": [ [ [ 100.688546629367934, 13.950972801358645 ], [ 100.678973842624032, 13.903250731829605 ], [ 100.694838435188402, 13.889386431756277 ], [ 100.775812737551888, 13.873614654870288 ], [ 100.781197669973878, 13.874261743756536 ], [ 100.815755736317243, 13.934683580026974 ], [ 100.740090029153677, 13.989012952655369 ], [ 100.732441289934144, 13.987145090188374 ], [ 100.688546629367934, 13.950972801358645 ] ] ] } },
{ "type": "Feature", "properties": { "cell_id": "vor_100_15", "algorithm": "kmeans", "param": 100, "seed_lon": 100.71635110906557, "seed_lat": 13.598043801196486, "type": "voronoi" }, "geometry": { "type": "Polygon", "coordinates": [ [ [ 100.734049901502829, 13.531778753547696 ], [ 100.69005465062736, 13.585419489682083 ], [ 100.694841539597164, 13.617992230699647 ], [ 100.750133550557194, 13.61486217561419 ], [ 100.734049901502829, 13.531778753547696 ] ] ] } },
{ "type": "Feature", "properties": { "cell_id": "vor_100_16", "algorithm": "kmeans", "param": 100, "seed_lon": 100.42123766449591, "seed_lat": 13.631806840332388, "type": "voronoi" }, "geometry": { "type": "Polygon", "coordinates": [ [ [ 100.46221951606671, 13.639251339333908 ], [ 100.464616098592927, 13.621089914262758 ], [ 100.416590784357993, 13.554747133613949 ], [ 100.378686197848722, 13.657102062299746 ], [ 100.388384676638779, 13.662178971612825 ], [ 100.46221951606671, 13.639251339333908 ] ] ] } },
{ "type": "Feature", "properties": { "cell_id": "vor_100_17", "algorithm": "kmeans", "param": 100, "seed_lon": 100.62714654579715, "seed_lat": 13.854396273317951, "type": "voronoi" }, "geometry": { "type": "Polygon", "coordinates": [ [ [ 100.599824217224878, 13.856285066779805 ], [ 100.61268199007516, 13.875986312484875 ], [ 100.645395315435067, 13.873511126401795 ], [ 100.648195134326514, 13.844069056855515 ], [ 100.630070447305556, 13.828114415727944 ], [ 100.599824217224878, 13.856285066779805 ] ] ] } },
{ "type": "Feature", "properties": { "cell_id": "vor_100_18", "algorithm": "kmeans", "param": 100, "seed_lon": 100.57103567300992, "seed_lat": 13.835034635365998, "type": "voronoi" }, "geometry": { "type": "Polygon", "coordinates": [ [ [ 100.573820713185512, 13.811657071420791 ], [ 100.547757663822253, 13.840562677615049 ], [ 100.565294556957099, 13.8626455072397 ], [ 100.591193473691206, 13.853504151248131 ], [ 100.583446220558386, 13.810455407016716 ], [ 100.581727661116645, 13.808817876395285 ], [ 100.573820713185512, 13.811657071420791 ] ] ] } },
{ "type": "Feature", "properties": { "cell_id": "vor_100_19", "algorithm": "kmeans", "param": 100, "seed_lon": 100.73483786469882, "seed_lat": 13.814607997539982, "type": "voronoi" }, "geometry": { "type": "Polygon", "coordinates": [ [ [ 100.72349397731756, 13.789986427600203 ], [ 100.709378558542937, 13.822914637249582 ], [ 100.775812737551888, 13.873614654870288 ], [ 100.781197669973878, 13.874261743756536 ], [ 100.79970296647511, 13.807660486003451 ], [ 100.781874428843167, 13.788796685227698 ], [ 100.72349397731756, 13.789986427600203 ] ] ] } },
{ "type": "Feature", "properties": { "cell_id": "vor_100_20", "algorithm": "kmeans", "param": 100, "seed_lon": 100.59582454151632, "seed_lat": 13.64925439711187, "type": "voronoi" }, "geometry": { "type": "Polygon", "coordinates": [ [ [ 100.570944887970271, 13.678850993208847 ], [ 100.557562302153187, 13.641086186226559 ], [ 100.581874267274401, 13.61193756643911 ], [ 100.591998605689554, 13.613697274394744 ], [ 100.618975966580251, 13.64660795288504 ], [ 100.609262394208997, 13.671807018546232 ], [ 100.570944887970271, 13.678850993208847 ] ] ] } },
{ "type": "Feature", "properties": { "cell_id": "vor_100_21", "algorithm": "kmeans", "param": 100, "seed_lon": 100.61373348625423, "seed_lat": 13.983037852926298, "type": "voronoi" }, "geometry": { "type": "Polygon", "coordinates": [ [ [ 100.589387710694027, 14.023215397972249 ], [ 100.635374853300476, 14.021353265898739 ], [ 100.642004324045132, 13.968131263580634 ], [ 100.615282402681459, 13.949516915057831 ], [ 100.577689009748752, 13.958564958803032 ], [ 100.589387710694027, 14.023215397972249 ] ] ] } },
{ "type": "Feature", "properties": { "cell_id": "vor_100_22", "algorithm": "kmeans", "param": 100, "seed_lon": 100.59114209828962, "seed_lat": 13.74100172546598, "type": "voronoi" }, "geometry": { "type": "Polygon", "coordinates": [ [ [ 100.604616929012678, 13.721427722336575 ], [ 100.603601165569714, 13.757778165825636 ], [ 100.594754809090219, 13.765201572185145 ], [ 100.571191458661687, 13.750004793274831 ], [ 100.589873725980709, 13.716807283682547 ], [ 100.604616929012678, 13.721427722336575 ] ] ] } },
{ "type": "Feature", "properties": { "cell_id": "vor_100_23", "algorithm": "kmeans", "param": 100, "seed_lon": 100.38214644229258, "seed_lat": 13.706483255851472, "type": "voronoi" }, "geometry": { "type": "Polygon", "coordinates": [ [ [ 100.408997390344254, 13.689665440855963 ], [ 100.388384676638779, 13.662178971612825 ], [ 100.378686197848722, 13.657102062299746 ], [ 100.373304053863663, 13.658179314361673 ], [ 100.357075023273651, 13.722595542470975 ], [ 100.377480220543006, 13.743295504324019 ], [ 100.408884580210653, 13.697351661153363 ], [ 100.408997390344254, 13.689665440855963 ] ] ] } },
{ "type": "Feature", "properties": { "cell_id": "vor_100_24", "algorithm": "kmeans", "param": 100, "seed_lon": 100.51198964603509, "seed_lat": 13.910511535783387, "type": "voronoi" }, "geometry": { "type": "Polygon", "coordinates": [ [ [ 100.526647378589828, 13.941621561065825 ], [ 100.534650259726789, 13.891476524964199 ], [ 100.520235158636623, 13.884017283598558 ], [ 100.480643746843441, 13.89585981181812 ], [ 100.471250891685216, 13.914743598025272 ], [ 100.475768611421941, 13.930994217908273 ], [ 100.526647378589828, 13.941621561065825 ] ] ] } },
{ "type": "Feature", "properties": { "cell_id": "vor_100_25", "algorithm": "kmeans", "param": 100, "seed_lon": 100.77519912129888, "seed_lat": 13.586651747850995, "type": "voronoi" }, "geometry": { "type": "Polygon", "coordinates": [ [ [ 100.763015380363626, 13.449708497797632 ], [ 100.743636371637834, 13.491687618817547 ], [ 100.734049901502829, 13.531778753547696 ], [ 100.750133550557194, 13.61486217561419 ], [ 100.773071576308425, 13.64156570187728 ], [ 100.81432870565429, 13.65038486543239 ], [ 100.801322715176923, 13.457504736791673 ], [ 100.763015380363626, 13.449708497797632 ] ] ] } },
{ "type": "Feature", "properties": { "cell_id": "vor_100_26", "algorithm": "kmeans", "param": 100, "seed_lon": 100.85168639464871, "seed_lat": 13.847074602006709, "type": "voronoi" }, "geometry": { "type": "Polygon", "coordinates": [ [ [ 100.781197669973878, 13.874261743756536 ], [ 100.79970296647511, 13.807660486003451 ], [ 100.967639466117589, 13.740686752537675 ], [ 100.992775895415889, 13.877185711000038 ], [ 100.95235652948341, 13.974856251923011 ], [ 100.815755736317243, 13.934683580026974 ], [ 100.781197669973878, 13.874261743756536 ] ] ] } },
{ "type": "Feature", "properties": { "cell_id": "vor_100_27", "algorithm": "kmeans", "param": 100, "seed_lon": 100.41017926209091, "seed_lat": 13.782281137980034, "type": "voronoi" }, "geometry": { "type": "Polygon", "coordinates": [ [ [ 100.440371854555593, 13.79091596833735 ], [ 100.416412837115374, 13.753920462949475 ], [ 100.380840460978618, 13.753979357677323 ], [ 100.374014891277781, 13.767606752728486 ], [ 100.38718706305221, 13.823596107172783 ], [ 100.440371854555593, 13.79091596833735 ] ] ] } },
{ "type": "Feature", "properties": { "cell_id": "vor_100_28", "algorithm": "kmeans", "param": 100, "seed_lon": 100.47371228158939, "seed_lat": 13.747038832020998, "type": "voronoi" }, "geometry": { "type": "Polygon", "coordinates": [ [ [ 100.489827463908938, 13.733286420233535 ], [ 100.450273773980683, 13.731255053140371 ], [ 100.449695139857994, 13.731813236897363 ], [ 100.464965289645235, 13.766271106265075 ], [ 100.470435717949854, 13.765964922189617 ], [ 100.490345316309387, 13.745281861668895 ], [ 100.489827463908938, 13.733286420233535 ] ] ] } },
{ "type": "Feature", "properties": { "cell_id": "vor_100_29", "algorithm": "kmeans", "param": 100, "seed_lon": 100.6764235550139, "seed_lat": 13.653610396935917, "type": "voronoi" }, "geometry": { "type": "Polygon", "coordinates": [ [ [ 100.657443070028663, 13.667076133269452 ], [ 100.650689158135961, 13.640017111820748 ], [ 100.655251613528861, 13.63215211090446 ], [ 100.689658106182776, 13.62653657744084 ], [ 100.704732896855376, 13.661311707787831 ], [ 100.703099941311407, 13.663693158331411 ], [ 100.668000057366143, 13.676638575151875 ], [ 100.657443070028663, 13.667076133269452 ] ] ] } },
{ "type": "Feature", "properties": { "cell_id": "vor_100_30", "algorithm": "kmeans", "param": 100, "seed_lon": 100.68935875783478, "seed_lat": 13.688682586894588, "type": "voronoi" }, "geometry": { "type": "Polygon", "coordinates": [ [ [ 100.667173905335105, 13.702450926011398 ], [ 100.668000057366143, 13.676638575151875 ], [ 100.703099941311407, 13.663693158331411 ], [ 100.7081041909871, 13.707537774115417 ], [ 100.671427291690406, 13.710102035199492 ], [ 100.667173905335105, 13.702450926011398 ] ] ] } },
{ "type": "Feature", "properties": { "cell_id": "vor_100_31", "algorithm": "kmeans", "param": 100, "seed_lon": 100.51753490692582, "seed_lat": 13.776480838247187, "type": "voronoi" }, "geometry": { "type": "Polygon", "coordinates": [ [ [ 100.522654758181261, 13.757530713674475 ], [ 100.506580715055534, 13.762978786844849 ], [ 100.496928815822756, 13.781809995552939 ], [ 100.499710288151505, 13.796454091514617 ], [ 100.53276915716016, 13.795069333426691 ], [ 100.541866895884056, 13.776178532560262 ], [ 100.522654758181261, 13.757530713674475 ] ] ] } },
{ "type": "Feature", "properties": { "cell_id": "vor_100_32", "algorithm": "kmeans", "param": 100, "seed_lon": 100.53731705197171, "seed_lat": 13.724547511520736, "type": "voronoi" }, "geometry": { "type": "Polygon", "coordinates": [ [ [ 100.551740231157311, 13.736329612979523 ], [ 100.555588565071403, 13.704133025362779 ], [ 100.52548863796298, 13.714584506331329 ], [ 100.523989417577482, 13.737655257449788 ], [ 100.525796118347586, 13.740251349180847 ], [ 100.551740231157311, 13.736329612979523 ] ] ] } },
{ "type": "Feature", "properties": { "cell_id": "vor_100_33", "algorithm": "kmeans", "param": 100, "seed_lon": 100.62048665467613, "seed_lat": 14.167421834532353, "type": "voronoi" }, "geometry": { "type": "Polygon", "coordinates": [ [ [ 100.565598558315173, 14.116150689268142 ], [ 100.451125562881998, 14.246556872301126 ], [ 100.470091458714364, 14.262837649903032 ], [ 100.613156439000079, 14.306478711949511 ], [ 100.756221419285794, 14.27095044273231 ], [ 100.811003495362712, 14.227030731124099 ], [ 100.761692237079501, 14.164148738110972 ], [ 100.671435382055776, 14.11257612588529 ], [ 100.565598558315173, 14.116150689268142 ] ] ] } },
{ "type": "Feature", "properties": { "cell_id": "vor_100_34", "algorithm": "kmeans", "param": 100, "seed_lon": 100.84454786739249, "seed_lat": 13.581975531914875, "type": "voronoi" }, "geometry": { "type": "Polygon", "coordinates": [ [ [ 100.801322715176923, 13.457504736791673 ], [ 100.899286399571508, 13.451016216846886 ], [ 100.96050065184528, 13.481501042620268 ], [ 100.989998545698612, 13.563605492142889 ], [ 100.961580729611882, 13.691118013297507 ], [ 100.839165890365507, 13.665126361875911 ], [ 100.814518765610416, 13.650542973829793 ], [ 100.81432870565429, 13.65038486543239 ], [ 100.801322715176923, 13.457504736791673 ] ] ] } },
{ "type": "Feature", "properties": { "cell_id": "vor_100_35", "algorithm": "kmeans", "param": 100, "seed_lon": 100.52859731556883, "seed_lat": 13.699434952743548, "type": "voronoi" }, "geometry": { "type": "Polygon", "coordinates": [ [ [ 100.52548863796298, 13.714584506331329 ], [ 100.505613552022851, 13.700943893239062 ], [ 100.511462178572842, 13.682444196511668 ], [ 100.565161932091868, 13.690877896653971 ], [ 100.555588565071403, 13.704133025362779 ], [ 100.52548863796298, 13.714584506331329 ] ] ] } },
{ "type": "Feature", "properties": { "cell_id": "vor_100_36", "algorithm": "kmeans", "param": 100, "seed_lon": 100.55085512024502, "seed_lat": 13.816838623860322, "type": "voronoi" }, "geometry": { "type": "Polygon", "coordinates": [ [ [ 100.573820713185512, 13.811657071420791 ], [ 100.547757663822253, 13.840562677615049 ], [ 100.533728256143334, 13.83628837230439 ], [ 100.535913262534592, 13.801148719012872 ], [ 100.573820713185512, 13.811657071420791 ] ] ] } },
{ "type": "Feature", "properties": { "cell_id": "vor_100_37", "algorithm": "kmeans", "param": 100, "seed_lon": 100.60739788314628, "seed_lat": 13.796873138576787, "type": "voronoi" }, "geometry": { "type": "Polygon", "coordinates": [ [ [ 100.594488025720992, 13.776881828490385 ], [ 100.635589346724231, 13.795036175237202 ], [ 100.637025335153339, 13.796820406550266 ], [ 100.637368401999382, 13.798187320464635 ], [ 100.628330861328607, 13.815668415819982 ], [ 100.583446220558386, 13.810455407016716 ], [ 100.581727661116645, 13.808817876395285 ], [ 100.582139258962627, 13.794766209291506 ], [ 100.594488025720992, 13.776881828490385 ] ] ] } },
{ "type": "Feature", "properties": { "cell_id": "vor_100_38", "algorithm": "kmeans", "param": 100, "seed_lon": 100.55026032839406, "seed_lat": 13.916619333199844, "type": "voronoi" }, "geometry": { "type": "Polygon", "coordinates": [ [ [ 100.540191271486364, 13.955692574071406 ], [ 100.571641913177146, 13.954781117774173 ], [ 100.575463046017788, 13.90550345424063 ], [ 100.556553963517814, 13.886200845248736 ], [ 100.534650259726789, 13.891476524964199 ], [ 100.526647378589828, 13.941621561065825 ], [ 100.540191271486364, 13.955692574071406 ] ] ] } },
{ "type": "Feature", "properties": { "cell_id": "vor_100_39", "algorithm": "kmeans", "param": 100, "seed_lon": 100.50372965010894, "seed_lat": 13.642692486722884, "type": "voronoi" }, "geometry": { "type": "Polygon", "coordinates": [ [ [ 100.467719583216606, 13.654338623709419 ], [ 100.506922421115334, 13.668707453577291 ], [ 100.537080835492446, 13.638110228718102 ], [ 100.509334291195529, 13.609520069917892 ], [ 100.464616098592927, 13.621089914262758 ], [ 100.46221951606671, 13.639251339333908 ], [ 100.467719583216606, 13.654338623709419 ] ] ] } },
{ "type": "Feature", "properties": { "cell_id": "vor_100_40", "algorithm": "kmeans", "param": 100, "seed_lon": 100.69216481669685, "seed_lat": 13.728817945553535, "type": "voronoi" }, "geometry": { "type": "Polygon", "coordinates": [ [ [ 100.666154621903331, 13.727352935607808 ], [ 100.674576231924377, 13.754189960773523 ], [ 100.692793437975126, 13.763962170268828 ], [ 100.698590257924991, 13.763491752975757 ], [ 100.715338205405899, 13.744166882846191 ], [ 100.70983332334464, 13.708718285922421 ], [ 100.7081041909871, 13.707537774115417 ], [ 100.671427291690406, 13.710102035199492 ], [ 100.666154621903331, 13.727352935607808 ] ] ] } },
{ "type": "Feature", "properties": { "cell_id": "vor_100_41", "algorithm": "kmeans", "param": 100, "seed_lon": 100.54144387102377, "seed_lat": 13.751848342972842, "type": "voronoi" }, "geometry": { "type": "Polygon", "coordinates": [ [ [ 100.564022315865117, 13.750446227364332 ], [ 100.548204439471377, 13.773943392972209 ], [ 100.541866895884056, 13.776178532560262 ], [ 100.522654758181261, 13.757530713674475 ], [ 100.525796118347586, 13.740251349180847 ], [ 100.551740231157311, 13.736329612979523 ], [ 100.564022315865117, 13.750446227364332 ] ] ] } },
{ "type": "Feature", "properties": { "cell_id": "vor_100_42", "algorithm": "kmeans", "param": 100, "seed_lon": 100.4100853868979, "seed_lat": 13.725580584341406, "type": "voronoi" }, "geometry": { "type": "Polygon", "coordinates": [ [ [ 100.408884580210653, 13.697351661153363 ], [ 100.377480220543006, 13.743295504324019 ], [ 100.380840460978618, 13.753979357677323 ], [ 100.416412837115374, 13.753920462949475 ], [ 100.435708363878533, 13.734340610067942 ], [ 100.408884580210653, 13.697351661153363 ] ] ] } },
{ "type": "Feature", "properties": { "cell_id": "vor_100_43", "algorithm": "kmeans", "param": 100, "seed_lon": 100.32342385080644, "seed_lat": 13.973252721774205, "type": "voronoi" }, "geometry": { "type": "Polygon", "coordinates": [ [ [ 100.374030533478589, 13.999282525319035 ], [ 100.249125800365903, 14.090130614964645 ], [ 100.212100481572577, 14.033975820428612 ], [ 100.223237694241746, 13.901002739889577 ], [ 100.279037298146406, 13.892261929937758 ], [ 100.347002672183109, 13.937519630988652 ], [ 100.374030533478589, 13.999282525319035 ] ] ] } },
{ "type": "Feature", "properties": { "cell_id": "vor_100_44", "algorithm": "kmeans", "param": 100, "seed_lon": 100.64341075262453, "seed_lat": 13.767889192666015, "type": "voronoi" }, "geometry": { "type": "Polygon", "coordinates": [ [ [ 100.628012565135109, 13.757010374128638 ], [ 100.630613860537508, 13.75438247715962 ], [ 100.666719551065867, 13.757678552577749 ], [ 100.637025335153339, 13.796820406550266 ], [ 100.635589346724231, 13.795036175237202 ], [ 100.628012565135109, 13.757010374128638 ] ] ] } },
{ "type": "Feature", "properties": { "cell_id": "vor_100_45", "algorithm": "kmeans", "param": 100, "seed_lon": 100.63436099786169, "seed_lat": 13.664109180327863, "type": "voronoi" }, "geometry": { "type": "Polygon", "coordinates": [ [ [ 100.609262394208997, 13.671807018546232 ], [ 100.618975966580251, 13.64660795288504 ], [ 100.650689158135961, 13.640017111820748 ], [ 100.657443070028663, 13.667076133269452 ], [ 100.62321803254784, 13.684133187022743 ], [ 100.609262394208997, 13.671807018546232 ] ] ] } },
{ "type": "Feature", "properties": { "cell_id": "vor_100_47", "algorithm": "kmeans", "param": 100, "seed_lon": 100.40863440935438, "seed_lat": 13.874322102738356, "type": "voronoi" }, "geometry": { "type": "Polygon", "coordinates": [ [ [ 100.426210699526763, 13.901110335410486 ], [ 100.405842545742161, 13.910106424655174 ], [ 100.361128001321745, 13.849081324118895 ], [ 100.385269725840175, 13.830240787884637 ], [ 100.432411024045891, 13.853375264278709 ], [ 100.426210699526763, 13.901110335410486 ] ] ] } },
{ "type": "Feature", "properties": { "cell_id": "vor_100_48", "algorithm": "kmeans", "param": 100, "seed_lon": 100.65088774096368, "seed_lat": 13.529265331325313, "type": "voronoi" }, "geometry": { "type": "Polygon", "coordinates": [ [ [ 100.763015380363626, 13.449708497797632 ], [ 100.756221419285794, 13.443725666038603 ], [ 100.613156439000079, 13.419648560606875 ], [ 100.537865055818472, 13.460608613897522 ], [ 100.546601160994271, 13.48692281948945 ], [ 100.637100979574015, 13.561901267591891 ], [ 100.743636371637834, 13.491687618817547 ], [ 100.763015380363626, 13.449708497797632 ] ] ] } },
{ "type": "Feature", "properties": { "cell_id": "vor_100_49", "algorithm": "kmeans", "param": 100, "seed_lon": 100.44484223425825, "seed_lat": 13.759832714962705, "type": "voronoi" }, "geometry": { "type": "Polygon", "coordinates": [ [ [ 100.449695139857994, 13.731813236897363 ], [ 100.464965289645235, 13.766271106265075 ], [ 100.444812016484107, 13.791662406390545 ], [ 100.440371854555593, 13.79091596833735 ], [ 100.416412837115374, 13.753920462949475 ], [ 100.435708363878533, 13.734340610067942 ], [ 100.449695139857994, 13.731813236897363 ] ] ] } },
{ "type": "Feature", "properties": { "cell_id": "vor_100_50", "algorithm": "kmeans", "param": 100, "seed_lon": 100.64376990708112, "seed_lat": 13.714026231976913, "type": "voronoi" }, "geometry": { "type": "Polygon", "coordinates": [ [ [ 100.619445317319602, 13.717303638549643 ], [ 100.632081331784036, 13.729526697995201 ], [ 100.666154621903331, 13.727352935607808 ], [ 100.671427291690406, 13.710102035199492 ], [ 100.667173905335105, 13.702450926011398 ], [ 100.627019286460012, 13.699229152275279 ], [ 100.619445317319602, 13.717303638549643 ] ] ] } },
{ "type": "Feature", "properties": { "cell_id": "vor_100_51", "algorithm": "kmeans", "param": 100, "seed_lon": 100.53710089438188, "seed_lat": 13.861983653968677, "type": "voronoi" }, "geometry": { "type": "Polygon", "coordinates": [ [ [ 100.547757663822253, 13.840562677615049 ], [ 100.533728256143334, 13.83628837230439 ], [ 100.515600998034458, 13.843197375838843 ], [ 100.515538880142458, 13.843305729722591 ], [ 100.520235158636623, 13.884017283598558 ], [ 100.534650259726789, 13.891476524964199 ], [ 100.556553963517814, 13.886200845248736 ], [ 100.565294556957099, 13.8626455072397 ], [ 100.547757663822253, 13.840562677615049 ] ] ] } },
{ "type": "Feature", "properties": { "cell_id": "vor_100_52", "algorithm": "kmeans", "param": 100, "seed_lon": 100.60472381538004, "seed_lat": 13.697664279050102, "type": "voronoi" }, "geometry": { "type": "Polygon", "coordinates": [ [ [ 100.566977093086479, 13.689740813327465 ], [ 100.589873725980709, 13.716807283682547 ], [ 100.604616929012678, 13.721427722336575 ], [ 100.619445317319602, 13.717303638549643 ], [ 100.627019286460012, 13.699229152275279 ], [ 100.62321803254784, 13.684133187022743 ], [ 100.609262394208997, 13.671807018546232 ], [ 100.570944887970271, 13.678850993208847 ], [ 100.566977093086479, 13.689740813327465 ] ] ] } },
{ "type": "Feature", "properties": { "cell_id": "vor_100_53", "algorithm": "kmeans", "param": 100, "seed_lon": 100.5426596503132, "seed_lat": 13.604911200417504, "type": "voronoi" }, "geometry": { "type": "Polygon", "coordinates": [ [ [ 100.537080835492446, 13.638110228718102 ], [ 100.557562302153187, 13.641086186226559 ], [ 100.581874267274401, 13.61193756643911 ], [ 100.547006393923695, 13.515152357151768 ], [ 100.509334291195529, 13.609520069917892 ], [ 100.537080835492446, 13.638110228718102 ] ] ] } },
{ "type": "Feature", "properties": { "cell_id": "vor_100_54", "algorithm": "kmeans", "param": 100, "seed_lon": 100.69281751673797, "seed_lat": 14.040836116859388, "type": "voronoi" }, "geometry": { "type": "Polygon", "coordinates": [ [ [ 100.649431726125314, 14.030920750199446 ], [ 100.732441289934144, 13.987145090188374 ], [ 100.740090029153677, 13.989012952655369 ], [ 100.761692237079501, 14.164148738110972 ], [ 100.671435382055776, 14.11257612588529 ], [ 100.649431726125314, 14.030920750199446 ] ] ] } },
{ "type": "Feature", "properties": { "cell_id": "vor_100_55", "algorithm": "kmeans", "param": 100, "seed_lon": 100.48852582967052, "seed_lat": 13.83413619230765, "type": "voronoi" }, "geometry": { "type": "Polygon", "coordinates": [ [ [ 100.492573254976548, 13.80660892316132 ], [ 100.515600998034458, 13.843197375838843 ], [ 100.515538880142458, 13.843305729722591 ], [ 100.47023998683018, 13.857723834056607 ], [ 100.457185552339354, 13.846699711710032 ], [ 100.464733267041012, 13.813731135752176 ], [ 100.492573254976548, 13.80660892316132 ] ] ] } },
{ "type": "Feature", "properties": { "cell_id": "vor_100_56", "algorithm": "kmeans", "param": 100, "seed_lon": 100.64618890414253, "seed_lat": 13.936446315028876, "type": "voronoi" }, "geometry": { "type": "Polygon", "coordinates": [ [ [ 100.688546629367934, 13.950972801358645 ], [ 100.678973842624032, 13.903250731829605 ], [ 100.674053380713659, 13.901947436097448 ], [ 100.624950713741129, 13.920924520619561 ], [ 100.615282402681459, 13.949516915057831 ], [ 100.642004324045132, 13.968131263580634 ], [ 100.688546629367934, 13.950972801358645 ] ] ] } },
{ "type": "Feature", "properties": { "cell_id": "vor_100_57", "algorithm": "kmeans", "param": 100, "seed_lon": 100.50076223252915, "seed_lat": 13.964263160173173, "type": "voronoi" }, "geometry": { "type": "Polygon", "coordinates": [ [ [ 100.439361926030486, 14.006473855419921 ], [ 100.475768611421941, 13.930994217908273 ], [ 100.526647378589828, 13.941621561065825 ], [ 100.540191271486364, 13.955692574071406 ], [ 100.505254244464396, 14.016246775912045 ], [ 100.449787686262866, 14.019914992296846 ], [ 100.439361926030486, 14.006473855419921 ] ] ] } },
{ "type": "Feature", "properties": { "cell_id": "vor_100_58", "algorithm": "kmeans", "param": 100, "seed_lon": 100.66575440663205, "seed_lat": 13.9895177137871, "type": "voronoi" }, "geometry": { "type": "Polygon", "coordinates": [ [ [ 100.635374853300476, 14.021353265898739 ], [ 100.642004324045132, 13.968131263580634 ], [ 100.688546629367934, 13.950972801358645 ], [ 100.732441289934144, 13.987145090188374 ], [ 100.649431726125314, 14.030920750199446 ], [ 100.635374853300476, 14.021353265898739 ] ] ] } },
{ "type": "Feature", "properties": { "cell_id": "vor_100_60", "algorithm": "kmeans", "param": 100, "seed_lon": 100.70808483322632, "seed_lat": 13.849663521488162, "type": "voronoi" }, "geometry": { "type": "Polygon", "coordinates": [ [ [ 100.686287621687924, 13.827560947823118 ], [ 100.709378558542937, 13.822914637249582 ], [ 100.775812737551888, 13.873614654870288 ], [ 100.694838435188402, 13.889386431756277 ], [ 100.683237696302101, 13.833303999560103 ], [ 100.686287621687924, 13.827560947823118 ] ] ] } },
{ "type": "Feature", "properties": { "cell_id": "vor_100_61", "algorithm": "kmeans", "param": 100, "seed_lon": 100.61697764862423, "seed_lat": 13.741723664596286, "type": "voronoi" }, "geometry": { "type": "Polygon", "coordinates": [ [ [ 100.619445317319602, 13.717303638549643 ], [ 100.632081331784036, 13.729526697995201 ], [ 100.630613860537508, 13.75438247715962 ], [ 100.628012565135109, 13.757010374128638 ], [ 100.603601165569714, 13.757778165825636 ], [ 100.604616929012678, 13.721427722336575 ], [ 100.619445317319602, 13.717303638549643 ] ] ] } },
{ "type": "Feature", "properties": { "cell_id": "vor_100_62", "algorithm": "kmeans", "param": 100, "seed_lon": 100.4326628559671, "seed_lat": 13.668599875367434, "type": "voronoi" }, "geometry": { "type": "Polygon", "coordinates": [ [ [ 100.408997390344254, 13.689665440855963 ], [ 100.388384676638779, 13.662178971612825 ], [ 100.46221951606671, 13.639251339333908 ], [ 100.467719583216606, 13.654338623709419 ], [ 100.457316155324591, 13.686315788189173 ], [ 100.408997390344254, 13.689665440855963 ] ] ] } },
{ "type": "Feature", "properties": { "cell_id": "vor_100_63", "algorithm": "kmeans", "param": 100, "seed_lon": 100.55250625522201, "seed_lat": 13.994117113558669, "type": "voronoi" }, "geometry": { "type": "Polygon", "coordinates": [ [ [ 100.505254244464396, 14.016246775912045 ], [ 100.561321876781108, 14.050119797540896 ], [ 100.589387710694027, 14.023215397972249 ], [ 100.577689009748752, 13.958564958803032 ], [ 100.571641913177146, 13.954781117774173 ], [ 100.540191271486364, 13.955692574071406 ], [ 100.505254244464396, 14.016246775912045 ] ] ] } },
{ "type": "Feature", "properties": { "cell_id": "vor_100_64", "algorithm": "kmeans", "param": 100, "seed_lon": 100.61796010972051, "seed_lat": 13.77296032744726, "type": "voronoi" }, "geometry": { "type": "Polygon", "coordinates": [ [ [ 100.594754809090219, 13.765201572185145 ], [ 100.603601165569714, 13.757778165825636 ], [ 100.628012565135109, 13.757010374128638 ], [ 100.635589346724231, 13.795036175237202 ], [ 100.594488025720992, 13.776881828490385 ], [ 100.594754809090219, 13.765201572185145 ] ] ] } },
{ "type": "Feature", "properties": { "cell_id": "vor_100_65", "algorithm": "kmeans", "param": 100, "seed_lon": 100.73382533080489, "seed_lat": 13.76492313527182, "type": "voronoi" }, "geometry": { "type": "Polygon", "coordinates": [ [ [ 100.698590257924991, 13.763491752975757 ], [ 100.72349397731756, 13.789986427600203 ], [ 100.781874428843167, 13.788796685227698 ], [ 100.770845193626371, 13.7498086253793 ], [ 100.760221411767532, 13.74304509622125 ], [ 100.715338205405899, 13.744166882846191 ], [ 100.698590257924991, 13.763491752975757 ] ] ] } },
{ "type": "Feature", "properties": { "cell_id": "vor_100_66", "algorithm": "kmeans", "param": 100, "seed_lon": 100.37088024585488, "seed_lat": 13.901985477415639, "type": "voronoi" }, "geometry": { "type": "Polygon", "coordinates": [ [ [ 100.404667378006039, 13.912572659135154 ], [ 100.405842545742161, 13.910106424655174 ], [ 100.361128001321745, 13.849081324118895 ], [ 100.327568130382033, 13.856326427166691 ], [ 100.279037298146406, 13.892261929937758 ], [ 100.347002672183109, 13.937519630988652 ], [ 100.404667378006039, 13.912572659135154 ] ] ] } },
{ "type": "Feature", "properties": { "cell_id": "vor_100_67", "algorithm": "kmeans", "param": 100, "seed_lon": 100.66850213442761, "seed_lat": 13.605075684966657, "type": "voronoi" }, "geometry": { "type": "Polygon", "coordinates": [ [ [ 100.655251613528861, 13.63215211090446 ], [ 100.63780415373283, 13.593931863358108 ], [ 100.642809424975084, 13.580992490142538 ], [ 100.69005465062736, 13.585419489682083 ], [ 100.694841539597164, 13.617992230699647 ], [ 100.689658106182776, 13.62653657744084 ], [ 100.655251613528861, 13.63215211090446 ] ] ] } },
{ "type": "Feature", "properties": { "cell_id": "vor_100_68", "algorithm": "kmeans", "param": 100, "seed_lon": 100.34818637085148, "seed_lat": 13.796865714285721, "type": "voronoi" }, "geometry": { "type": "Polygon", "coordinates": [ [ [ 100.385269725840175, 13.830240787884637 ], [ 100.361128001321745, 13.849081324118895 ], [ 100.327568130382033, 13.856326427166691 ], [ 100.320227541960136, 13.775856210967852 ], [ 100.374014891277781, 13.767606752728486 ], [ 100.38718706305221, 13.823596107172783 ], [ 100.385269725840175, 13.830240787884637 ] ] ] } },
{ "type": "Feature", "properties": { "cell_id": "vor_100_69", "algorithm": "kmeans", "param": 100, "seed_lon": 100.81029681203022, "seed_lat": 13.743290308270646, "type": "voronoi" }, "geometry": { "type": "Polygon", "coordinates": [ [ [ 100.770845193626371, 13.7498086253793 ], [ 100.839165890365507, 13.665126361875911 ], [ 100.961580729611882, 13.691118013297507 ], [ 100.971348998229331, 13.720395601571463 ], [ 100.967639466117589, 13.740686752537675 ], [ 100.79970296647511, 13.807660486003451 ], [ 100.781874428843167, 13.788796685227698 ], [ 100.770845193626371, 13.7498086253793 ] ] ] } },
{ "type": "Feature", "properties": { "cell_id": "vor_100_70", "algorithm": "kmeans", "param": 100, "seed_lon": 100.79853839901465, "seed_lat": 14.0277959236453, "type": "voronoi" }, "geometry": { "type": "Polygon", "coordinates": [ [ [ 100.740090029153677, 13.989012952655369 ], [ 100.761692237079501, 14.164148738110972 ], [ 100.811003495362712, 14.227030731124099 ], [ 100.899286399571508, 14.220552779060855 ], [ 100.90191662058011, 14.219414690697949 ], [ 100.92384434918894, 14.190765929857188 ], [ 100.965895106597273, 14.033975820428612 ], [ 100.95235652948341, 13.974856251923011 ], [ 100.815755736317243, 13.934683580026974 ], [ 100.740090029153677, 13.989012952655369 ] ] ] } },
{ "type": "Feature", "properties": { "cell_id": "vor_100_71", "algorithm": "kmeans", "param": 100, "seed_lon": 100.66691989259675, "seed_lat": 13.858178553893376, "type": "voronoi" }, "geometry": { "type": "Polygon", "coordinates": [ [ [ 100.683237696302101, 13.833303999560103 ], [ 100.694838435188402, 13.889386431756277 ], [ 100.678973842624032, 13.903250731829605 ], [ 100.674053380713659, 13.901947436097448 ], [ 100.645395315435067, 13.873511126401795 ], [ 100.648195134326514, 13.844069056855515 ], [ 100.683237696302101, 13.833303999560103 ] ] ] } },
{ "type": "Feature", "properties": { "cell_id": "vor_100_72", "algorithm": "kmeans", "param": 100, "seed_lon": 100.50706788520151, "seed_lat": 13.745598845048308, "type": "voronoi" }, "geometry": { "type": "Polygon", "coordinates": [ [ [ 100.525796118347586, 13.740251349180847 ], [ 100.523989417577482, 13.737655257449788 ], [ 100.492540429283551, 13.73015943744587 ], [ 100.489827463908938, 13.733286420233535 ], [ 100.490345316309387, 13.745281861668895 ], [ 100.506580715055534, 13.762978786844849 ], [ 100.522654758181261, 13.757530713674475 ], [ 100.525796118347586, 13.740251349180847 ] ] ] } },
{ "type": "Feature", "properties": { "cell_id": "vor_100_73", "algorithm": "kmeans", "param": 100, "seed_lon": 100.64564488671313, "seed_lat": 13.743416162237757, "type": "voronoi" }, "geometry": { "type": "Polygon", "coordinates": [ [ [ 100.632081331784036, 13.729526697995201 ], [ 100.630613860537508, 13.75438247715962 ], [ 100.666719551065867, 13.757678552577749 ], [ 100.674576231924377, 13.754189960773523 ], [ 100.666154621903331, 13.727352935607808 ], [ 100.632081331784036, 13.729526697995201 ] ] ] } },
{ "type": "Feature", "properties": { "cell_id": "vor_100_74", "algorithm": "kmeans", "param": 100, "seed_lon": 100.5568006162836, "seed_lat": 13.795391056351285, "type": "voronoi" }, "geometry": { "type": "Polygon", "coordinates": [ [ [ 100.548204439471377, 13.773943392972209 ], [ 100.582139258962627, 13.794766209291506 ], [ 100.581727661116645, 13.808817876395285 ], [ 100.573820713185512, 13.811657071420791 ], [ 100.535913262534592, 13.801148719012872 ], [ 100.53276915716016, 13.795069333426691 ], [ 100.541866895884056, 13.776178532560262 ], [ 100.548204439471377, 13.773943392972209 ] ] ] } },
{ "type": "Feature", "properties": { "cell_id": "vor_100_75", "algorithm": "kmeans", "param": 100, "seed_lon": 100.38924990913226, "seed_lat": 13.944446792367106, "type": "voronoi" }, "geometry": { "type": "Polygon", "coordinates": [ [ [ 100.429235593836268, 14.002288148385366 ], [ 100.404667378006039, 13.912572659135154 ], [ 100.347002672183109, 13.937519630988652 ], [ 100.374030533478589, 13.999282525319035 ], [ 100.429235593836268, 14.002288148385366 ] ] ] } },
{ "type": "Feature", "properties": { "cell_id": "vor_100_76", "algorithm": "kmeans", "param": 100, "seed_lon": 100.51914280149481, "seed_lat": 13.81486673134971, "type": "voronoi" }, "geometry": { "type": "Polygon", "coordinates": [ [ [ 100.53276915716016, 13.795069333426691 ], [ 100.499710288151505, 13.796454091514617 ], [ 100.492573254976548, 13.80660892316132 ], [ 100.515600998034458, 13.843197375838843 ], [ 100.533728256143334, 13.83628837230439 ], [ 100.535913262534592, 13.801148719012872 ], [ 100.53276915716016, 13.795069333426691 ] ] ] } },
{ "type": "Feature", "properties": { "cell_id": "vor_100_77", "algorithm": "kmeans", "param": 100, "seed_lon": 100.5685339681819, "seed_lat": 13.728278749090846, "type": "voronoi" }, "geometry": { "type": "Polygon", "coordinates": [ [ [ 100.566977093086479, 13.689740813327465 ], [ 100.565161932091868, 13.690877896653971 ], [ 100.555588565071403, 13.704133025362779 ], [ 100.551740231157311, 13.736329612979523 ], [ 100.564022315865117, 13.750446227364332 ], [ 100.571191458661687, 13.750004793274831 ], [ 100.589873725980709, 13.716807283682547 ], [ 100.566977093086479, 13.689740813327465 ] ] ] } },
{ "type": "Feature", "properties": { "cell_id": "vor_100_78", "algorithm": "kmeans", "param": 100, "seed_lon": 100.43534321129727, "seed_lat": 13.707264021219427, "type": "voronoi" }, "geometry": { "type": "Polygon", "coordinates": [ [ [ 100.449695139857994, 13.731813236897363 ], [ 100.435708363878533, 13.734340610067942 ], [ 100.408884580210653, 13.697351661153363 ], [ 100.408997390344254, 13.689665440855963 ], [ 100.457316155324591, 13.686315788189173 ], [ 100.460306032077241, 13.693850063865339 ], [ 100.450273773980683, 13.731255053140371 ], [ 100.449695139857994, 13.731813236897363 ] ] ] } },
{ "type": "Feature", "properties": { "cell_id": "vor_100_79", "algorithm": "kmeans", "param": 100, "seed_lon": 100.58709561709813, "seed_lat": 13.880535013546057, "type": "voronoi" }, "geometry": { "type": "Polygon", "coordinates": [ [ [ 100.591193473691206, 13.853504151248131 ], [ 100.599824217224878, 13.856285066779805 ], [ 100.61268199007516, 13.875986312484875 ], [ 100.6056452794748, 13.896748612685391 ], [ 100.575463046017788, 13.90550345424063 ], [ 100.556553963517814, 13.886200845248736 ], [ 100.565294556957099, 13.8626455072397 ], [ 100.591193473691206, 13.853504151248131 ] ] ] } },
{ "type": "Feature", "properties": { "cell_id": "vor_100_80", "algorithm": "kmeans", "param": 100, "seed_lon": 100.48767411682012, "seed_lat": 13.686497199750123, "type": "voronoi" }, "geometry": { "type": "Polygon", "coordinates": [ [ [ 100.505613552022851, 13.700943893239062 ], [ 100.511462178572842, 13.682444196511668 ], [ 100.506922421115334, 13.668707453577291 ], [ 100.467719583216606, 13.654338623709419 ], [ 100.457316155324591, 13.686315788189173 ], [ 100.460306032077241, 13.693850063865339 ], [ 100.495525778462962, 13.707809090508054 ], [ 100.505613552022851, 13.700943893239062 ] ] ] } },
{ "type": "Feature", "properties": { "cell_id": "vor_100_81", "algorithm": "kmeans", "param": 100, "seed_lon": 100.4344328925993, "seed_lat": 13.821752337545155, "type": "voronoi" }, "geometry": { "type": "Polygon", "coordinates": [ [ [ 100.464733267041012, 13.813731135752176 ], [ 100.444812016484107, 13.791662406390545 ], [ 100.440371854555593, 13.79091596833735 ], [ 100.38718706305221, 13.823596107172783 ], [ 100.385269725840175, 13.830240787884637 ], [ 100.432411024045891, 13.853375264278709 ], [ 100.457185552339354, 13.846699711710032 ], [ 100.464733267041012, 13.813731135752176 ] ] ] } },
{ "type": "Feature", "properties": { "cell_id": "vor_100_82", "algorithm": "kmeans", "param": 100, "seed_lon": 100.53298079143383, "seed_lat": 13.671524122439507, "type": "voronoi" }, "geometry": { "type": "Polygon", "coordinates": [ [ [ 100.566977093086479, 13.689740813327465 ], [ 100.565161932091868, 13.690877896653971 ], [ 100.511462178572842, 13.682444196511668 ], [ 100.506922421115334, 13.668707453577291 ], [ 100.537080835492446, 13.638110228718102 ], [ 100.557562302153187, 13.641086186226559 ], [ 100.570944887970271, 13.678850993208847 ], [ 100.566977093086479, 13.689740813327465 ] ] ] } },
{ "type": "Feature", "properties": { "cell_id": "vor_100_83", "algorithm": "kmeans", "param": 100, "seed_lon": 100.69783969705706, "seed_lat": 13.798747899596073, "type": "voronoi" }, "geometry": { "type": "Polygon", "coordinates": [ [ [ 100.698590257924991, 13.763491752975757 ], [ 100.72349397731756, 13.789986427600203 ], [ 100.709378558542937, 13.822914637249582 ], [ 100.686287621687924, 13.827560947823118 ], [ 100.673951279513929, 13.805125315455022 ], [ 100.692793437975126, 13.763962170268828 ], [ 100.698590257924991, 13.763491752975757 ] ] ] } },
{ "type": "Feature", "properties": { "cell_id": "vor_100_84", "algorithm": "kmeans", "param": 100, "seed_lon": 100.34263049411091, "seed_lat": 13.696527604136731, "type": "voronoi" }, "geometry": { "type": "Polygon", "coordinates": [ [ [ 100.357075023273651, 13.722595542470975 ], [ 100.317081281543167, 13.72100409919214 ], [ 100.320462412253377, 13.64578929960393 ], [ 100.373304053863663, 13.658179314361673 ], [ 100.357075023273651, 13.722595542470975 ] ] ] } },
{ "type": "Feature", "properties": { "cell_id": "vor_100_85", "algorithm": "kmeans", "param": 100, "seed_lon": 100.38320656534955, "seed_lat": 14.05544645896658, "type": "voronoi" }, "geometry": { "type": "Polygon", "coordinates": [ [ [ 100.439361926030486, 14.006473855419921 ], [ 100.429235593836268, 14.002288148385366 ], [ 100.374030533478589, 13.999282525319035 ], [ 100.249125800365903, 14.090130614964645 ], [ 100.270281935324249, 14.190765929857188 ], [ 100.306082426076188, 14.236125361605147 ], [ 100.32702647842865, 14.243344755499773 ], [ 100.427015485354502, 14.239201564276403 ], [ 100.449787686262866, 14.019914992296846 ], [ 100.439361926030486, 14.006473855419921 ] ] ] } },
{ "type": "Feature", "properties": { "cell_id": "vor_100_86", "algorithm": "kmeans", "param": 100, "seed_lon": 100.60364735002221, "seed_lat": 13.829165685611226, "type": "voronoi" }, "geometry": { "type": "Polygon", "coordinates": [ [ [ 100.583446220558386, 13.810455407016716 ], [ 100.628330861328607, 13.815668415819982 ], [ 100.630070447305556, 13.828114415727944 ], [ 100.599824217224878, 13.856285066779805 ], [ 100.591193473691206, 13.853504151248131 ], [ 100.583446220558386, 13.810455407016716 ] ] ] } },
{ "type": "Feature", "properties": { "cell_id": "vor_100_87", "algorithm": "kmeans", "param": 100, "seed_lon": 100.7525621398087, "seed_lat": 13.69255032513715, "type": "voronoi" }, "geometry": { "type": "Polygon", "coordinates": [ [ [ 100.734066125961363, 13.701851092048843 ], [ 100.744936248729459, 13.65834764907722 ], [ 100.773071576308425, 13.64156570187728 ], [ 100.81432870565429, 13.65038486543239 ], [ 100.814518765610416, 13.650542973829793 ], [ 100.749329503986161, 13.711935830034907 ], [ 100.734066125961363, 13.701851092048843 ] ] ] } },
{ "type": "Feature", "properties": { "cell_id": "vor_100_88", "algorithm": "kmeans", "param": 100, "seed_lon": 100.50764716535437, "seed_lat": 14.068369212598439, "type": "voronoi" }, "geometry": { "type": "Polygon", "coordinates": [ [ [ 100.449787686262866, 14.019914992296846 ], [ 100.427015485354502, 14.239201564276403 ], [ 100.451125562881998, 14.246556872301126 ], [ 100.565598558315173, 14.116150689268142 ], [ 100.561321876781108, 14.050119797540896 ], [ 100.505254244464396, 14.016246775912045 ], [ 100.449787686262866, 14.019914992296846 ] ] ] } },
{ "type": "Feature", "properties": { "cell_id": "vor_100_89", "algorithm": "kmeans", "param": 100, "seed_lon": 100.71846501659564, "seed_lat": 13.63538569938364, "type": "voronoi" }, "geometry": { "type": "Polygon", "coordinates": [ [ [ 100.704732896855376, 13.661311707787831 ], [ 100.744936248729459, 13.65834764907722 ], [ 100.773071576308425, 13.64156570187728 ], [ 100.750133550557194, 13.61486217561419 ], [ 100.694841539597164, 13.617992230699647 ], [ 100.689658106182776, 13.62653657744084 ], [ 100.704732896855376, 13.661311707787831 ] ] ] } },
{ "type": "Feature", "properties": { "cell_id": "vor_100_90", "algorithm": "kmeans", "param": 100, "seed_lon": 100.48922325081772, "seed_lat": 13.761969754221496, "type": "voronoi" }, "geometry": { "type": "Polygon", "coordinates": [ [ [ 100.490345316309387, 13.745281861668895 ], [ 100.470435717949854, 13.765964922189617 ], [ 100.496928815822756, 13.781809995552939 ], [ 100.506580715055534, 13.762978786844849 ], [ 100.490345316309387, 13.745281861668895 ] ] ] } },
{ "type": "Feature", "properties": { "cell_id": "vor_100_91", "algorithm": "kmeans", "param": 100, "seed_lon": 100.65576917412321, "seed_lat": 13.821880582367655, "type": "voronoi" }, "geometry": { "type": "Polygon", "coordinates": [ [ [ 100.630070447305556, 13.828114415727944 ], [ 100.648195134326514, 13.844069056855515 ], [ 100.683237696302101, 13.833303999560103 ], [ 100.686287621687924, 13.827560947823118 ], [ 100.673951279513929, 13.805125315455022 ], [ 100.637368401999382, 13.798187320464635 ], [ 100.628330861328607, 13.815668415819982 ], [ 100.630070447305556, 13.828114415727944 ] ] ] } },
{ "type": "Feature", "properties": { "cell_id": "vor_100_92", "algorithm": "kmeans", "param": 100, "seed_lon": 100.45004735635597, "seed_lat": 13.879701244417948, "type": "voronoi" }, "geometry": { "type": "Polygon", "coordinates": [ [ [ 100.457185552339354, 13.846699711710032 ], [ 100.432411024045891, 13.853375264278709 ], [ 100.426210699526763, 13.901110335410486 ], [ 100.471250891685216, 13.914743598025272 ], [ 100.480643746843441, 13.89585981181812 ], [ 100.47023998683018, 13.857723834056607 ], [ 100.457185552339354, 13.846699711710032 ] ] ] } },
{ "type": "Feature", "properties": { "cell_id": "vor_100_93", "algorithm": "kmeans", "param": 100, "seed_lon": 100.48834461711712, "seed_lat": 13.583228344594588, "type": "voronoi" }, "geometry": { "type": "Polygon", "coordinates": [ [ [ 100.464616098592927, 13.621089914262758 ], [ 100.416590784357993, 13.554747133613949 ], [ 100.398718836282029, 13.471586703470781 ], [ 100.470091458714364, 13.446437427246535 ], [ 100.537865055818472, 13.460608613897522 ], [ 100.546601160994271, 13.48692281948945 ], [ 100.547006393923695, 13.515152357151768 ], [ 100.509334291195529, 13.609520069917892 ], [ 100.464616098592927, 13.621089914262758 ] ] ] } },
{ "type": "Feature", "properties": { "cell_id": "vor_100_94", "algorithm": "kmeans", "param": 100, "seed_lon": 100.62611375843666, "seed_lat": 13.624425886323266, "type": "voronoi" }, "geometry": { "type": "Polygon", "coordinates": [ [ [ 100.650689158135961, 13.640017111820748 ], [ 100.655251613528861, 13.63215211090446 ], [ 100.63780415373283, 13.593931863358108 ], [ 100.591998605689554, 13.613697274394744 ], [ 100.618975966580251, 13.64660795288504 ], [ 100.650689158135961, 13.640017111820748 ] ] ] } },
{ "type": "Feature", "properties": { "cell_id": "vor_100_95", "algorithm": "kmeans", "param": 100, "seed_lon": 100.72211874696848, "seed_lat": 13.684943492320111, "type": "voronoi" }, "geometry": { "type": "Polygon", "coordinates": [ [ [ 100.70983332334464, 13.708718285922421 ], [ 100.734066125961363, 13.701851092048843 ], [ 100.744936248729459, 13.65834764907722 ], [ 100.704732896855376, 13.661311707787831 ], [ 100.703099941311407, 13.663693158331411 ], [ 100.7081041909871, 13.707537774115417 ], [ 100.70983332334464, 13.708718285922421 ] ] ] } },
{ "type": "Feature", "properties": { "cell_id": "vor_100_96", "algorithm": "kmeans", "param": 100, "seed_lon": 100.73276535499396, "seed_lat": 13.722513008423588, "type": "voronoi" }, "geometry": { "type": "Polygon", "coordinates": [ [ [ 100.715338205405899, 13.744166882846191 ], [ 100.760221411767532, 13.74304509622125 ], [ 100.749329503986161, 13.711935830034907 ], [ 100.734066125961363, 13.701851092048843 ], [ 100.70983332334464, 13.708718285922421 ], [ 100.715338205405899, 13.744166882846191 ] ] ] } },
{ "type": "Feature", "properties": { "cell_id": "vor_100_97", "algorithm": "kmeans", "param": 100, "seed_lon": 100.6725289206347, "seed_lat": 13.562101561904724, "type": "voronoi" }, "geometry": { "type": "Polygon", "coordinates": [ [ [ 100.743636371637834, 13.491687618817547 ], [ 100.637100979574015, 13.561901267591891 ], [ 100.642809424975084, 13.580992490142538 ], [ 100.69005465062736, 13.585419489682083 ], [ 100.734049901502829, 13.531778753547696 ], [ 100.743636371637834, 13.491687618817547 ] ] ] } },
{ "type": "Feature", "properties": { "cell_id": "vor_100_98", "algorithm": "kmeans", "param": 100, "seed_lon": 100.29653157192575, "seed_lat": 13.801577726218092, "type": "voronoi" }, "geometry": { "type": "Polygon", "coordinates": [ [ [ 100.279037298146406, 13.892261929937758 ], [ 100.223237694241746, 13.901002739889577 ], [ 100.203314588541602, 13.877185711000038 ], [ 100.205236673404301, 13.75022056125702 ], [ 100.286228602378969, 13.74818125361921 ], [ 100.320227541960136, 13.775856210967852 ], [ 100.327568130382033, 13.856326427166691 ], [ 100.279037298146406, 13.892261929937758 ] ] ] } },
{ "type": "Feature", "properties": { "cell_id": "vor_100_99", "algorithm": "kmeans", "param": 100, "seed_lon": 100.63023040669175, "seed_lat": 13.895154156331124, "type": "voronoi" }, "geometry": { "type": "Polygon", "coordinates": [ [ [ 100.61268199007516, 13.875986312484875 ], [ 100.6056452794748, 13.896748612685391 ], [ 100.624950713741129, 13.920924520619561 ], [ 100.674053380713659, 13.901947436097448 ], [ 100.645395315435067, 13.873511126401795 ], [ 100.61268199007516, 13.875986312484875 ] ] ] } }
]
}
