{
"type": "FeatureCollection",
"name": "res_6",
"crs": { "type": "name", "properties": { "name": "urn:ogc:def:crs:OGC:1.3:CRS84" } },
"features": [
{ "type": "Feature", "properties": { "cell_id": "86658b4efffffff", "resolution": 6, "type": "h3" }, "geometry": { "type": "Polygon", "coordinates": [ [ [ 100.426143721618232, 13.459326179325711 ], [ 100.392057446232727, 13.44402173982035 ], [ 100.361259139864003, 13.465159091608355 ], [ 100.36454747832272, 13.501604060054651 ], [ 100.398640864162843, 13.516908380740791 ], [ 100.429438798244163, 13.495767847978604 ], [ 100.426143721618232, 13.459326179325711 ] ] ] } },
{ "type": "Feature", "properties": { "cell_id": "86658b4cfffffff", "resolution": 6, "type": "h3" }, "geometry": { "type": "Polygon", "coordinates": [ [ [ 100.398640864162843, 13.516908380740791 ], [ 100.36454747832272, 13.501604060054651 ], [ 100.333739781744612, 13.522738320817288 ], [ 100.337025820653935, 13.559180054959349 ], [ 100.371126304186063, 13.574484255631429 ], [ 100.401933648274806, 13.553346838348975 ], [ 100.398640864162843, 13.516908380740791 ] ] ] } },
{ "type": "Feature", "properties": { "cell_id": "86658b4d7ffffff", "resolution": 6, "type": "h3" }, "geometry": { "type": "Polygon", "coordinates": [ [ [ 100.500922977602215, 13.56278274801555 ], [ 100.466828637942413, 13.547497741172059 ], [ 100.436031103345456, 13.568641445791457 ], [ 100.439328332245637, 13.605073316162638 ], [ 100.473429828464305, 13.620358143121072 ], [ 100.504226936362414, 13.59921127577682 ], [ 100.500922977602215, 13.56278274801555 ] ] ] } },
{ "type": "Feature", "properties": { "cell_id": "86658b4dfffffff", "resolution": 6, "type": "h3" }, "geometry": { "type": "Polygon", "coordinates": [ [ [ 100.436031103345456, 13.568641445791457 ], [ 100.401933648274806, 13.553346838348975 ], [ 100.371126304186063, 13.574484255631429 ], [ 100.374416792015467, 13.610919423960263 ], [ 100.408521367854505, 13.626213880873225 ], [ 100.439328332245637, 13.605073316162638 ], [ 100.436031103345456, 13.568641445791457 ] ] ] } },
{ "type": "Feature", "properties": { "cell_id": "86658b49fffffff", "resolution": 6, "type": "h3" }, "geometry": { "type": "Polygon", "coordinates": [ [ [ 100.603207517957657, 13.608598878204907 ], [ 100.569112441753234, 13.593333332903057 ], [ 100.538325266010517, 13.614486465498175 ], [ 100.541633664497198, 13.650908308371211 ], [ 100.575735955994972, 13.666173613922066 ], [ 100.606522630831847, 13.645017312544473 ], [ 100.603207517957657, 13.608598878204907 ] ] ] } },
{ "type": "Feature", "properties": { "cell_id": "8664a4b27ffffff", "resolution": 6, "type": "h3" }, "geometry": { "type": "Polygon", "coordinates": [ [ [ 100.538325266010517, 13.614486465498175 ], [ 100.504226936362414, 13.59921127577682 ], [ 100.473429828464305, 13.620358143121072 ], [ 100.476731501275395, 13.656783349949592 ], [ 100.510837010529713, 13.672058329292598 ], [ 100.541633664497198, 13.650908308371211 ], [ 100.538325266010517, 13.614486465498175 ] ] ] } },
{ "type": "Feature", "properties": { "cell_id": "8664a4b2fffffff", "resolution": 6, "type": "h3" }, "geometry": { "type": "Polygon", "coordinates": [ [ [ 100.473429828464305, 13.620358143121072 ], [ 100.439328332245637, 13.605073316162638 ], [ 100.408521367854505, 13.626213880873225 ], [ 100.411816303747273, 13.662642407041609 ], [ 100.445924943807654, 13.677927052981476 ], [ 100.476731501275395, 13.656783349949592 ], [ 100.473429828464305, 13.620358143121072 ] ] ] } },
{ "type": "Feature", "properties": { "cell_id": "8664a4b37ffffff", "resolution": 6, "type": "h3" }, "geometry": { "type": "Polygon", "coordinates": [ [ [ 100.575735955994972, 13.666173613922066 ], [ 100.541633664497198, 13.650908308371211 ], [ 100.510837010529713, 13.672058329292598 ], [ 100.514143126362114, 13.708476796367078 ], [ 100.548252620510169, 13.723741861073274 ], [ 100.579048793298, 13.702588695737779 ], [ 100.575735955994972, 13.666173613922066 ] ] ] } },
{ "type": "Feature", "properties": { "cell_id": "8664a4b07ffffff", "resolution": 6, "type": "h3" }, "geometry": { "type": "Polygon", "coordinates": [ [ [ 100.510837010529713, 13.672058329292598 ], [ 100.476731501275395, 13.656783349949592 ], [ 100.445924943807654, 13.677927052981476 ], [ 100.44922432689475, 13.714348860736067 ], [ 100.483337003061067, 13.729623628598294 ], [ 100.514143126362114, 13.708476796367078 ], [ 100.510837010529713, 13.672058329292598 ] ] ] } },
{ "type": "Feature", "properties": { "cell_id": "8664a4b0fffffff", "resolution": 6, "type": "h3" }, "geometry": { "type": "Polygon", "coordinates": [ [ [ 100.445924943807654, 13.677927052981476 ], [ 100.411816303747273, 13.662642407041609 ], [ 100.380999918532225, 13.683779754813669 ], [ 100.384292557644798, 13.720204858632334 ], [ 100.418408328801718, 13.735489322442168 ], [ 100.44922432689475, 13.714348860736067 ], [ 100.445924943807654, 13.677927052981476 ] ] ] } },
{ "type": "Feature", "properties": { "cell_id": "8664a484fffffff", "resolution": 6, "type": "h3" }, "geometry": { "type": "Polygon", "coordinates": [ [ [ 100.613155018477414, 13.717844050180343 ], [ 100.579048793298, 13.702588695737779 ], [ 100.548252620510169, 13.723741861073274 ], [ 100.551563178461947, 13.760153512277629 ], [ 100.585676629332212, 13.77540859543662 ], [ 100.616472293674306, 13.754252294865317 ], [ 100.613155018477414, 13.717844050180343 ] ] ] } },
{ "type": "Feature", "properties": { "cell_id": "8664a4b17ffffff", "resolution": 6, "type": "h3" }, "geometry": { "type": "Polygon", "coordinates": [ [ [ 100.548252620510169, 13.723741861073274 ], [ 100.514143126362114, 13.708476796367078 ], [ 100.483337003061067, 13.729623628598294 ], [ 100.486640832461134, 13.76603864178068 ], [ 100.520757516588176, 13.781303464571142 ], [ 100.551563178461947, 13.760153512277629 ], [ 100.548252620510169, 13.723741861073274 ] ] ] } },
{ "type": "Feature", "properties": { "cell_id": "8664a4b77ffffff", "resolution": 6, "type": "h3" }, "geometry": { "type": "Polygon", "coordinates": [ [ [ 100.408521367854505, 13.626213880873225 ], [ 100.374416792015467, 13.610919423960263 ], [ 100.34360004691554, 13.632053648717305 ], [ 100.346888234692798, 13.668485449572765 ], [ 100.380999918532225, 13.683779754813669 ], [ 100.411816303747273, 13.662642407041609 ], [ 100.408521367854505, 13.626213880873225 ] ] ] } },
{ "type": "Feature", "properties": { "cell_id": "8664a4b47ffffff", "resolution": 6, "type": "h3" }, "geometry": { "type": "Polygon", "coordinates": [ [ [ 100.34360004691554, 13.632053648717305 ], [ 100.309492478482042, 13.616749569232612 ], [ 100.2786660285784, 13.637877416779698 ], [ 100.281947457088791, 13.674312447632778 ], [ 100.316062097604956, 13.689616404778244 ], [ 100.346888234692798, 13.668485449572765 ], [ 100.34360004691554, 13.632053648717305 ] ] ] } },
{ "type": "Feature", "properties": { "cell_id": "8664a4b57ffffff", "resolution": 6, "type": "h3" }, "geometry": { "type": "Polygon", "coordinates": [ [ [ 100.380999918532225, 13.683779754813669 ], [ 100.346888234692798, 13.668485449572765 ], [ 100.316062097604956, 13.689616404778244 ], [ 100.319347981559517, 13.726044760008048 ], [ 100.353466760603254, 13.74133891245611 ], [ 100.384292557644798, 13.720204858632334 ], [ 100.380999918532225, 13.683779754813669 ] ] ] } },
{ "type": "Feature", "properties": { "cell_id": "8664a4a27ffffff", "resolution": 6, "type": "h3" }, "geometry": { "type": "Polygon", "coordinates": [ [ [ 100.418408328801718, 13.735489322442168 ], [ 100.384292557644798, 13.720204858632334 ], [ 100.353466760603254, 13.74133891245611 ], [ 100.356757099161882, 13.777760515820571 ], [ 100.39087998864197, 13.793044796410914 ], [ 100.421705418388868, 13.77190765302363 ], [ 100.418408328801718, 13.735489322442168 ] ] ] } },
{ "type": "Feature", "properties": { "cell_id": "8664a4a2fffffff", "resolution": 6, "type": "h3" }, "geometry": { "type": "Polygon", "coordinates": [ [ [ 100.353466760603254, 13.74133891245611 ], [ 100.319347981559517, 13.726044760008048 ], [ 100.288512461534111, 13.747172368656519 ], [ 100.291796037894386, 13.783597200151247 ], [ 100.325921899318331, 13.798891198707423 ], [ 100.356757099161882, 13.777760515820571 ], [ 100.353466760603254, 13.74133891245611 ] ] ] } },
{ "type": "Feature", "properties": { "cell_id": "8664a4b1fffffff", "resolution": 6, "type": "h3" }, "geometry": { "type": "Polygon", "coordinates": [ [ [ 100.483337003061067, 13.729623628598294 ], [ 100.44922432689475, 13.714348860736067 ], [ 100.418408328801718, 13.735489322442168 ], [ 100.421705418388868, 13.77190765302363 ], [ 100.455825248744802, 13.787182208324953 ], [ 100.486640832461134, 13.76603864178068 ], [ 100.483337003061067, 13.729623628598294 ] ] ] } },
{ "type": "Feature", "properties": { "cell_id": "8664a4ba7ffffff", "resolution": 6, "type": "h3" }, "geometry": { "type": "Polygon", "coordinates": [ [ [ 100.585676629332212, 13.77540859543662 ], [ 100.551563178461947, 13.760153512277629 ], [ 100.520757516588176, 13.781303464571142 ], [ 100.52406579140758, 13.817711607118861 ], [ 100.558186455320509, 13.832966417954839 ], [ 100.588991628489154, 13.8118133547511 ], [ 100.585676629332212, 13.77540859543662 ] ] ] } },
{ "type": "Feature", "properties": { "cell_id": "8664a4bafffffff", "resolution": 6, "type": "h3" }, "geometry": { "type": "Polygon", "coordinates": [ [ [ 100.520757516588176, 13.781303464571142 ], [ 100.486640832461134, 13.76603864178068 ], [ 100.455825248744802, 13.787182208324953 ], [ 100.459126787933471, 13.823593689564374 ], [ 100.493250649340069, 13.838858269390597 ], [ 100.52406579140758, 13.817711607118861 ], [ 100.520757516588176, 13.781303464571142 ] ] ] } },
{ "type": "Feature", "properties": { "cell_id": "8664a4a37ffffff", "resolution": 6, "type": "h3" }, "geometry": { "type": "Polygon", "coordinates": [ [ [ 100.455825248744802, 13.787182208324953 ], [ 100.421705418388868, 13.77190765302363 ], [ 100.39087998864197, 13.793044796410914 ], [ 100.394174780952213, 13.829459571763159 ], [ 100.428301752747231, 13.844733913445733 ], [ 100.459126787933471, 13.823593689564374 ], [ 100.455825248744802, 13.787182208324953 ] ] ] } },
{ "type": "Feature", "properties": { "cell_id": "8664a4b87ffffff", "resolution": 6, "type": "h3" }, "geometry": { "type": "Polygon", "coordinates": [ [ [ 100.558186455320509, 13.832966417954839 ], [ 100.52406579140758, 13.817711607118861 ], [ 100.493250649340069, 13.838858269390597 ], [ 100.496556637244851, 13.87526282527975 ], [ 100.530684501523979, 13.890517362776095 ], [ 100.561499174653235, 13.869367613902414 ], [ 100.558186455320509, 13.832966417954839 ] ] ] } },
{ "type": "Feature", "properties": { "cell_id": "8664a4b8fffffff", "resolution": 6, "type": "h3" }, "geometry": { "type": "Polygon", "coordinates": [ [ [ 100.493250649340069, 13.838858269390597 ], [ 100.459126787933471, 13.823593689564374 ], [ 100.428301752747231, 13.844733913445733 ], [ 100.431600997944358, 13.881141784735124 ], [ 100.465732023902873, 13.896406120571138 ], [ 100.496556637244851, 13.87526282527975 ], [ 100.493250649340069, 13.838858269390597 ] ] ] } },
{ "type": "Feature", "properties": { "cell_id": "8664a4b97ffffff", "resolution": 6, "type": "h3" }, "geometry": { "type": "Polygon", "coordinates": [ [ [ 100.595623790147641, 13.884612346013585 ], [ 100.561499174653235, 13.869367613902414 ], [ 100.530684501523979, 13.890517362776095 ], [ 100.533994937247158, 13.926914917404387 ], [ 100.56812677619105, 13.942159345828891 ], [ 100.59894095307537, 13.92100651949354 ], [ 100.595623790147641, 13.884612346013585 ] ] ] } },
{ "type": "Feature", "properties": { "cell_id": "8664a4b9fffffff", "resolution": 6, "type": "h3" }, "geometry": { "type": "Polygon", "coordinates": [ [ [ 100.530684501523979, 13.890517362776095 ], [ 100.496556637244851, 13.87526282527975 ], [ 100.465732023902873, 13.896406120571138 ], [ 100.469035721109776, 13.932807011844279 ], [ 100.503170773050471, 13.948061275007177 ], [ 100.533994937247158, 13.926914917404387 ], [ 100.530684501523979, 13.890517362776095 ] ] ] } },
{ "type": "Feature", "properties": { "cell_id": "8664a4aa7ffffff", "resolution": 6, "type": "h3" }, "geometry": { "type": "Polygon", "coordinates": [ [ [ 100.465732023902873, 13.896406120571138 ], [ 100.431600997944358, 13.881141784735124 ], [ 100.400766520260774, 13.902278588999563 ], [ 100.404063467685177, 13.938682772376769 ], [ 100.43820164543979, 13.953946863219127 ], [ 100.469035721109776, 13.932807011844279 ], [ 100.465732023902873, 13.896406120571138 ] ] ] } },
{ "type": "Feature", "properties": { "cell_id": "8664a416fffffff", "resolution": 6, "type": "h3" }, "geometry": { "type": "Polygon", "coordinates": [ [ [ 100.56812677619105, 13.942159345828891 ], [ 100.533994937247158, 13.926914917404387 ], [ 100.503170773050471, 13.948061275007177 ], [ 100.506478921377678, 13.984455110408966 ], [ 100.540617971089446, 13.999699234185412 ], [ 100.57144165882255, 13.978549823384366 ], [ 100.56812677619105, 13.942159345828891 ] ] ] } },
{ "type": "Feature", "properties": { "cell_id": "8664a4a07ffffff", "resolution": 6, "type": "h3" }, "geometry": { "type": "Polygon", "coordinates": [ [ [ 100.39087998864197, 13.793044796410914 ], [ 100.356757099161882, 13.777760515820571 ], [ 100.325921899318331, 13.798891198707423 ], [ 100.329209933548213, 13.83530922355674 ], [ 100.363339928550005, 13.850593319860142 ], [ 100.394174780952213, 13.829459571763159 ], [ 100.39087998864197, 13.793044796410914 ] ] ] } },
{ "type": "Feature", "properties": { "cell_id": "8664a4a0fffffff", "resolution": 6, "type": "h3" }, "geometry": { "type": "Polygon", "coordinates": [ [ [ 100.325921899318331, 13.798891198707423 ], [ 100.291796037894386, 13.783597200151247 ], [ 100.260951144008843, 13.804721385259114 ], [ 100.264232409002318, 13.841142614953363 ], [ 100.298365339954216, 13.856436458540301 ], [ 100.329209933548213, 13.83530922355674 ], [ 100.325921899318331, 13.798891198707423 ] ] ] } },
{ "type": "Feature", "properties": { "cell_id": "8664a4a17ffffff", "resolution": 6, "type": "h3" }, "geometry": { "type": "Polygon", "coordinates": [ [ [ 100.428301752747231, 13.844733913445733 ], [ 100.394174780952213, 13.829459571763159 ], [ 100.363339928550005, 13.850593319860142 ], [ 100.36663241980537, 13.887004461971323 ], [ 100.400766520260774, 13.902278588999563 ], [ 100.431600997944358, 13.881141784735124 ], [ 100.428301752747231, 13.844733913445733 ] ] ] } },
{ "type": "Feature", "properties": { "cell_id": "8664a4a1fffffff", "resolution": 6, "type": "h3" }, "geometry": { "type": "Polygon", "coordinates": [ [ [ 100.363339928550005, 13.850593319860142 ], [ 100.329209933548213, 13.83530922355674 ], [ 100.298365339954216, 13.856436458540301 ], [ 100.301651066079586, 13.892850826858224 ], [ 100.335788153773507, 13.908134737829199 ], [ 100.36663241980537, 13.887004461971323 ], [ 100.363339928550005, 13.850593319860142 ] ] ] } },
{ "type": "Feature", "properties": { "cell_id": "8664a4ae7ffffff", "resolution": 6, "type": "h3" }, "geometry": { "type": "Polygon", "coordinates": [ [ [ 100.298365339954216, 13.856436458540301 ], [ 100.264232409002318, 13.841142614953363 ], [ 100.233378150361176, 13.862263299560016 ], [ 100.23665710021433, 13.898680849433489 ], [ 100.270797087813875, 13.913974536995546 ], [ 100.301651066079586, 13.892850826858224 ], [ 100.298365339954216, 13.856436458540301 ] ] ] } },
{ "type": "Feature", "properties": { "cell_id": "8664a4aafffffff", "resolution": 6, "type": "h3" }, "geometry": { "type": "Polygon", "coordinates": [ [ [ 100.400766520260774, 13.902278588999563 ], [ 100.36663241980537, 13.887004461971323 ], [ 100.335788153773507, 13.908134737829199 ], [ 100.339078340195002, 13.944542168732836 ], [ 100.37321955650394, 13.959816080093386 ], [ 100.404063467685177, 13.938682772376769 ], [ 100.400766520260774, 13.902278588999563 ] ] ] } },
{ "type": "Feature", "properties": { "cell_id": "8664a4af7ffffff", "resolution": 6, "type": "h3" }, "geometry": { "type": "Polygon", "coordinates": [ [ [ 100.335788153773507, 13.908134737829199 ], [ 100.301651066079586, 13.892850826858224 ], [ 100.270797087813875, 13.913974536995546 ], [ 100.274080502057956, 13.95038517081163 ], [ 100.308224669586309, 13.965668895426642 ], [ 100.339078340195002, 13.944542168732836 ], [ 100.335788153773507, 13.908134737829199 ] ] ] } },
{ "type": "Feature", "properties": { "cell_id": "8664a4ac7ffffff", "resolution": 6, "type": "h3" }, "geometry": { "type": "Polygon", "coordinates": [ [ [ 100.270797087813875, 13.913974536995546 ], [ 100.23665710021433, 13.898680849433489 ], [ 100.205793485949229, 13.91979795660248 ], [ 100.209070116887631, 13.956211748681152 ], [ 100.243217148226378, 13.971505279184328 ], [ 100.274080502057956, 13.95038517081163 ], [ 100.270797087813875, 13.913974536995546 ] ] ] } },
{ "type": "Feature", "properties": { "cell_id": "8664a4a8fffffff", "resolution": 6, "type": "h3" }, "geometry": { "type": "Polygon", "coordinates": [ [ [ 100.37321955650394, 13.959816080093386 ], [ 100.339078340195002, 13.944542168732836 ], [ 100.308224669586309, 13.965668895426642 ], [ 100.311512547393917, 14.002072537202745 ], [ 100.345660866721374, 14.017346231904458 ], [ 100.376514202373443, 13.996216497642301 ], [ 100.37321955650394, 13.959816080093386 ] ] ] } },
{ "type": "Feature", "properties": { "cell_id": "8664a4ad7ffffff", "resolution": 6, "type": "h3" }, "geometry": { "type": "Polygon", "coordinates": [ [ [ 100.308224669586309, 13.965668895426642 ], [ 100.274080502057956, 13.95038517081163 ], [ 100.243217148226378, 13.971505279184328 ], [ 100.24649824681147, 14.007912100575068 ], [ 100.280649481288378, 14.023195637832499 ], [ 100.311512547393917, 14.002072537202745 ], [ 100.308224669586309, 13.965668895426642 ] ] ] } },
{ "type": "Feature", "properties": { "cell_id": "8664a4a9fffffff", "resolution": 6, "type": "h3" }, "geometry": { "type": "Polygon", "coordinates": [ [ [ 100.410659519140097, 14.011480342510055 ], [ 100.376514202373443, 13.996216497642301 ], [ 100.345660866721374, 14.017346231904458 ], [ 100.348953207252762, 14.053742805756157 ], [ 100.383105650219221, 14.069006403690818 ], [ 100.413958623597139, 14.047873670862366 ], [ 100.410659519140097, 14.011480342510055 ] ] ] } },
{ "type": "Feature", "properties": { "cell_id": "8664a4327ffffff", "resolution": 6, "type": "h3" }, "geometry": { "type": "Polygon", "coordinates": [ [ [ 100.345660866721374, 14.017346231904458 ], [ 100.311512547393917, 14.002072537202745 ], [ 100.280649481288378, 14.023195637832499 ], [ 100.283935046701146, 14.05959541260869 ], [ 100.31809045618391, 14.074868889682607 ], [ 100.348953207252762, 14.053742805756157 ], [ 100.345660866721374, 14.017346231904458 ] ] ] } },
{ "type": "Feature", "properties": { "cell_id": "8664a432fffffff", "resolution": 6, "type": "h3" }, "geometry": { "type": "Polygon", "coordinates": [ [ [ 100.280649481288378, 14.023195637832499 ], [ 100.24649824681147, 14.007912100575068 ], [ 100.215625526547015, 14.029028530290471 ], [ 100.218904305694423, 14.065431461380417 ], [ 100.253062594205886, 14.080714810300556 ], [ 100.283935046701146, 14.05959541260869 ], [ 100.280649481288378, 14.023195637832499 ] ] ] } },
{ "type": "Feature", "properties": { "cell_id": "8664a4337ffffff", "resolution": 6, "type": "h3" }, "geometry": { "type": "Polygon", "coordinates": [ [ [ 100.383105650219221, 14.069006403690818 ], [ 100.348953207252762, 14.053742805756157 ], [ 100.31809045618391, 14.074868889682607 ], [ 100.321380487592975, 14.111261542016443 ], [ 100.355540043918779, 14.126524892081974 ], [ 100.386402452622249, 14.10539583383288 ], [ 100.383105650219221, 14.069006403690818 ] ] ] } },
{ "type": "Feature", "properties": { "cell_id": "8664a4307ffffff", "resolution": 6, "type": "h3" }, "geometry": { "type": "Polygon", "coordinates": [ [ [ 100.31809045618391, 14.074868889682607 ], [ 100.283935046701146, 14.05959541260869 ], [ 100.253062594205886, 14.080714810300556 ], [ 100.256345843441878, 14.117110640253189 ], [ 100.290508330188572, 14.132383898752506 ], [ 100.321380487592975, 14.111261542016443 ], [ 100.31809045618391, 14.074868889682607 ] ] ] } },
{ "type": "Feature", "properties": { "cell_id": "8664a404fffffff", "resolution": 6, "type": "h3" }, "geometry": { "type": "Polygon", "coordinates": [ [ [ 100.420558991037353, 14.12064926826022 ], [ 100.386402452622249, 14.10539583383288 ], [ 100.355540043918779, 14.126524892081974 ], [ 100.358834540480373, 14.162910346245488 ], [ 100.392998215456032, 14.178163502591666 ], [ 100.423860254447519, 14.157031479007625 ], [ 100.420558991037353, 14.12064926826022 ] ] ] } },
{ "type": "Feature", "properties": { "cell_id": "8664a4317ffffff", "resolution": 6, "type": "h3" }, "geometry": { "type": "Polygon", "coordinates": [ [ [ 100.355540043918779, 14.126524892081974 ], [ 100.321380487592975, 14.111261542016443 ], [ 100.290508330188572, 14.132383898752506 ], [ 100.293796048690112, 14.168772551797245 ], [ 100.327962705506593, 14.184035653080025 ], [ 100.358834540480373, 14.162910346245488 ], [ 100.355540043918779, 14.126524892081974 ] ] ] } },
{ "type": "Feature", "properties": { "cell_id": "8664a431fffffff", "resolution": 6, "type": "h3" }, "geometry": { "type": "Polygon", "coordinates": [ [ [ 100.290508330188572, 14.132383898752506 ], [ 100.256345843441878, 14.117110640253189 ], [ 100.225464013691266, 14.138226258160598 ], [ 100.228744942967523, 14.17461806551589 ], [ 100.262914494058592, 14.189891104515928 ], [ 100.293796048690112, 14.168772551797245 ], [ 100.290508330188572, 14.132383898752506 ] ] ] } },
{ "type": "Feature", "properties": { "cell_id": "86658b4e7ffffff", "resolution": 6, "type": "h3" }, "geometry": { "type": "Polygon", "coordinates": [ [ [ 100.491015412065209, 13.453477513134658 ], [ 100.456932236722949, 13.438182608147869 ], [ 100.426143721618232, 13.459326179325711 ], [ 100.429438798244163, 13.495767847978604 ], [ 100.463529119806552, 13.511062604786298 ], [ 100.494317215666044, 13.48991583730662 ], [ 100.491015412065209, 13.453477513134658 ] ] ] } },
{ "type": "Feature", "properties": { "cell_id": "86658b4afffffff", "resolution": 6, "type": "h3" }, "geometry": { "type": "Polygon", "coordinates": [ [ [ 100.593266500577613, 13.499323665108109 ], [ 100.559182568112107, 13.484048058026664 ], [ 100.528404386077952, 13.505201022879604 ], [ 100.531710627013425, 13.541632793391587 ], [ 100.565801764389207, 13.556908192366537 ], [ 100.596579453043077, 13.535752025132627 ], [ 100.593266500577613, 13.499323665108109 ] ] ] } },
{ "type": "Feature", "properties": { "cell_id": "86658b4f7ffffff", "resolution": 6, "type": "h3" }, "geometry": { "type": "Polygon", "coordinates": [ [ [ 100.528404386077952, 13.505201022879604 ], [ 100.494317215666044, 13.48991583730662 ], [ 100.463529119806552, 13.511062604786298 ], [ 100.466828637942413, 13.547497741172059 ], [ 100.500922977602215, 13.56278274801555 ], [ 100.531710627013425, 13.541632793391587 ], [ 100.528404386077952, 13.505201022879604 ] ] ] } },
{ "type": "Feature", "properties": { "cell_id": "86658b4c7ffffff", "resolution": 6, "type": "h3" }, "geometry": { "type": "Polygon", "coordinates": [ [ [ 100.463529119806552, 13.511062604786298 ], [ 100.429438798244163, 13.495767847978604 ], [ 100.398640864162843, 13.516908380740791 ], [ 100.401933648274806, 13.553346838348975 ], [ 100.436031103345456, 13.568641445791457 ], [ 100.466828637942413, 13.547497741172059 ], [ 100.463529119806552, 13.511062604786298 ] ] ] } },
{ "type": "Feature", "properties": { "cell_id": "86658b48fffffff", "resolution": 6, "type": "h3" }, "geometry": { "type": "Polygon", "coordinates": [ [ [ 100.565801764389207, 13.556908192366537 ], [ 100.531710627013425, 13.541632793391587 ], [ 100.500922977602215, 13.56278274801555 ], [ 100.504226936362414, 13.59921127577682 ], [ 100.538325266010517, 13.614486465498175 ], [ 100.569112441753234, 13.593333332903057 ], [ 100.565801764389207, 13.556908192366537 ] ] ] } },
{ "type": "Feature", "properties": { "cell_id": "86658a2c7ffffff", "resolution": 6, "type": "h3" }, "geometry": { "type": "Polygon", "coordinates": [ [ [ 100.917374126696885, 13.4697013025604 ], [ 100.883307683127583, 13.45447369331708 ], [ 100.852580199942253, 13.475657082738486 ], [ 100.855919884932476, 13.512071355446347 ], [ 100.88999371054939, 13.527298609521511 ], [ 100.92072046619657, 13.506111942294067 ], [ 100.917374126696885, 13.4697013025604 ] ] ] } },
{ "type": "Feature", "properties": { "cell_id": "86658a2cfffffff", "resolution": 6, "type": "h3" }, "geometry": { "type": "Polygon", "coordinates": [ [ [ 100.852580199942253, 13.475657082738486 ], [ 100.818510085642544, 13.460419860206887 ], [ 100.787772312475568, 13.481597239887961 ], [ 100.791105331463271, 13.518015101151811 ], [ 100.825182792541355, 13.533251997949778 ], [ 100.855919884932476, 13.512071355446347 ], [ 100.852580199942253, 13.475657082738486 ] ] ] } },
{ "type": "Feature", "properties": { "cell_id": "86658a2d7ffffff", "resolution": 6, "type": "h3" }, "geometry": { "type": "Polygon", "coordinates": [ [ [ 100.954790569963535, 13.521329546973433 ], [ 100.92072046619657, 13.506111942294067 ], [ 100.88999371054939, 13.527298609521511 ], [ 100.893337810513628, 13.563706146054528 ], [ 100.927415319188881, 13.578923365018914 ], [ 100.958141320051837, 13.557733429405015 ], [ 100.954790569963535, 13.521329546973433 ] ] ] } },
{ "type": "Feature", "properties": { "cell_id": "86658a2dfffffff", "resolution": 6, "type": "h3" }, "geometry": { "type": "Polygon", "coordinates": [ [ [ 100.88999371054939, 13.527298609521511 ], [ 100.855919884932476, 13.512071355446347 ], [ 100.825182792541355, 13.533251997949778 ], [ 100.828520230857109, 13.569663144203867 ], [ 100.862601426141197, 13.584890042002019 ], [ 100.893337810513628, 13.563706146054528 ], [ 100.88999371054939, 13.527298609521511 ] ] ] } },
{ "type": "Feature", "properties": { "cell_id": "8664a4967ffffff", "resolution": 6, "type": "h3" }, "geometry": { "type": "Polygon", "coordinates": [ [ [ 100.825182792541355, 13.533251997949778 ], [ 100.791105331463271, 13.518015101151811 ], [ 100.760357977272434, 13.539189681234321 ], [ 100.763688742459408, 13.575604392788843 ], [ 100.797773537883657, 13.590840962737222 ], [ 100.828520230857109, 13.569663144203867 ], [ 100.825182792541355, 13.533251997949778 ] ] ] } },
{ "type": "Feature", "properties": { "cell_id": "8664a492fffffff", "resolution": 6, "type": "h3" }, "geometry": { "type": "Polygon", "coordinates": [ [ [ 100.927415319188881, 13.578923365018914 ], [ 100.893337810513628, 13.563706146054528 ], [ 100.862601426141197, 13.584890042002019 ], [ 100.865943282784812, 13.621294397197207 ], [ 100.900028184011575, 13.636511229368637 ], [ 100.93076383310661, 13.615324089371882 ], [ 100.927415319188881, 13.578923365018914 ] ] ] } },
{ "type": "Feature", "properties": { "cell_id": "8664a4977ffffff", "resolution": 6, "type": "h3" }, "geometry": { "type": "Polygon", "coordinates": [ [ [ 100.862601426141197, 13.584890042002019 ], [ 100.828520230857109, 13.569663144203867 ], [ 100.797773537883657, 13.590840962737222 ], [ 100.801108725741443, 13.627248904391951 ], [ 100.835197278284056, 13.642475444828012 ], [ 100.865943282784812, 13.621294397197207 ], [ 100.862601426141197, 13.584890042002019 ] ] ] } },
{ "type": "Feature", "properties": { "cell_id": "86658b597ffffff", "resolution": 6, "type": "h3" }, "geometry": { "type": "Polygon", "coordinates": [ [ [ 100.787772312475568, 13.481597239887961 ], [ 100.753698613838552, 13.466350410829509 ], [ 100.722950625669469, 13.487521743124072 ], [ 100.726276967205862, 13.523943148485666 ], [ 100.760357977272434, 13.539189681234321 ], [ 100.791105331463271, 13.518015101151811 ], [ 100.787772312475568, 13.481597239887961 ] ] ] } },
{ "type": "Feature", "properties": { "cell_id": "86658b59fffffff", "resolution": 6, "type": "h3" }, "geometry": { "type": "Polygon", "coordinates": [ [ [ 100.722950625669469, 13.487521743124072 ], [ 100.68887342917138, 13.472265314399037 ], [ 100.658115301106704, 13.493430561720107 ], [ 100.661434953787435, 13.529855466681623 ], [ 100.695519426287149, 13.5451116285096 ], [ 100.726276967205862, 13.523943148485666 ], [ 100.722950625669469, 13.487521743124072 ] ] ] } },
{ "type": "Feature", "properties": { "cell_id": "86658b4a7ffffff", "resolution": 6, "type": "h3" }, "geometry": { "type": "Polygon", "coordinates": [ [ [ 100.658115301106704, 13.493430561720107 ], [ 100.624034693305575, 13.478164540287711 ], [ 100.593266500577613, 13.499323665108109 ], [ 100.596579453043077, 13.535752025132627 ], [ 100.630667301339216, 13.551017809069204 ], [ 100.661434953787435, 13.529855466681623 ], [ 100.658115301106704, 13.493430561720107 ] ] ] } },
{ "type": "Feature", "properties": { "cell_id": "8664a496fffffff", "resolution": 6, "type": "h3" }, "geometry": { "type": "Polygon", "coordinates": [ [ [ 100.760357977272434, 13.539189681234321 ], [ 100.726276967205862, 13.523943148485666 ], [ 100.695519426287149, 13.5451116285096 ], [ 100.698843506909483, 13.581529860904144 ], [ 100.732931815921717, 13.596776096219667 ], [ 100.763688742459408, 13.575604392788843 ], [ 100.760357977272434, 13.539189681234321 ] ] ] } },
{ "type": "Feature", "properties": { "cell_id": "86658b4b7ffffff", "resolution": 6, "type": "h3" }, "geometry": { "type": "Polygon", "coordinates": [ [ [ 100.695519426287149, 13.5451116285096 ], [ 100.661434953787435, 13.529855466681623 ], [ 100.630667301339216, 13.551017809069204 ], [ 100.633984686005618, 13.587439517804027 ], [ 100.668076421971548, 13.602695411603966 ], [ 100.698843506909483, 13.581529860904144 ], [ 100.695519426287149, 13.5451116285096 ] ] ] } },
{ "type": "Feature", "properties": { "cell_id": "86658b487ffffff", "resolution": 6, "type": "h3" }, "geometry": { "type": "Polygon", "coordinates": [ [ [ 100.630667301339216, 13.551017809069204 ], [ 100.596579453043077, 13.535752025132627 ], [ 100.565801764389207, 13.556908192366537 ], [ 100.569112441753234, 13.593333332903057 ], [ 100.603207517957657, 13.608598878204907 ], [ 100.633984686005618, 13.587439517804027 ], [ 100.630667301339216, 13.551017809069204 ] ] ] } },
{ "type": "Feature", "properties": { "cell_id": "8664a4947ffffff", "resolution": 6, "type": "h3" }, "geometry": { "type": "Polygon", "coordinates": [ [ [ 100.797773537883657, 13.590840962737222 ], [ 100.763688742459408, 13.575604392788843 ], [ 100.732931815921717, 13.596776096219667 ], [ 100.736260323526309, 13.633187579911256 ], [ 100.770352440836248, 13.648423821917572 ], [ 100.801108725741443, 13.627248904391951 ], [ 100.797773537883657, 13.590840962737222 ] ] ] } },
{ "type": "Feature", "properties": { "cell_id": "8664a494fffffff", "resolution": 6, "type": "h3" }, "geometry": { "type": "Polygon", "coordinates": [ [ [ 100.732931815921717, 13.596776096219667 ], [ 100.698843506909483, 13.581529860904144 ], [ 100.668076421971548, 13.602695411603966 ], [ 100.671398237900036, 13.639110392870187 ], [ 100.705493833345855, 13.654356329652453 ], [ 100.736260323526309, 13.633187579911256 ], [ 100.732931815921717, 13.596776096219667 ] ] ] } },
{ "type": "Feature", "properties": { "cell_id": "86658b497ffffff", "resolution": 6, "type": "h3" }, "geometry": { "type": "Polygon", "coordinates": [ [ [ 100.668076421971548, 13.602695411603966 ], [ 100.633984686005618, 13.587439517804027 ], [ 100.603207517957657, 13.608598878204907 ], [ 100.606522630831847, 13.645017312544473 ], [ 100.640621617700404, 13.660272937208314 ], [ 100.671398237900036, 13.639110392870187 ], [ 100.668076421971548, 13.602695411603966 ] ] ] } },
{ "type": "Feature", "properties": { "cell_id": "8664a495fffffff", "resolution": 6, "type": "h3" }, "geometry": { "type": "Polygon", "coordinates": [ [ [ 100.770352440836248, 13.648423821917572 ], [ 100.736260323526309, 13.633187579911256 ], [ 100.705493833345855, 13.654356329652453 ], [ 100.708820079585237, 13.690764507366572 ], [ 100.742919506292154, 13.706000420361818 ], [ 100.773685374451475, 13.684828480865999 ], [ 100.770352440836248, 13.648423821917572 ] ] ] } },
{ "type": "Feature", "properties": { "cell_id": "8664a4867ffffff", "resolution": 6, "type": "h3" }, "geometry": { "type": "Polygon", "coordinates": [ [ [ 100.705493833345855, 13.654356329652453 ], [ 100.671398237900036, 13.639110392870187 ], [ 100.640621617700404, 13.660272937208314 ], [ 100.643941165154132, 13.696684589224459 ], [ 100.678044034493183, 13.711930226396511 ], [ 100.708820079585237, 13.690764507366572 ], [ 100.705493833345855, 13.654356329652453 ] ] ] } },
{ "type": "Feature", "properties": { "cell_id": "8664a486fffffff", "resolution": 6, "type": "h3" }, "geometry": { "type": "Polygon", "coordinates": [ [ [ 100.640621617700404, 13.660272937208314 ], [ 100.606522630831847, 13.645017312544473 ], [ 100.575735955994972, 13.666173613922066 ], [ 100.579048793298, 13.702588695737779 ], [ 100.613155018477414, 13.717844050180343 ], [ 100.643941165154132, 13.696684589224459 ], [ 100.640621617700404, 13.660272937208314 ] ] ] } },
{ "type": "Feature", "properties": { "cell_id": "8664a482fffffff", "resolution": 6, "type": "h3" }, "geometry": { "type": "Polygon", "coordinates": [ [ [ 100.807781271815614, 13.70005466287863 ], [ 100.773685374451475, 13.684828480865999 ], [ 100.742919506292154, 13.706000420361818 ], [ 100.746250181878978, 13.742401718536758 ], [ 100.780353411599407, 13.75762754108834 ], [ 100.811118630457557, 13.736452421140495 ], [ 100.807781271815614, 13.70005466287863 ] ] ] } },
{ "type": "Feature", "properties": { "cell_id": "8664a4877ffffff", "resolution": 6, "type": "h3" }, "geometry": { "type": "Polygon", "coordinates": [ [ [ 100.742919506292154, 13.706000420361818 ], [ 100.708820079585237, 13.690764507366572 ], [ 100.678044034493183, 13.711930226396511 ], [ 100.681368015583416, 13.748335020058828 ], [ 100.715474739170304, 13.763570602997445 ], [ 100.746250181878978, 13.742401718536758 ], [ 100.742919506292154, 13.706000420361818 ] ] ] } },
{ "type": "Feature", "properties": { "cell_id": "8664a4847ffffff", "resolution": 6, "type": "h3" }, "geometry": { "type": "Polygon", "coordinates": [ [ [ 100.678044034493183, 13.711930226396511 ], [ 100.643941165154132, 13.696684589224459 ], [ 100.613155018477414, 13.717844050180343 ], [ 100.616472293674306, 13.754252294865317 ], [ 100.650582424338054, 13.769497631373362 ], [ 100.681368015583416, 13.748335020058828 ], [ 100.678044034493183, 13.711930226396511 ] ] ] } },
{ "type": "Feature", "properties": { "cell_id": "8664a480fffffff", "resolution": 6, "type": "h3" }, "geometry": { "type": "Polygon", "coordinates": [ [ [ 100.780353411599407, 13.75762754108834 ], [ 100.746250181878978, 13.742401718536758 ], [ 100.715474739170304, 13.763570602997445 ], [ 100.718803152941788, 13.799968462372602 ], [ 100.752913702524921, 13.815193924449231 ], [ 100.783688515557927, 13.794021883834482 ], [ 100.780353411599407, 13.75762754108834 ] ] ] } },
{ "type": "Feature", "properties": { "cell_id": "8664a4857ffffff", "resolution": 6, "type": "h3" }, "geometry": { "type": "Polygon", "coordinates": [ [ [ 100.715474739170304, 13.763570602997445 ], [ 100.681368015583416, 13.748335020058828 ], [ 100.650582424338054, 13.769497631373362 ], [ 100.653904136494035, 13.80589896295089 ], [ 100.688018144415651, 13.821134214810725 ], [ 100.718803152941788, 13.799968462372602 ], [ 100.715474739170304, 13.763570602997445 ] ] ] } },
{ "type": "Feature", "properties": { "cell_id": "8664a4907ffffff", "resolution": 6, "type": "h3" }, "geometry": { "type": "Polygon", "coordinates": [ [ [ 100.964844996553268, 13.630531206684115 ], [ 100.93076383310661, 13.615324089371882 ], [ 100.900028184011575, 13.636511229368637 ], [ 100.903374457970628, 13.672908717552319 ], [ 100.937463036848584, 13.688115417583498 ], [ 100.968197923391727, 13.666925042948714 ], [ 100.964844996553268, 13.630531206684115 ] ] ] } },
{ "type": "Feature", "properties": { "cell_id": "8664a490fffffff", "resolution": 6, "type": "h3" }, "geometry": { "type": "Polygon", "coordinates": [ [ [ 100.900028184011575, 13.636511229368637 ], [ 100.865943282784812, 13.621294397197207 ], [ 100.835197278284056, 13.642475444828012 ], [ 100.838536887820638, 13.678876540586378 ], [ 100.87262916921388, 13.69409298491091 ], [ 100.903374457970628, 13.672908717552319 ], [ 100.900028184011575, 13.636511229368637 ] ] ] } },
{ "type": "Feature", "properties": { "cell_id": "8664a4957ffffff", "resolution": 6, "type": "h3" }, "geometry": { "type": "Polygon", "coordinates": [ [ [ 100.835197278284056, 13.642475444828012 ], [ 100.801108725741443, 13.627248904391951 ], [ 100.770352440836248, 13.648423821917572 ], [ 100.773685374451475, 13.684828480865999 ], [ 100.807781271815614, 13.70005466287863 ], [ 100.838536887820638, 13.678876540586378 ], [ 100.835197278284056, 13.642475444828012 ] ] ] } },
{ "type": "Feature", "properties": { "cell_id": "8664a491fffffff", "resolution": 6, "type": "h3" }, "geometry": { "type": "Polygon", "coordinates": [ [ [ 100.937463036848584, 13.688115417583498 ], [ 100.903374457970628, 13.672908717552319 ], [ 100.87262916921388, 13.69409298491091 ], [ 100.875973199424919, 13.730487158873506 ], [ 100.910069181372776, 13.745693440601109 ], [ 100.940813727098359, 13.724505962900604 ], [ 100.937463036848584, 13.688115417583498 ] ] ] } },
{ "type": "Feature", "properties": { "cell_id": "8664a4827ffffff", "resolution": 6, "type": "h3" }, "geometry": { "type": "Polygon", "coordinates": [ [ [ 100.87262916921388, 13.69409298491091 ], [ 100.838536887820638, 13.678876540586378 ], [ 100.807781271815614, 13.70005466287863 ], [ 100.811118630457557, 13.736452421140495 ], [ 100.845218279603884, 13.751668476588197 ], [ 100.875973199424919, 13.730487158873506 ], [ 100.87262916921388, 13.69409298491091 ] ] ] } },
{ "type": "Feature", "properties": { "cell_id": "8664a4837ffffff", "resolution": 6, "type": "h3" }, "geometry": { "type": "Polygon", "coordinates": [ [ [ 100.910069181372776, 13.745693440601109 ], [ 100.875973199424919, 13.730487158873506 ], [ 100.845218279603884, 13.751668476588197 ], [ 100.848560062276334, 13.788059258317929 ], [ 100.882663434904401, 13.803265120743694 ], [ 100.913417631241643, 13.78208061696674 ], [ 100.910069181372776, 13.745693440601109 ] ] ] } },
{ "type": "Feature", "properties": { "cell_id": "8664a4807ffffff", "resolution": 6, "type": "h3" }, "geometry": { "type": "Polygon", "coordinates": [ [ [ 100.845218279603884, 13.751668476588197 ], [ 100.811118630457557, 13.736452421140495 ], [ 100.780353411599407, 13.75762754108834 ], [ 100.783688515557927, 13.794021883834482 ], [ 100.817795520015608, 13.809237549399413 ], [ 100.848560062276334, 13.788059258317929 ], [ 100.845218279603884, 13.751668476588197 ] ] ] } },
{ "type": "Feature", "properties": { "cell_id": "8664a498fffffff", "resolution": 6, "type": "h3" }, "geometry": { "type": "Polygon", "coordinates": [ [ [ 100.947517285419934, 13.797276669726783 ], [ 100.913417631241643, 13.78208061696674 ], [ 100.882663434904401, 13.803265120743694 ], [ 100.886009640598857, 13.839648850194553 ], [ 100.920116708379922, 13.854844453256565 ], [ 100.95087015391772, 13.833656772793457 ], [ 100.947517285419934, 13.797276669726783 ] ] ] } },
{ "type": "Feature", "properties": { "cell_id": "8664a4817ffffff", "resolution": 6, "type": "h3" }, "geometry": { "type": "Polygon", "coordinates": [ [ [ 100.882663434904401, 13.803265120743694 ], [ 100.848560062276334, 13.788059258317929 ], [ 100.817795520015608, 13.809237549399413 ], [ 100.821135051357743, 13.845624860925613 ], [ 100.855245802247907, 13.860830303075543 ], [ 100.886009640598857, 13.839648850194553 ], [ 100.882663434904401, 13.803265120743694 ] ] ] } },
{ "type": "Feature", "properties": { "cell_id": "8664a485fffffff", "resolution": 6, "type": "h3" }, "geometry": { "type": "Polygon", "coordinates": [ [ [ 100.650582424338054, 13.769497631373362 ], [ 100.616472293674306, 13.754252294865317 ], [ 100.585676629332212, 13.77540859543662 ], [ 100.588991628489154, 13.8118133547511 ], [ 100.623109007880757, 13.827058389564481 ], [ 100.653904136494035, 13.80589896295089 ], [ 100.650582424338054, 13.769497631373362 ] ] ] } },
{ "type": "Feature", "properties": { "cell_id": "8664a481fffffff", "resolution": 6, "type": "h3" }, "geometry": { "type": "Polygon", "coordinates": [ [ [ 100.817795520015608, 13.809237549399413 ], [ 100.783688515557927, 13.794021883834482 ], [ 100.752913702524921, 13.815193924449231 ], [ 100.75624654801004, 13.851584773702001 ], [ 100.790360895309036, 13.866800048402183 ], [ 100.821135051357743, 13.845624860925613 ], [ 100.817795520015608, 13.809237549399413 ] ] ] } },
{ "type": "Feature", "properties": { "cell_id": "8664a48e7ffffff", "resolution": 6, "type": "h3" }, "geometry": { "type": "Polygon", "coordinates": [ [ [ 100.752913702524921, 13.815193924449231 ], [ 100.718803152941788, 13.799968462372602 ], [ 100.688018144415651, 13.821134214810725 ], [ 100.691344292583651, 13.857528557401826 ], [ 100.725462149507607, 13.872753658013282 ], [ 100.75624654801004, 13.851584773702001 ], [ 100.752913702524921, 13.815193924449231 ] ] ] } },
{ "type": "Feature", "properties": { "cell_id": "8664a48efffffff", "resolution": 6, "type": "h3" }, "geometry": { "type": "Polygon", "coordinates": [ [ [ 100.688018144415651, 13.821134214810725 ], [ 100.653904136494035, 13.80589896295089 ], [ 100.623109007880757, 13.827058389564481 ], [ 100.626428447316286, 13.863456181066692 ], [ 100.660549726999065, 13.878691100849004 ], [ 100.691344292583651, 13.857528557401826 ], [ 100.688018144415651, 13.821134214810725 ] ] ] } },
{ "type": "Feature", "properties": { "cell_id": "8664a4bb7ffffff", "resolution": 6, "type": "h3" }, "geometry": { "type": "Polygon", "coordinates": [ [ [ 100.623109007880757, 13.827058389564481 ], [ 100.588991628489154, 13.8118133547511 ], [ 100.558186455320509, 13.832966417954839 ], [ 100.561499174653235, 13.869367613902414 ], [ 100.595623790147641, 13.884612346013585 ], [ 100.626428447316286, 13.863456181066692 ], [ 100.623109007880757, 13.827058389564481 ] ] ] } },
{ "type": "Feature", "properties": { "cell_id": "8664a48f7ffffff", "resolution": 6, "type": "h3" }, "geometry": { "type": "Polygon", "coordinates": [ [ [ 100.790360895309036, 13.866800048402183 ], [ 100.75624654801004, 13.851584773702001 ], [ 100.725462149507607, 13.872753658013282 ], [ 100.728792732728166, 13.90914093583773 ], [ 100.762914410370101, 13.92435581871513 ], [ 100.793698171527865, 13.903183811796453 ], [ 100.790360895309036, 13.866800048402183 ] ] ] } },
{ "type": "Feature", "properties": { "cell_id": "8664a48c7ffffff", "resolution": 6, "type": "h3" }, "geometry": { "type": "Polygon", "coordinates": [ [ [ 100.725462149507607, 13.872753658013282 ], [ 100.691344292583651, 13.857528557401826 ], [ 100.660549726999065, 13.878691100849004 ], [ 100.663873605774299, 13.915081848714918 ], [ 100.697998757488918, 13.930306586894636 ], [ 100.728792732728166, 13.90914093583773 ], [ 100.725462149507607, 13.872753658013282 ] ] ] } },
{ "type": "Feature", "properties": { "cell_id": "8664a48cfffffff", "resolution": 6, "type": "h3" }, "geometry": { "type": "Polygon", "coordinates": [ [ [ 100.660549726999065, 13.878691100849004 ], [ 100.626428447316286, 13.863456181066692 ], [ 100.595623790147641, 13.884612346013585 ], [ 100.59894095307537, 13.92100651949354 ], [ 100.633069491917482, 13.936241106222948 ], [ 100.663873605774299, 13.915081848714918 ], [ 100.660549726999065, 13.878691100849004 ] ] ] } },
{ "type": "Feature", "properties": { "cell_id": "8664a48d7ffffff", "resolution": 6, "type": "h3" }, "geometry": { "type": "Polygon", "coordinates": [ [ [ 100.762914410370101, 13.92435581871513 ], [ 100.728792732728166, 13.90914093583773 ], [ 100.697998757488918, 13.930306586894636 ], [ 100.701327074652639, 13.966690215399638 ], [ 100.735456070110729, 13.981904705520142 ], [ 100.766249427671482, 13.960735956092453 ], [ 100.762914410370101, 13.92435581871513 ] ] ] } },
{ "type": "Feature", "properties": { "cell_id": "8664a48dfffffff", "resolution": 6, "type": "h3" }, "geometry": { "type": "Polygon", "coordinates": [ [ [ 100.697998757488918, 13.930306586894636 ], [ 100.663873605774299, 13.915081848714918 ], [ 100.633069491917482, 13.936241106222948 ], [ 100.636391097509559, 13.972628181466826 ], [ 100.670523531436302, 13.987852556271871 ], [ 100.701327074652639, 13.966690215399638 ], [ 100.697998757488918, 13.930306586894636 ] ] ] } },
{ "type": "Feature", "properties": { "cell_id": "8664a48a7ffffff", "resolution": 6, "type": "h3" }, "geometry": { "type": "Polygon", "coordinates": [ [ [ 100.920116708379922, 13.854844453256565 ], [ 100.886009640598857, 13.839648850194553 ], [ 100.855245802247907, 13.860830303075543 ], [ 100.858589759973256, 13.89721050769014 ], [ 100.892704228962742, 13.912405660112329 ], [ 100.923467336075561, 13.891221054781672 ], [ 100.920116708379922, 13.854844453256565 ] ] ] } },
{ "type": "Feature", "properties": { "cell_id": "8664a48afffffff", "resolution": 6, "type": "h3" }, "geometry": { "type": "Polygon", "coordinates": [ [ [ 100.855245802247907, 13.860830303075543 ], [ 100.821135051357743, 13.845624860925613 ], [ 100.790360895309036, 13.866800048402183 ], [ 100.793698171527865, 13.903183811796453 ], [ 100.827816288233706, 13.918388832720771 ], [ 100.858589759973256, 13.89721050769014 ], [ 100.855245802247907, 13.860830303075543 ] ] ] } },
{ "type": "Feature", "properties": { "cell_id": "8664a48b7ffffff", "resolution": 6, "type": "h3" }, "geometry": { "type": "Polygon", "coordinates": [ [ [ 100.957578070652744, 13.906406332254276 ], [ 100.923467336075561, 13.891221054781672 ], [ 100.892704228962742, 13.912405660112329 ], [ 100.896052612058583, 13.948778682224175 ], [ 100.930170770785878, 13.963963478722455 ], [ 100.960933119316408, 13.942775730307632 ], [ 100.957578070652744, 13.906406332254276 ] ] ] } },
{ "type": "Feature", "properties": { "cell_id": "8664a4887ffffff", "resolution": 6, "type": "h3" }, "geometry": { "type": "Polygon", "coordinates": [ [ [ 100.892704228962742, 13.912405660112329 ], [ 100.858589759973256, 13.89721050769014 ], [ 100.827816288233706, 13.918388832720771 ], [ 100.831157994194015, 13.954765434620571 ], [ 100.865279851969134, 13.969960135485628 ], [ 100.896052612058583, 13.948778682224175 ], [ 100.892704228962742, 13.912405660112329 ] ] ] } },
{ "type": "Feature", "properties": { "cell_id": "8664a488fffffff", "resolution": 6, "type": "h3" }, "geometry": { "type": "Polygon", "coordinates": [ [ [ 100.827816288233706, 13.918388832720771 ], [ 100.793698171527865, 13.903183811796453 ], [ 100.762914410370101, 13.92435581871513 ], [ 100.766249427671482, 13.960735956092453 ], [ 100.800374897718171, 13.975940554865586 ], [ 100.831157994194015, 13.954765434620571 ], [ 100.827816288233706, 13.918388832720771 ] ] ] } },
{ "type": "Feature", "properties": { "cell_id": "8664a4897ffffff", "resolution": 6, "type": "h3" }, "geometry": { "type": "Polygon", "coordinates": [ [ [ 100.930170770785878, 13.963963478722455 ], [ 100.896052612058583, 13.948778682224175 ], [ 100.865279851969134, 13.969960135485628 ], [ 100.868625986666316, 14.006329500356127 ], [ 100.902751557144725, 14.021513814995513 ], [ 100.933523578227195, 14.000329242841905 ], [ 100.930170770785878, 13.963963478722455 ] ] ] } },
{ "type": "Feature", "properties": { "cell_id": "8664a489fffffff", "resolution": 6, "type": "h3" }, "geometry": { "type": "Polygon", "coordinates": [ [ [ 100.865279851969134, 13.969960135485628 ], [ 100.831157994194015, 13.954765434620571 ], [ 100.800374897718171, 13.975940554865586 ], [ 100.803714348116301, 14.012313476216105 ], [ 100.837843582225887, 14.027507724631189 ], [ 100.868625986666316, 14.006329500356127 ], [ 100.865279851969134, 13.969960135485628 ] ] ] } },
{ "type": "Feature", "properties": { "cell_id": "8664a4c67ffffff", "resolution": 6, "type": "h3" }, "geometry": { "type": "Polygon", "coordinates": [ [ [ 100.967645398302665, 14.01550361733765 ], [ 100.933523578227195, 14.000329242841905 ], [ 100.902751557144725, 14.021513814995513 ], [ 100.906102119561893, 14.057875867404036 ], [ 100.940231374349324, 14.0730497297693 ], [ 100.97100262905208, 14.051862048077581 ], [ 100.967645398302665, 14.01550361733765 ] ] ] } },
{ "type": "Feature", "properties": { "cell_id": "8664a4c6fffffff", "resolution": 6, "type": "h3" }, "geometry": { "type": "Polygon", "coordinates": [ [ [ 100.902751557144725, 14.021513814995513 ], [ 100.868625986666316, 14.006329500356127 ], [ 100.837843582225887, 14.027507724631189 ], [ 100.841187464724314, 14.063873354477 ], [ 100.875320434526401, 14.079057186397655 ], [ 100.906102119561893, 14.057875867404036 ], [ 100.902751557144725, 14.021513814995513 ] ] ] } },
{ "type": "Feature", "properties": { "cell_id": "8664a4167ffffff", "resolution": 6, "type": "h3" }, "geometry": { "type": "Polygon", "coordinates": [ [ [ 100.633069491917482, 13.936241106222948 ], [ 100.59894095307537, 13.92100651949354 ], [ 100.56812677619105, 13.942159345828891 ], [ 100.57144165882255, 13.978549823384366 ], [ 100.605577444193869, 13.993784076108851 ], [ 100.636391097509559, 13.972628181466826 ], [ 100.633069491917482, 13.936241106222948 ] ] ] } },
{ "type": "Feature", "properties": { "cell_id": "8664a4127ffffff", "resolution": 6, "type": "h3" }, "geometry": { "type": "Polygon", "coordinates": [ [ [ 100.800374897718171, 13.975940554865586 ], [ 100.766249427671482, 13.960735956092453 ], [ 100.735456070110729, 13.981904705520142 ], [ 100.738788824699355, 14.018281139040011 ], [ 100.772921635583657, 14.033485314760563 ], [ 100.803714348116301, 14.012313476216105 ], [ 100.800374897718171, 13.975940554865586 ] ] ] } },
{ "type": "Feature", "properties": { "cell_id": "8664a412fffffff", "resolution": 6, "type": "h3" }, "geometry": { "type": "Polygon", "coordinates": [ [ [ 100.735456070110729, 13.981904705520142 ], [ 100.701327074652639, 13.966690215399638 ], [ 100.670523531436302, 13.987852556271871 ], [ 100.673849578749724, 14.024232457611259 ], [ 100.707985879468865, 14.039446554064648 ], [ 100.738788824699355, 14.018281139040011 ], [ 100.735456070110729, 13.981904705520142 ] ] ] } },
{ "type": "Feature", "properties": { "cell_id": "8664a4177ffffff", "resolution": 6, "type": "h3" }, "geometry": { "type": "Polygon", "coordinates": [ [ [ 100.670523531436302, 13.987852556271871 ], [ 100.636391097509559, 13.972628181466826 ], [ 100.605577444193869, 13.993784076108851 ], [ 100.608896772811264, 14.030167400879233 ], [ 100.643036476343312, 14.045391411390282 ], [ 100.673849578749724, 14.024232457611259 ], [ 100.670523531436302, 13.987852556271871 ] ] ] } },
{ "type": "Feature", "properties": { "cell_id": "8664a4107ffffff", "resolution": 6, "type": "h3" }, "geometry": { "type": "Polygon", "coordinates": [ [ [ 100.772921635583657, 14.033485314760563 ], [ 100.738788824699355, 14.018281139040011 ], [ 100.707985879468865, 14.039446554064648 ], [ 100.711316367548264, 14.075819205932186 ], [ 100.745456506738563, 14.091022957722924 ], [ 100.776258826621287, 14.069854477772509 ], [ 100.772921635583657, 14.033485314760563 ] ] ] } },
{ "type": "Feature", "properties": { "cell_id": "8664a410fffffff", "resolution": 6, "type": "h3" }, "geometry": { "type": "Polygon", "coordinates": [ [ [ 100.707985879468865, 14.039446554064648 ], [ 100.673849578749724, 14.024232457611259 ], [ 100.643036476343312, 14.045391411390282 ], [ 100.646360250011838, 14.081767507763965 ], [ 100.680503843408559, 14.096981209663891 ], [ 100.711316367548264, 14.075819205932186 ], [ 100.707985879468865, 14.039446554064648 ] ] ] } },
{ "type": "Feature", "properties": { "cell_id": "8664a4157ffffff", "resolution": 6, "type": "h3" }, "geometry": { "type": "Polygon", "coordinates": [ [ [ 100.643036476343312, 14.045391411390282 ], [ 100.608896772811264, 14.030167400879233 ], [ 100.578073588877288, 14.051319855750895 ], [ 100.581390636727363, 14.087699352242831 ], [ 100.615537597229505, 14.102922997564152 ], [ 100.646360250011838, 14.081767507763965 ], [ 100.643036476343312, 14.045391411390282 ] ] ] } },
{ "type": "Feature", "properties": { "cell_id": "8664a4117ffffff", "resolution": 6, "type": "h3" }, "geometry": { "type": "Polygon", "coordinates": [ [ [ 100.810395424585735, 14.085048272869217 ], [ 100.776258826621287, 14.069854477772509 ], [ 100.745456506738563, 14.091022957722924 ], [ 100.748791434616209, 14.127388284653307 ], [ 100.782935383927466, 14.142581625587647 ], [ 100.813737051084118, 14.121410089952866 ], [ 100.810395424585735, 14.085048272869217 ] ] ] } },
{ "type": "Feature", "properties": { "cell_id": "8664a411fffffff", "resolution": 6, "type": "h3" }, "geometry": { "type": "Polygon", "coordinates": [ [ [ 100.745456506738563, 14.091022957722924 ], [ 100.711316367548264, 14.075819205932186 ], [ 100.680503843408559, 14.096981209663891 ], [ 100.683832061181079, 14.133350002130967 ], [ 100.717979516117353, 14.148553329138778 ], [ 100.748791434616209, 14.127388284653307 ], [ 100.745456506738563, 14.091022957722924 ] ] ] } },
{ "type": "Feature", "properties": { "cell_id": "8664a4027ffffff", "resolution": 6, "type": "h3" }, "geometry": { "type": "Polygon", "coordinates": [ [ [ 100.680503843408559, 14.096981209663891 ], [ 100.646360250011838, 14.081767507763965 ], [ 100.615537597229505, 14.102922997564152 ], [ 100.618859093457431, 14.139295211219224 ], [ 100.65300996691991, 14.15450851770318 ], [ 100.683832061181079, 14.133350002130967 ], [ 100.680503843408559, 14.096981209663891 ] ] ] } },
{ "type": "Feature", "properties": { "cell_id": "8664a4ab7ffffff", "resolution": 6, "type": "h3" }, "geometry": { "type": "Polygon", "coordinates": [ [ [ 100.503170773050471, 13.948061275007177 ], [ 100.469035721109776, 13.932807011844279 ], [ 100.43820164543979, 13.953946863219127 ], [ 100.441503048164449, 13.990344011964414 ], [ 100.475645275033827, 14.005597999822827 ], [ 100.506478921377678, 13.984455110408966 ], [ 100.503170773050471, 13.948061275007177 ] ] ] } },
{ "type": "Feature", "properties": { "cell_id": "8664a4a87ffffff", "resolution": 6, "type": "h3" }, "geometry": { "type": "Polygon", "coordinates": [ [ [ 100.43820164543979, 13.953946863219127 ], [ 100.404063467685177, 13.938682772376769 ], [ 100.37321955650394, 13.959816080093386 ], [ 100.376514202373443, 13.996216497642301 ], [ 100.410659519140097, 14.011480342510055 ], [ 100.441503048164449, 13.990344011964414 ], [ 100.43820164543979, 13.953946863219127 ] ] ] } },
{ "type": "Feature", "properties": { "cell_id": "8664a4147ffffff", "resolution": 6, "type": "h3" }, "geometry": { "type": "Polygon", "coordinates": [ [ [ 100.605577444193869, 13.993784076108851 ], [ 100.57144165882255, 13.978549823384366 ], [ 100.540617971089446, 13.999699234185412 ], [ 100.543930569635179, 14.036085937960031 ], [ 100.578073588877288, 14.051319855750895 ], [ 100.608896772811264, 14.030167400879233 ], [ 100.605577444193869, 13.993784076108851 ] ] ] } },
{ "type": "Feature", "properties": { "cell_id": "8664a414fffffff", "resolution": 6, "type": "h3" }, "geometry": { "type": "Polygon", "coordinates": [ [ [ 100.540617971089446, 13.999699234185412 ], [ 100.506478921377678, 13.984455110408966 ], [ 100.475645275033827, 14.005597999822827 ], [ 100.478951132177571, 14.041988038137179 ], [ 100.513097379947396, 14.057231856327217 ], [ 100.543930569635179, 14.036085937960031 ], [ 100.540617971089446, 13.999699234185412 ] ] ] } },
{ "type": "Feature", "properties": { "cell_id": "8664a4a97ffffff", "resolution": 6, "type": "h3" }, "geometry": { "type": "Polygon", "coordinates": [ [ [ 100.475645275033827, 14.005597999822827 ], [ 100.441503048164449, 13.990344011964414 ], [ 100.410659519140097, 14.011480342510055 ], [ 100.413958623597139, 14.047873670862366 ], [ 100.448108012634066, 14.063127382468016 ], [ 100.478951132177571, 14.041988038137179 ], [ 100.475645275033827, 14.005597999822827 ] ] ] } },
{ "type": "Feature", "properties": { "cell_id": "8664a415fffffff", "resolution": 6, "type": "h3" }, "geometry": { "type": "Polygon", "coordinates": [ [ [ 100.578073588877288, 14.051319855750895 ], [ 100.543930569635179, 14.036085937960031 ], [ 100.513097379947396, 14.057231856327217 ], [ 100.516407690616731, 14.09361470851155 ], [ 100.550557931042889, 14.108848290463396 ], [ 100.581390636727363, 14.087699352242831 ], [ 100.578073588877288, 14.051319855750895 ] ] ] } },
{ "type": "Feature", "properties": { "cell_id": "8664a4067ffffff", "resolution": 6, "type": "h3" }, "geometry": { "type": "Polygon", "coordinates": [ [ [ 100.513097379947396, 14.057231856327217 ], [ 100.478951132177571, 14.041988038137179 ], [ 100.448108012634066, 14.063127382468016 ], [ 100.451411574805817, 14.099513545881397 ], [ 100.485565007895545, 14.114757057569692 ], [ 100.516407690616731, 14.09361470851155 ], [ 100.513097379947396, 14.057231856327217 ] ] ] } },
{ "type": "Feature", "properties": { "cell_id": "8664a406fffffff", "resolution": 6, "type": "h3" }, "geometry": { "type": "Polygon", "coordinates": [ [ [ 100.448108012634066, 14.063127382468016 ], [ 100.413958623597139, 14.047873670862366 ], [ 100.383105650219221, 14.069006403690818 ], [ 100.386402452622249, 14.10539583383288 ], [ 100.420558991037353, 14.12064926826022 ], [ 100.451411574805817, 14.099513545881397 ], [ 100.448108012634066, 14.063127382468016 ] ] ] } },
{ "type": "Feature", "properties": { "cell_id": "8664a402fffffff", "resolution": 6, "type": "h3" }, "geometry": { "type": "Polygon", "coordinates": [ [ [ 100.615537597229505, 14.102922997564152 ], [ 100.581390636727363, 14.087699352242831 ], [ 100.550557931042889, 14.108848290463396 ], [ 100.553872694331915, 14.145223880919586 ], [ 100.588026899140644, 14.160447160178997 ], [ 100.618859093457431, 14.139295211219224 ], [ 100.615537597229505, 14.102922997564152 ] ] ] } },
{ "type": "Feature", "properties": { "cell_id": "8664a4077ffffff", "resolution": 6, "type": "h3" }, "geometry": { "type": "Polygon", "coordinates": [ [ [ 100.550557931042889, 14.108848290463396 ], [ 100.516407690616731, 14.09361470851155 ], [ 100.485565007895545, 14.114757057569692 ], [ 100.488873026896783, 14.151135980402403 ], [ 100.523030475791955, 14.166369225633101 ], [ 100.553872694331915, 14.145223880919586 ], [ 100.550557931042889, 14.108848290463396 ] ] ] } },
{ "type": "Feature", "properties": { "cell_id": "8664a4137ffffff", "resolution": 6, "type": "h3" }, "geometry": { "type": "Polygon", "coordinates": [ [ [ 100.837843582225887, 14.027507724631189 ], [ 100.803714348116301, 14.012313476216105 ], [ 100.772921635583657, 14.033485314760563 ], [ 100.776258826621287, 14.069854477772509 ], [ 100.810395424585735, 14.085048272869217 ], [ 100.841187464724314, 14.063873354477 ], [ 100.837843582225887, 14.027507724631189 ] ] ] } },
{ "type": "Feature", "properties": { "cell_id": "8664a4c47ffffff", "resolution": 6, "type": "h3" }, "geometry": { "type": "Polygon", "coordinates": [ [ [ 100.940231374349324, 14.0730497297693 ], [ 100.906102119561893, 14.057875867404036 ], [ 100.875320434526401, 14.079057186397655 ], [ 100.878668748116368, 14.115415449363651 ], [ 100.912805425212156, 14.130588798771852 ], [ 100.943586363457229, 14.109404394386329 ], [ 100.940231374349324, 14.0730497297693 ] ] ] } },
{ "type": "Feature", "properties": { "cell_id": "8664a4c4fffffff", "resolution": 6, "type": "h3" }, "geometry": { "type": "Polygon", "coordinates": [ [ [ 100.875320434526401, 14.079057186397655 ], [ 100.841187464724314, 14.063873354477 ], [ 100.810395424585735, 14.085048272869217 ], [ 100.813737051084118, 14.121410089952866 ], [ 100.84787740775397, 14.136593438319636 ], [ 100.878668748116368, 14.115415449363651 ], [ 100.875320434526401, 14.079057186397655 ] ] ] } },
{ "type": "Feature", "properties": { "cell_id": "8664a4c57ffffff", "resolution": 6, "type": "h3" }, "geometry": { "type": "Polygon", "coordinates": [ [ [ 100.977719274131232, 14.124567738547906 ], [ 100.943586363457229, 14.109404394386329 ], [ 100.912805425212156, 14.130588798771852 ], [ 100.916158168872528, 14.166939619586721 ], [ 100.950298524834878, 14.182102420583748 ], [ 100.981078688888232, 14.160914940148084 ], [ 100.977719274131232, 14.124567738547906 ] ] ] } },
{ "type": "Feature", "properties": { "cell_id": "8664a4c5fffffff", "resolution": 6, "type": "h3" }, "geometry": { "type": "Polygon", "coordinates": [ [ [ 100.912805425212156, 14.130588798771852 ], [ 100.878668748116368, 14.115415449363651 ], [ 100.84787740775397, 14.136593438319636 ], [ 100.851223468712476, 14.172947834158048 ], [ 100.885367555684482, 14.188120669807562 ], [ 100.916158168872528, 14.166939619586721 ], [ 100.912805425212156, 14.130588798771852 ] ] ] } },
{ "type": "Feature", "properties": { "cell_id": "8664a41a7ffffff", "resolution": 6, "type": "h3" }, "geometry": { "type": "Polygon", "coordinates": [ [ [ 100.84787740775397, 14.136593438319636 ], [ 100.813737051084118, 14.121410089952866 ], [ 100.782935383927466, 14.142581625587647 ], [ 100.786274750623306, 14.178939552218635 ], [ 100.820422481676545, 14.194122416221052 ], [ 100.851223468712476, 14.172947834158048 ], [ 100.84787740775397, 14.136593438319636 ] ] ] } },
{ "type": "Feature", "properties": { "cell_id": "8664a4cefffffff", "resolution": 6, "type": "h3" }, "geometry": { "type": "Polygon", "coordinates": [ [ [ 100.950298524834878, 14.182102420583748 ], [ 100.916158168872528, 14.166939619586721 ], [ 100.885367555684482, 14.188120669807562 ], [ 100.888718050090134, 14.224467569188228 ], [ 100.922865838932609, 14.239629826252868 ], [ 100.953655697532184, 14.218445724080976 ], [ 100.950298524834878, 14.182102420583748 ] ] ] } },
{ "type": "Feature", "properties": { "cell_id": "8664a41b7ffffff", "resolution": 6, "type": "h3" }, "geometry": { "type": "Polygon", "coordinates": [ [ [ 100.885367555684482, 14.188120669807562 ], [ 100.851223468712476, 14.172947834158048 ], [ 100.820422481676545, 14.194122416221052 ], [ 100.823766286198136, 14.230472867294473 ], [ 100.857917770585729, 14.245645188408597 ], [ 100.888718050090134, 14.224467569188228 ], [ 100.885367555684482, 14.188120669807562 ] ] ] } },
{ "type": "Feature", "properties": { "cell_id": "8664a4187ffffff", "resolution": 6, "type": "h3" }, "geometry": { "type": "Polygon", "coordinates": [ [ [ 100.820422481676545, 14.194122416221052 ], [ 100.786274750623306, 14.178939552218635 ], [ 100.755463465155941, 14.20010762824441 ], [ 100.758800568245547, 14.236461586780349 ], [ 100.792955661169344, 14.251643965632566 ], [ 100.823766286198136, 14.230472867294473 ], [ 100.820422481676545, 14.194122416221052 ] ] ] } },
{ "type": "Feature", "properties": { "cell_id": "8664a4cc7ffffff", "resolution": 6, "type": "h3" }, "geometry": { "type": "Polygon", "coordinates": [ [ [ 100.987799703905878, 14.233597910888381 ], [ 100.953655697532184, 14.218445724080976 ], [ 100.922865838932609, 14.239629826252868 ], [ 100.92622076576005, 14.27596915406871 ], [ 100.960372228013028, 14.291120766801543 ], [ 100.991161304594243, 14.269933622007223 ], [ 100.987799703905878, 14.233597910888381 ] ] ] } },
{ "type": "Feature", "properties": { "cell_id": "8664a4047ffffff", "resolution": 6, "type": "h3" }, "geometry": { "type": "Polygon", "coordinates": [ [ [ 100.485565007895545, 14.114757057569692 ], [ 100.451411574805817, 14.099513545881397 ], [ 100.420558991037353, 14.12064926826022 ], [ 100.423860254447519, 14.157031479007625 ], [ 100.458020860090727, 14.172274683301824 ], [ 100.488873026896783, 14.151135980402403 ], [ 100.485565007895545, 14.114757057569692 ] ] ] } },
{ "type": "Feature", "properties": { "cell_id": "8664a41afffffff", "resolution": 6, "type": "h3" }, "geometry": { "type": "Polygon", "coordinates": [ [ [ 100.782935383927466, 14.142581625587647 ], [ 100.748791434616209, 14.127388284653307 ], [ 100.717979516117353, 14.148553329138778 ], [ 100.721312177034349, 14.184914742292039 ], [ 100.755463465155941, 14.20010762824441 ], [ 100.786274750623306, 14.178939552218635 ], [ 100.782935383927466, 14.142581625587647 ] ] ] } },
{ "type": "Feature", "properties": { "cell_id": "8664a4037ffffff", "resolution": 6, "type": "h3" }, "geometry": { "type": "Polygon", "coordinates": [ [ [ 100.717979516117353, 14.148553329138778 ], [ 100.683832061181079, 14.133350002130967 ], [ 100.65300996691991, 14.15450851770318 ], [ 100.656335910586748, 14.190873373069534 ], [ 100.690490668680582, 14.206076274465413 ], [ 100.721312177034349, 14.184914742292039 ], [ 100.717979516117353, 14.148553329138778 ] ] ] } },
{ "type": "Feature", "properties": { "cell_id": "8664a4007ffffff", "resolution": 6, "type": "h3" }, "geometry": { "type": "Polygon", "coordinates": [ [ [ 100.65300996691991, 14.15450851770318 ], [ 100.618859093457431, 14.139295211219224 ], [ 100.588026899140644, 14.160447160178997 ], [ 100.591346114131113, 14.196815413410874 ], [ 100.625504255019095, 14.212028323640171 ], [ 100.656335910586748, 14.190873373069534 ], [ 100.65300996691991, 14.15450851770318 ] ] ] } },
{ "type": "Feature", "properties": { "cell_id": "8664a418fffffff", "resolution": 6, "type": "h3" }, "geometry": { "type": "Polygon", "coordinates": [ [ [ 100.755463465155941, 14.20010762824441 ], [ 100.721312177034349, 14.184914742292039 ], [ 100.690490668680582, 14.206076274465413 ], [ 100.693821058835084, 14.242433696194537 ], [ 100.727979673202114, 14.257626126369692 ], [ 100.758800568245547, 14.236461586780349 ], [ 100.755463465155941, 14.20010762824441 ] ] ] } },
{ "type": "Feature", "properties": { "cell_id": "8664a4ccfffffff", "resolution": 6, "type": "h3" }, "geometry": { "type": "Polygon", "coordinates": [ [ [ 100.922865838932609, 14.239629826252868 ], [ 100.888718050090134, 14.224467569188228 ], [ 100.857917770585729, 14.245645188408597 ], [ 100.861266011928222, 14.281988088771351 ], [ 100.895421221214036, 14.297149801160948 ], [ 100.92622076576005, 14.27596915406871 ], [ 100.922865838932609, 14.239629826252868 ] ] ] } },
{ "type": "Feature", "properties": { "cell_id": "8664a4197ffffff", "resolution": 6, "type": "h3" }, "geometry": { "type": "Polygon", "coordinates": [ [ [ 100.857917770585729, 14.245645188408597 ], [ 100.823766286198136, 14.230472867294473 ], [ 100.792955661169344, 14.251643965632566 ], [ 100.796297205447317, 14.287990394352377 ], [ 100.8304560747614, 14.303162200179317 ], [ 100.861266011928222, 14.281988088771351 ], [ 100.857917770585729, 14.245645188408597 ] ] ] } }
]
}
